source,externalId,name,address,address2,city,state,zip,country,lat,lng,phone,fax,email,url,providesPrep,providesPep,allowingWalkIns,needReferralLetter,dispensePrepOnsite,hoursHtml
mypreplocator,1124,Klinik Kesihatan Temerloh (MyPrEPGov2023),Jalan Triang,,Temerloh,Pahang,28000,Malaysia,3.437832,102.460987,+609-296 1275,,,,true,false,Walk-in,true,Onsite,"<table role=""presentation"" class=""wpsl-opening-hours""><tr><td>Monday</td><td>Closed</td></tr><tr><td>Tuesday</td><td><time>2:30 PM - 4:30 PM</time></td></tr><tr><td>Wednesday</td><td>Closed</td></tr><tr><td>Thursday</td><td><time>2:30 PM - 4:30 PM</time></td></tr><tr><td>Friday</td><td>Closed</td></tr><tr><td>Saturday</td><td>Closed</td></tr><tr><td>Sunday</td><td>Closed</td></tr></table>"
mypreplocator,1137,Klinik &#038; Surgeri Medi-Sihat,"Lot 3&4 (Ground Floor) Jalan Besar, Ulu Yam Bharu",,Ulu Yam Bharu,Selangor,44300,Malaysia,3.367476,101.605544,+017-573 7303,,medisihatmy@gmail.com,https://www.facebook.com/profile.php?id=100076269458555,true,true,Walk-in,false,Onsite,"<table role=""presentation"" class=""wpsl-opening-hours""><tr><td>Monday</td><td><time>9:00 AM - 10:00 PM</time></td></tr><tr><td>Tuesday</td><td><time>9:00 AM - 10:00 PM</time></td></tr><tr><td>Wednesday</td><td><time>9:00 AM - 10:00 PM</time></td></tr><tr><td>Thursday</td><td><time>9:00 AM - 10:00 PM</time></td></tr><tr><td>Friday</td><td><time>9:00 AM - 10:00 PM</time></td></tr><tr><td>Saturday</td><td><time>10:00 AM - 7:00 PM</time></td></tr><tr><td>Sunday</td><td><time>10:00 AM - 7:00 PM</time></td></tr></table>"
mypreplocator,1304,O2 Klinik Ipoh Garden,Lot 13 Jalan Niaga Simee 1,Pusat Perniagaan Simee,Ipoh,Perak,31400,Malaysia,4.618418,101.116305,+6016-937 3345,,o2klinikipohgarden@gmail.com,http://www.o2klinik.com,true,true,Walk-in,true,Onsite,"<table role=""presentation"" class=""wpsl-opening-hours""><tr><td>Monday</td><td><time>8:00 AM - 10:00 PM</time></td></tr><tr><td>Tuesday</td><td><time>8:00 AM - 10:00 PM</time></td></tr><tr><td>Wednesday</td><td><time>8:00 AM - 10:00 PM</time></td></tr><tr><td>Thursday</td><td><time>8:00 AM - 10:00 PM</time></td></tr><tr><td>Friday</td><td><time>8:00 AM - 10:00 PM</time></td></tr><tr><td>Saturday</td><td><time>8:00 AM - 10:00 PM</time></td></tr><tr><td>Sunday</td><td><time>8:00 AM - 10:00 PM</time></td></tr></table>"
mypreplocator,1023,Klinik Shatin,"79, Jalan Pengkalan Barat,","Off Jalan New Pasir Puteh,",Ipoh,Perak,31650,Malaysia,4.5563,101.07522,+605-321 6922 / +6011-1183 7922,,klinikshatin@gmail.com,https://www.klinikshatin.com/,true,true,Walk-in,false,Onsite,"<table role=""presentation"" class=""wpsl-opening-hours""><tr><td>Monday</td><td><time>9:00 AM - 8:00 PM</time></td></tr><tr><td>Tuesday</td><td><time>9:00 AM - 8:00 PM</time></td></tr><tr><td>Wednesday</td><td><time>9:00 AM - 8:00 PM</time></td></tr><tr><td>Thursday</td><td><time>9:00 AM - 8:00 PM</time></td></tr><tr><td>Friday</td><td><time>9:00 AM - 8:00 PM</time></td></tr><tr><td>Saturday</td><td><time>9:00 AM - 8:00 PM</time></td></tr><tr><td>Sunday</td><td>Closed</td></tr></table>"
mypreplocator,346,People&#8217;s Klinik,"19, Jalan Yang Kalsom",,"Ipoh, Malaysia",Perak,30250,Malaysia,4.591712,101.084258,+605-255 2906,,phangch48@hotmail.com,,true,true,Appointment needed,true,Onsite,"<table role=""presentation"" class=""wpsl-opening-hours""><tr><td>Monday</td><td><time>9:00 AM - 12:30 PM</time><time>2:00 PM - 5:00 PM</time></td></tr><tr><td>Tuesday</td><td><time>9:00 AM - 12:30 PM</time><time>2:00 PM - 5:00 PM</time></td></tr><tr><td>Wednesday</td><td><time>9:00 AM - 12:30 PM</time><time>2:00 PM - 5:00 PM</time></td></tr><tr><td>Thursday</td><td><time>9:00 AM - 12:30 PM</time><time>2:00 PM - 5:00 PM</time></td></tr><tr><td>Friday</td><td><time>9:00 AM - 12:30 PM</time><time>2:00 PM - 5:00 PM</time></td></tr><tr><td>Saturday</td><td><time>9:00 AM - 12:30 PM</time><time>2:00 PM - 5:00 PM</time></td></tr><tr><td>Sunday</td><td>Closed</td></tr></table>"
mypreplocator,1100,Klinik Kesihatan Greentown (MyPrEPGov2023),Jalan Raja Musa Aziz,,Ipoh,Perak,30450,മലേഷ്യ,4.602814,101.087131,+605-253 0801,,,,true,false,Walk-in,true,Onsite,"<table role=""presentation"" class=""wpsl-opening-hours""><tr><td>Monday</td><td><time>2:00 PM - 4:30 PM</time></td></tr><tr><td>Tuesday</td><td><time>8:00 AM - 5:00 PM</time></td></tr><tr><td>Wednesday</td><td>Closed</td></tr><tr><td>Thursday</td><td>Closed</td></tr><tr><td>Friday</td><td><time>8:00 AM - 11:30 AM</time></td></tr><tr><td>Saturday</td><td>Closed</td></tr><tr><td>Sunday</td><td>Closed</td></tr></table>"
mypreplocator,1655,KLINIK SINAR CERIA CAWANGAN SELAYANG,"17A, Jalan Besar Selayang Baru",Selayang Baru,Batu Caves,Selangor,68100,മലേഷ്യ,3.245467,101.669617,+603-6128 0611,,ksc.selayang@gmail.com,https://kliniksinarceria.com/,true,false,Walk-in,false,Onsite,"<table role=""presentation"" class=""wpsl-opening-hours""><tr><td>Monday</td><td><time>8:00 AM - 10:00 PM</time></td></tr><tr><td>Tuesday</td><td><time>8:00 AM - 10:00 PM</time></td></tr><tr><td>Wednesday</td><td><time>8:00 AM - 10:00 PM</time></td></tr><tr><td>Thursday</td><td><time>8:00 AM - 10:00 PM</time></td></tr><tr><td>Friday</td><td><time>8:00 AM - 10:00 PM</time></td></tr><tr><td>Saturday</td><td><time>9:00 AM - 9:00 PM</time></td></tr><tr><td>Sunday</td><td><time>9:00 AM - 9:00 PM</time></td></tr></table>"
mypreplocator,1295,Klinik Dr.Prevents 24 JAM,A-2-8 Viva,Jalan Ipoh,Kuala Lumpur,Kuala Lumpur (Federal Territory),51200,Malaysia,3.214851,101.747329,,,klinikdrpreventsji@gmail.com,http://www.drprevents.com,true,true,Walk-in,false,Onsite,"<table role=""presentation"" class=""wpsl-opening-hours""><tr><td>Monday</td><td><time>9:00 AM - 9:00 AM</time></td></tr><tr><td>Tuesday</td><td><time>9:00 AM - 9:00 AM</time></td></tr><tr><td>Wednesday</td><td><time>9:00 AM - 9:00 AM</time></td></tr><tr><td>Thursday</td><td><time>9:00 AM - 9:00 AM</time></td></tr><tr><td>Friday</td><td><time>9:00 AM - 9:00 AM</time></td></tr><tr><td>Saturday</td><td><time>9:00 AM - 9:00 AM</time></td></tr><tr><td>Sunday</td><td><time>9:00 AM - 9:00 AM</time></td></tr></table>"
mypreplocator,1511,Klinik Afya,"303, Lorong Selangor",Taman Melawati,Kuala Lumpur,Kuala Lumpur (Federal Territory),53100,മലേഷ്യ,3.210365,101.747586,+6011 28129399,,klinikafyamelawati@gmail.com,,true,true,Appointment needed,false,Onsite,"<table role=""presentation"" class=""wpsl-opening-hours""><tr><td>Monday</td><td><time>09:00 - 22:00</time></td></tr><tr><td>Tuesday</td><td><time>09:00 - 22:00</time></td></tr><tr><td>Wednesday</td><td><time>09:00 - 22:00</time></td></tr><tr><td>Thursday</td><td><time>09:00 - 22:00</time></td></tr><tr><td>Friday</td><td><time>09:00 - 22:00</time></td></tr><tr><td>Saturday</td><td><time>09:00 - 22:00</time></td></tr><tr><td>Sunday</td><td><time>09:00 - 22:00</time></td></tr></table>"
mypreplocator,854,U.n.i Klinik Permata,UNIklinik Taman Permata,"No.3, Persiaran Permata,",Ampang Jaya,Kuala Lumpur (Federal Territory),53300,Malaysia,3.206214,101.751982,+603-4161 3330,,unikliniktmnpermata@gmail.com,https://www.facebook.com/uniklinikpermata/,true,true,Walk-in,false,Onsite,"<table role=""presentation"" class=""wpsl-opening-hours""><tr><td>Monday</td><td><time>8:00 AM - 10:30 PM</time></td></tr><tr><td>Tuesday</td><td><time>8:00 AM - 10:30 PM</time></td></tr><tr><td>Wednesday</td><td><time>8:00 AM - 10:30 PM</time></td></tr><tr><td>Thursday</td><td><time>8:00 AM - 10:30 PM</time></td></tr><tr><td>Friday</td><td><time>8:00 AM - 10:30 PM</time></td></tr><tr><td>Saturday</td><td><time>8:00 AM - 10:30 PM</time></td></tr><tr><td>Sunday</td><td><time>8:00 AM - 10:30 PM</time></td></tr></table>"
mypreplocator,612,Klinik Low,"20, Jalan 1/27b",Desa Setapak,Kuala Lumpur,Kuala Lumpur (Federal Territory),53300,Malaysia,3.206336,101.734097,+603-4149 7801,,kliniklow601@gmail.com,http://kliniklow.com,true,false,Walk-in,false,Onsite,"<table role=""presentation"" class=""wpsl-opening-hours""><tr><td>Monday</td><td><time>8:30 AM - 12:30 PM</time></td></tr><tr><td>Tuesday</td><td><time>8:30 AM - 12:30 PM</time></td></tr><tr><td>Wednesday</td><td><time>8:30 AM - 12:30 PM</time></td></tr><tr><td>Thursday</td><td><time>8:30 AM - 12:30 PM</time></td></tr><tr><td>Friday</td><td><time>8:30 AM - 12:30 PM</time></td></tr><tr><td>Saturday</td><td><time>8:30 AM - 12:30 PM</time></td></tr><tr><td>Sunday</td><td>Closed</td></tr></table>"
mypreplocator,1349,MyGombak Clinic,"No. 60, Jalan Jernai 4,",Medan Idaman Gombak,KL,Kuala Lumpur (Federal Territory),53100,Malaysia,3.212029,101.711195,,,mygombakclinic@gmail.com,https://linktr.ee/mygombakclinic,true,true,Walk-in,false,Onsite,"<table role=""presentation"" class=""wpsl-opening-hours""><tr><td>Monday</td><td><time>8:00 AM - 10:00 PM</time></td></tr><tr><td>Tuesday</td><td><time>8:00 AM - 10:00 PM</time></td></tr><tr><td>Wednesday</td><td><time>8:00 AM - 10:00 PM</time></td></tr><tr><td>Thursday</td><td><time>8:00 AM - 10:00 PM</time></td></tr><tr><td>Friday</td><td><time>8:00 AM - 10:00 PM</time></td></tr><tr><td>Saturday</td><td><time>8:00 AM - 10:00 PM</time></td></tr><tr><td>Sunday</td><td><time>8:00 AM - 10:00 PM</time></td></tr></table>"
mypreplocator,1236,Klinik Kwan and Chong,"100G, Jalan Rimbunan Raya","Laman Rimbunan,",Kuala Lumpur,Kuala Lumpur (Federal Territory),52100,Malaysia,3.212203,101.648872,+6017-993 0023,,klinikkwanchong8kepong@gmail.com,https://www.facebook.com/klinikkwanchongkepong/,true,true,Walk-in,false,Onsite,"<table role=""presentation"" class=""wpsl-opening-hours""><tr><td>Monday</td><td><time>8:30 AM - 10:00 PM</time></td></tr><tr><td>Tuesday</td><td><time>8:30 AM - 10:00 PM</time></td></tr><tr><td>Wednesday</td><td><time>8:30 AM - 10:00 PM</time></td></tr><tr><td>Thursday</td><td><time>8:30 AM - 10:00 PM</time></td></tr><tr><td>Friday</td><td><time>8:30 AM - 10:00 PM</time></td></tr><tr><td>Saturday</td><td><time>8:30 AM - 10:00 PM</time></td></tr><tr><td>Sunday</td><td><time>8:30 AM - 10:00 PM</time></td></tr></table>"
mypreplocator,880,Community Health Care Clinic,"2, Level 1,","Jalan Haji Salleh, Sentul,",Kuala Lumpur,Kuala Lumpur (Federal Territory),51100,Malaysia,3.198344,101.686905,+603-4051 3611,,ramesh@ptfmalaysia.org,http://www.chcclinic.org,true,true,Appointment needed,false,Onsite,"<table role=""presentation"" class=""wpsl-opening-hours""><tr><td>Monday</td><td>Closed</td></tr><tr><td>Tuesday</td><td><time>2:00 PM - 7:00 PM</time></td></tr><tr><td>Wednesday</td><td><time>2:00 PM - 7:00 PM</time></td></tr><tr><td>Thursday</td><td><time>2:00 PM - 7:00 PM</time></td></tr><tr><td>Friday</td><td><time>2:00 PM - 6:00 PM</time></td></tr><tr><td>Saturday</td><td><time>10:00 AM - 5:00 PM</time></td></tr><tr><td>Sunday</td><td>Closed</td></tr></table>"
mypreplocator,672,Klinik Dr Lau,"1-17A, Jalan Desa D 1/5",Desa Aman Puri,Kepong,Selangor,52100,Malaysia,3.212179,101.616102,+6019-426 1899,,klinikdrlauamanpuri@gmail.com,,true,true,Walk-in,false,Onsite,"<table role=""presentation"" class=""wpsl-opening-hours""><tr><td>Monday</td><td><time>9:00 AM - 7:00 PM</time></td></tr><tr><td>Tuesday</td><td><time>9:00 AM - 7:00 PM</time></td></tr><tr><td>Wednesday</td><td><time>9:00 AM - 7:00 PM</time></td></tr><tr><td>Thursday</td><td><time>9:00 AM - 7:00 PM</time></td></tr><tr><td>Friday</td><td><time>9:00 AM - 7:00 PM</time></td></tr><tr><td>Saturday</td><td><time>9:00 AM - 3:00 PM</time></td></tr><tr><td>Sunday</td><td>Closed</td></tr></table>"
mypreplocator,1405,Klinik Kok Doh,"No. 38, Jalan 17/42",Taman Kok Doh,"Kuala Lumpur, Malaysia",Kuala Lumpur (Federal Territory),51200,മലേഷ്യ,3.195211,101.665067,,,klinikkokdoh@gmail.com,,true,true,Walk-in,false,Onsite,"<table role=""presentation"" class=""wpsl-opening-hours""><tr><td>Monday</td><td><time>6:00 AM - 6:00 AM</time></td></tr><tr><td>Tuesday</td><td><time>6:00 AM - 6:00 AM</time></td></tr><tr><td>Wednesday</td><td><time>6:00 AM - 6:00 AM</time></td></tr><tr><td>Thursday</td><td><time>6:00 AM - 6:00 AM</time></td></tr><tr><td>Friday</td><td><time>6:00 AM - 6:00 AM</time></td></tr><tr><td>Saturday</td><td><time>6:00 AM - 6:00 AM</time></td></tr><tr><td>Sunday</td><td><time>6:00 AM - 6:00 AM</time></td></tr></table>"
mypreplocator,50,Hospital Sungai Buloh,Infectious Disease Clinic Jalan Hospital,,Sungai Buloh,Selangor,47000,Malaysia,3.219573,101.583081,+603-6145 4333,,,,true,true,Walk-in,false,Onsite,"<table role=""presentation"" class=""wpsl-opening-hours""><tr><td>Monday</td><td><time>8:00 AM - 1:00 PM</time></td></tr><tr><td>Tuesday</td><td>Closed</td></tr><tr><td>Wednesday</td><td><time>8:00 AM - 1:00 PM</time></td></tr><tr><td>Thursday</td><td>Closed</td></tr><tr><td>Friday</td><td>Closed</td></tr><tr><td>Saturday</td><td>Closed</td></tr><tr><td>Sunday</td><td>Closed</td></tr></table>"
mypreplocator,318,Klinik Kesihatan Kuala Lumpur (MyPrEPGov2023),"Jalan Temerloh, Taman Tasik Titiwangsa",,Kuala Lumpur,Kuala Lumpur (Federal Territory),53200,മലേഷ്യ,3.17359,101.708291,+603-2618 3200,,kkkl@moh.gov.my,,true,false,Walk-in,true,Onsite,"<table role=""presentation"" class=""wpsl-opening-hours""><tr><td>Monday</td><td><time>8:00 AM - 5:00 PM</time></td></tr><tr><td>Tuesday</td><td><time>8:00 AM - 5:00 PM</time></td></tr><tr><td>Wednesday</td><td><time>8:00 AM - 5:00 PM</time></td></tr><tr><td>Thursday</td><td><time>8:00 AM - 5:00 PM</time></td></tr><tr><td>Friday</td><td><time>8:00 AM - 5:00 PM</time></td></tr><tr><td>Saturday</td><td>Closed</td></tr><tr><td>Sunday</td><td>Closed</td></tr></table>"
mypreplocator,1355,A Plus Medical Clinic (Segambut),"Lot 1-02A , 1st Floor ,Rain Tree Rain @The Era Duta North","Era Segambut, No 208 ,Jalan Segambut",Kuala Lumpur,Kuala Lumpur (Federal Territory),51200,Malaysia,3.182261,101.67502,,,aone.medclinic@gmail.com,,true,true,Walk-in,false,Onsite,"<table role=""presentation"" class=""wpsl-opening-hours""><tr><td>Monday</td><td><time>9:00 AM - 8:00 PM</time></td></tr><tr><td>Tuesday</td><td><time>9:00 AM - 8:00 PM</time></td></tr><tr><td>Wednesday</td><td><time>9:00 AM - 8:00 PM</time></td></tr><tr><td>Thursday</td><td><time>9:00 AM - 8:00 PM</time></td></tr><tr><td>Friday</td><td><time>9:00 AM - 8:00 PM</time></td></tr><tr><td>Saturday</td><td><time>9:00 AM - 2:00 PM</time></td></tr><tr><td>Sunday</td><td><time>9:00 AM - 2:00 PM</time></td></tr></table>"
mypreplocator,874,Klinik Perubatan Carewell,"No. 2-0-12, Menara KLH, Sentul,",51200 Off Jalan Ipoh,Wilayah Persekutuan Kuala Lumpur,Kuala Lumpur (Federal Territory),51200,Malaysia,3.177331,101.685872,+6016-900 4803,,carewellenlivenhealth@gmail.com,http://klinikcarewell.com/,true,true,Walk-in,false,Onsite,"<table role=""presentation"" class=""wpsl-opening-hours""><tr><td>Monday</td><td><time>8:00 AM - 9:00 PM</time></td></tr><tr><td>Tuesday</td><td><time>8:00 AM - 9:00 PM</time></td></tr><tr><td>Wednesday</td><td><time>8:00 AM - 9:00 PM</time></td></tr><tr><td>Thursday</td><td><time>8:00 AM - 9:00 PM</time></td></tr><tr><td>Friday</td><td><time>8:00 AM - 9:00 PM</time></td></tr><tr><td>Saturday</td><td><time>9:00 AM - 1:00 PM</time></td></tr><tr><td>Sunday</td><td>Closed</td></tr></table>"
mypreplocator,576,Medic Clinic,"Unit No. 1-8, Level 1, Plaza Menjalara","No.1, Jalan Menjalara Idaman, Bandar Menjalara",Kepong,Kuala Lumpur (Federal Territory),52200,Malaysia,3.193707,101.629615,+6018-211 5339,,medic.clinic18@gmail.com,http://medicclinic.com.my,true,true,Walk-in,false,Onsite,"<table role=""presentation"" class=""wpsl-opening-hours""><tr><td>Monday</td><td><time>8:30 AM - 10:00 PM</time></td></tr><tr><td>Tuesday</td><td><time>8:30 AM - 10:00 PM</time></td></tr><tr><td>Wednesday</td><td><time>8:30 AM - 10:00 PM</time></td></tr><tr><td>Thursday</td><td><time>8:30 AM - 10:00 PM</time></td></tr><tr><td>Friday</td><td><time>8:30 AM - 10:00 PM</time></td></tr><tr><td>Saturday</td><td><time>8:30 AM - 10:00 PM</time></td></tr><tr><td>Sunday</td><td><time>8:30 AM - 1:00 PM</time></td></tr></table>"
mypreplocator,1371,Poliklinik Medan Putra,"51G, Jalan Medan Putra 1",Medan Putra Business Centre,Kuala Lumpur,Kuala Lumpur (Federal Territory),52200,Malaysia,3.191959,101.625697,,,poliklinikmedanputra001@gmail.com,,true,false,Walk-in,false,Onsite,"<table role=""presentation"" class=""wpsl-opening-hours""><tr><td>Monday</td><td><time>8:00 AM - 11:00 PM</time></td></tr><tr><td>Tuesday</td><td><time>8:00 AM - 11:00 PM</time></td></tr><tr><td>Wednesday</td><td><time>8:00 AM - 11:00 PM</time></td></tr><tr><td>Thursday</td><td><time>8:00 AM - 11:00 PM</time></td></tr><tr><td>Friday</td><td><time>8:00 AM - 11:00 PM</time></td></tr><tr><td>Saturday</td><td><time>8:00 AM - 11:00 PM</time></td></tr><tr><td>Sunday</td><td><time>8:00 AM - 11:00 PM</time></td></tr></table>"
mypreplocator,281,Qualitas Health &#8211; Radix Clinic,"F-1-12, Plaza Arkadia, No. 3,","Jalan Intisari Perdana, Desa Parkcity",Kuala Lumpur.,Kuala Lumpur (Federal Territory),52200,Malaysia,3.186245,101.635986,+603-2712 0844/0845,,radixclinic@outlook.com,https://myradixclinic.wixsite.com/qualitas,true,true,Appointment needed,false,Onsite,"<table role=""presentation"" class=""wpsl-opening-hours""><tr><td>Monday</td><td><time>9:15 AM - 6:00 PM</time></td></tr><tr><td>Tuesday</td><td><time>9:15 AM - 6:00 PM</time></td></tr><tr><td>Wednesday</td><td><time>9:15 AM - 6:00 PM</time></td></tr><tr><td>Thursday</td><td><time>9:15 AM - 6:00 PM</time></td></tr><tr><td>Friday</td><td><time>9:15 AM - 6:00 PM</time></td></tr><tr><td>Saturday</td><td><time>9:15 AM - 6:00 PM</time></td></tr><tr><td>Sunday</td><td>Closed</td></tr></table>"
mypreplocator,555,Premier Clinic Mont Kiara,"No.10, Jalan Solaris 4",Solaris Mont Kiara,Kuala Lumpur,Kuala Lumpur (Federal Territory),50480,Malaysia,3.175758,101.659363,+6012-326 3563,,dr.foo@premier-clinic.com,,true,true,Appointment needed,false,Onsite,"<table role=""presentation"" class=""wpsl-opening-hours""><tr><td>Monday</td><td><time>2:00 PM - 7:00 PM</time></td></tr><tr><td>Tuesday</td><td><time>10:00 AM - 7:00 PM</time></td></tr><tr><td>Wednesday</td><td><time>10:00 AM - 7:00 PM</time></td></tr><tr><td>Thursday</td><td><time>10:00 AM - 7:00 PM</time></td></tr><tr><td>Friday</td><td><time>10:00 AM - 7:00 PM</time></td></tr><tr><td>Saturday</td><td><time>10:00 AM - 7:00 PM</time></td></tr><tr><td>Sunday</td><td>Closed</td></tr></table>"
mypreplocator,653,Universal Clinic,"Great Eastern Mall, Lot 3A, Level 4",Jalan Ampang,Ampang,Kuala Lumpur (Federal Territory),50450,Malaysia,3.159033,101.714752,+603-4265 4744,,admin@universalclinic.com.my,http://universalclinic.com.my,true,true,Walk-in,false,Onsite,"<table role=""presentation"" class=""wpsl-opening-hours""><tr><td>Monday</td><td><time>10:00 AM - 8:00 PM</time></td></tr><tr><td>Tuesday</td><td><time>10:00 AM - 8:00 PM</time></td></tr><tr><td>Wednesday</td><td><time>10:00 AM - 8:00 PM</time></td></tr><tr><td>Thursday</td><td><time>10:00 AM - 8:00 PM</time></td></tr><tr><td>Friday</td><td><time>10:00 AM - 8:00 PM</time></td></tr><tr><td>Saturday</td><td><time>10:00 AM - 6:00 PM</time></td></tr><tr><td>Sunday</td><td><time>10:00 AM - 6:00 PM</time></td></tr></table>"
mypreplocator,1080,Perdana Medical Clinic,"No 1C3, Ground Floor, North Block, Wisma Golden Eagle Realty, 142 D, Jalan Ampang,",,Kuala Lumpur,Kuala Lumpur (Federal Territory),50450,Malaysia,3.159293,101.709168,017-3843808,,gnanaguru66@gmail.com,,true,true,Walk-in,false,Onsite,"<table role=""presentation"" class=""wpsl-opening-hours""><tr><td>Monday</td><td><time>9:00 AM - 6:00 PM</time></td></tr><tr><td>Tuesday</td><td><time>9:00 AM - 6:00 PM</time></td></tr><tr><td>Wednesday</td><td><time>9:00 AM - 6:00 PM</time></td></tr><tr><td>Thursday</td><td><time>9:00 AM - 6:00 PM</time></td></tr><tr><td>Friday</td><td><time>9:00 AM - 6:00 PM</time></td></tr><tr><td>Saturday</td><td><time>9:00 AM - 1:00 PM</time></td></tr><tr><td>Sunday</td><td>Closed</td></tr></table>"
mypreplocator,929,Klinik Kesihatan Ampang (MyPrEPGov2023),"3, Jalan Ampang Mewah, Pekan Ampang,",,Ampang,Selangor,68000,Malaysia,3.145141,101.76133,"+603-4292 3332, +6011-3902 8612",,bilik32kkampang@gmail.com,https://www.google.com/url?sa=t&#038;source=web&#038;rct=j&#038;url=https://qmed.asia/kkampang&#038;ved=2ahUKEwic4sbcluT7AhWjg2MGHbOhByYQ_Bd6BAgREAQ&#038;usg=AOvVaw2tqTOsyFYo-WliRwlfQ2_K,true,false,Walk-in,true,Onsite,"<table role=""presentation"" class=""wpsl-opening-hours""><tr><td>Monday</td><td><time>8:00 AM - 5:00 PM</time></td></tr><tr><td>Tuesday</td><td><time>8:00 AM - 5:00 PM</time></td></tr><tr><td>Wednesday</td><td><time>8:00 AM - 5:00 PM</time></td></tr><tr><td>Thursday</td><td><time>8:00 AM - 5:00 PM</time></td></tr><tr><td>Friday</td><td><time>8:00 AM - 5:00 PM</time></td></tr><tr><td>Saturday</td><td>Closed</td></tr><tr><td>Sunday</td><td>Closed</td></tr></table>"
mypreplocator,1317,Klinik Chong (Medicruz),55059 2nd Floor Bangunan Eng Choon,Jalan Ampang,Kuala Lumpur,Kuala Lumpur (Federal Territory),50450,Malaysia,3.151592,101.698109,+6012-747 7759,,medicruzhealth@gmail.com,,true,true,Walk-in,false,Onsite,"<table role=""presentation"" class=""wpsl-opening-hours""><tr><td>Monday</td><td><time>9:00 AM - 6:00 PM</time></td></tr><tr><td>Tuesday</td><td><time>9:00 AM - 6:00 PM</time></td></tr><tr><td>Wednesday</td><td><time>9:00 AM - 6:00 PM</time></td></tr><tr><td>Thursday</td><td><time>9:00 AM - 6:00 PM</time></td></tr><tr><td>Friday</td><td><time>9:00 AM - 6:00 PM</time></td></tr><tr><td>Saturday</td><td><time>9:00 AM - 1:00 PM</time></td></tr><tr><td>Sunday</td><td>Closed</td></tr></table>"
mypreplocator,914,The Alpha Clinic,"Unit B-G-10, Gateway Corporate Suites, Gateway Kiaramas","No.1 Jalan Desa Kiara, Mont Kiara",Kuala Lumpur,Kuala Lumpur (Federal Territory),50480,Malaysia,3.165841,101.645881,+6011-6244 6023,,info@thealphaclinic.com.my,http://www.thealphaclinic.com.my,true,true,Walk-in,false,Onsite,"<table role=""presentation"" class=""wpsl-opening-hours""><tr><td>Monday</td><td><time>9:00 AM - 8:00 PM</time></td></tr><tr><td>Tuesday</td><td><time>9:00 AM - 8:00 PM</time></td></tr><tr><td>Wednesday</td><td><time>9:00 AM - 8:00 PM</time></td></tr><tr><td>Thursday</td><td><time>9:00 AM - 8:00 PM</time></td></tr><tr><td>Friday</td><td><time>9:00 AM - 8:00 PM</time></td></tr><tr><td>Saturday</td><td><time>9:00 AM - 5:00 PM</time></td></tr><tr><td>Sunday</td><td><time>9:00 AM - 4:00 PM</time></td></tr></table>"
mypreplocator,542,Pulse Clinic Kuala Lumpur,61A (First Floor) Jalan Sultan Ismail,Bukit Bintang,Kuala Lumpur,Kuala Lumpur (Federal Territory),50250,Malaysia,3.146986,101.710963,+603-2110 2122 / +6011-6538 8678,,info.kl@pulse-clinic.com,http://www.pulse-clinic.com/my,true,true,Walk-in,false,Onsite,"<table role=""presentation"" class=""wpsl-opening-hours""><tr><td>Monday</td><td><time>11:00 AM - 7:00 PM</time></td></tr><tr><td>Tuesday</td><td><time>11:00 AM - 7:00 PM</time></td></tr><tr><td>Wednesday</td><td><time>11:00 AM - 7:00 PM</time></td></tr><tr><td>Thursday</td><td><time>11:00 AM - 7:00 PM</time></td></tr><tr><td>Friday</td><td><time>11:00 AM - 7:00 PM</time></td></tr><tr><td>Saturday</td><td>Closed</td></tr><tr><td>Sunday</td><td>Closed</td></tr></table>"
mypreplocator,1427,Klinik Careclinics (Bukit Bintang),88A Jalan Alor,,Bukit Bintang,Kuala Lumpur (Federal Territory),50200,മലേഷ്യ,3.146294,101.709163,,,mucbukitbintang@careclinics.com.my,https://careclinics.com.my/,true,true,Walk-in,false,Onsite,"<table role=""presentation"" class=""wpsl-opening-hours""><tr><td>Monday</td><td><time>8:00 AM - 11:00 PM</time></td></tr><tr><td>Tuesday</td><td><time>8:00 AM - 11:00 PM</time></td></tr><tr><td>Wednesday</td><td><time>8:00 AM - 11:00 PM</time></td></tr><tr><td>Thursday</td><td><time>8:00 AM - 11:00 PM</time></td></tr><tr><td>Friday</td><td><time>8:00 AM - 11:00 PM</time></td></tr><tr><td>Saturday</td><td><time>10:00 AM - 11:00 PM</time></td></tr><tr><td>Sunday</td><td><time>10:00 AM - 11:00 PM</time></td></tr></table>"
mypreplocator,1187,Klinik Primary Care 4U,"No 60,Ground Floor, Jalan Hang Kasturi",,Kuala Lumpur,Kuala Lumpur (Federal Territory),50050,Malaysia,3.14469,101.695766,+012-6019436,,gpkpc4u@gmail.com,,true,true,Walk-in,false,Onsite,"<table role=""presentation"" class=""wpsl-opening-hours""><tr><td>Monday</td><td><time>9:00 AM - 8:00 PM</time></td></tr><tr><td>Tuesday</td><td><time>9:00 AM - 8:00 PM</time></td></tr><tr><td>Wednesday</td><td><time>9:00 AM - 8:00 PM</time></td></tr><tr><td>Thursday</td><td><time>9:00 AM - 8:00 PM</time></td></tr><tr><td>Friday</td><td><time>9:00 AM - 8:00 PM</time></td></tr><tr><td>Saturday</td><td><time>9:00 AM - 8:00 PM</time></td></tr><tr><td>Sunday</td><td><time>9:00 AM - 8:00 PM</time></td></tr></table>"
mypreplocator,1360,Klinik Unimed Plaza Damansara,"PL-01, Plaza Damansara Block A","45, Medan Setia 1, Bukit Damansara",Kuala Lumpur,Kuala Lumpur (Federal Territory),50490,Malaysia,3.149893,101.653871,,,drjackwong@yahoo.com,,true,false,Walk-in,false,Onsite,"<table role=""presentation"" class=""wpsl-opening-hours""><tr><td>Monday</td><td><time>9:00 AM - 5:00 PM</time></td></tr><tr><td>Tuesday</td><td><time>9:00 AM - 5:00 PM</time></td></tr><tr><td>Wednesday</td><td><time>9:00 AM - 5:00 PM</time></td></tr><tr><td>Thursday</td><td><time>9:00 AM - 5:00 PM</time></td></tr><tr><td>Friday</td><td><time>9:00 AM - 5:00 PM</time></td></tr><tr><td>Saturday</td><td><time>9:00 AM - 1:00 PM</time></td></tr><tr><td>Sunday</td><td>Closed</td></tr></table>"
mypreplocator,1139,Klinik Mediviron Maluri,228 Jalan Mahkota,Taman Maluri,Kuala Lumpur,Kuala Lumpur (Federal Territory),56100,Malaysia,3.128731,101.732614,+03-9201 0515,,medivironmaluri@gmail.com,http://facebook.com/MEDIVIRONMALURI,true,true,Walk-in,false,Onsite,"<table role=""presentation"" class=""wpsl-opening-hours""><tr><td>Monday</td><td><time>7:00 AM - 7:00 AM</time></td></tr><tr><td>Tuesday</td><td><time>7:00 AM - 7:00 AM</time></td></tr><tr><td>Wednesday</td><td><time>7:00 AM - 7:00 AM</time></td></tr><tr><td>Thursday</td><td><time>7:00 AM - 7:00 AM</time></td></tr><tr><td>Friday</td><td><time>7:00 AM - 7:00 AM</time></td></tr><tr><td>Saturday</td><td><time>7:00 AM - 7:00 AM</time></td></tr><tr><td>Sunday</td><td><time>7:00 AM - 7:00 AM</time></td></tr></table>"
mypreplocator,1152,Klinik Hisential Bangsar,"Lot S122, 2nd Floor, Bangsar Shopping Centre,","285, Jalan Maarof, Bukit Bandaraya",Bangsar,Kuala Lumpur (Federal Territory),5900,Malaysia,3.14284,101.667517,+6011-3667 7967,,bangsarclinic@hisential.com,https://hisential.com/hiv-prep/,true,true,Appointment needed,false,Onsite,"<table role=""presentation"" class=""wpsl-opening-hours""><tr><td>Monday</td><td><time>10:00 AM - 7:00 PM</time></td></tr><tr><td>Tuesday</td><td><time>10:00 AM - 7:00 PM</time></td></tr><tr><td>Wednesday</td><td><time>10:00 AM - 7:00 PM</time></td></tr><tr><td>Thursday</td><td><time>10:00 AM - 7:00 PM</time></td></tr><tr><td>Friday</td><td><time>10:00 AM - 7:00 PM</time></td></tr><tr><td>Saturday</td><td><time>10:00 AM - 3:00 PM</time></td></tr><tr><td>Sunday</td><td><time>10:00 AM - 3:00 PM</time></td></tr></table>"
mypreplocator,597,U.n.i Klinik TTDI,"10, Jalan Tun Mohd Fuad 1",Taman Tun Dr Ismail,Kuala Lumpur,Kuala Lumpur (Federal Territory),60000,Malaysia,3.142038,101.629079,+603-7732 8664,,u.n.iklinikttdi@gmail.com,http://uniklinikttdi.com,true,true,Walk-in,false,Onsite,"<table role=""presentation"" class=""wpsl-opening-hours""><tr><td>Monday</td><td><time>8:00 AM - 10:00 PM</time></td></tr><tr><td>Tuesday</td><td><time>8:00 AM - 10:00 PM</time></td></tr><tr><td>Wednesday</td><td><time>8:00 AM - 10:00 PM</time></td></tr><tr><td>Thursday</td><td><time>8:00 AM - 10:00 PM</time></td></tr><tr><td>Friday</td><td><time>8:00 AM - 10:00 PM</time></td></tr><tr><td>Saturday</td><td><time>8:00 AM - 10:00 PM</time></td></tr><tr><td>Sunday</td><td><time>8:00 AM - 10:00 PM</time></td></tr></table>"
mypreplocator,1167,Klinik Plaza Bukit Bintang,"56B, 2nd Floor",Jalan Bukit Bintang,Kuala Lumpur,Kuala Lumpur (Federal Territory),55100,Malaysia,3.14173,101.627213,+6019-757 5579,,clinicbukitbintang@gmail.com,,true,true,Walk-in,false,Onsite,"<table role=""presentation"" class=""wpsl-opening-hours""><tr><td>Monday</td><td><time>9:00 AM - 6:00 PM</time></td></tr><tr><td>Tuesday</td><td><time>9:00 AM - 6:00 PM</time></td></tr><tr><td>Wednesday</td><td><time>9:00 AM - 6:00 PM</time></td></tr><tr><td>Thursday</td><td><time>9:00 AM - 6:00 PM</time></td></tr><tr><td>Friday</td><td><time>9:00 AM - 6:00 PM</time></td></tr><tr><td>Saturday</td><td><time>9:00 AM - 6:00 PM</time></td></tr><tr><td>Sunday</td><td>Closed</td></tr></table>"
mypreplocator,391,Klinik Taman Tun Dr Ismail,"38, Jalan Tun Mohd Fuad",,Taman Tun Dr Ismail,Kuala Lumpur (Federal Territory),60000,Malaysia,3.140109,101.629312,+603-7729 4096,,klinikttdi38@gmail.com,,true,false,Appointment needed,false,Onsite,"<table role=""presentation"" class=""wpsl-opening-hours""><tr><td>Monday</td><td><time>7:00 AM - 7:00 AM</time></td></tr><tr><td>Tuesday</td><td><time>7:00 AM - 7:00 AM</time></td></tr><tr><td>Wednesday</td><td><time>7:00 AM - 7:00 AM</time></td></tr><tr><td>Thursday</td><td><time>7:00 AM - 7:00 AM</time></td></tr><tr><td>Friday</td><td><time>7:00 AM - 7:00 AM</time></td></tr><tr><td>Saturday</td><td><time>7:00 AM - 7:00 AM</time></td></tr><tr><td>Sunday</td><td><time>7:00 AM - 7:00 AM</time></td></tr></table>"
mypreplocator,1556,KLINIK MEDILOVE KOTA DAMANSARA,"11-1 (Ground Floor), Jalan PJU 5/10, Dataran Sunway",,Petaling Jaya,Selangor,47810,മലേഷ്യ,3.151301,101.592901,+6016 2299233,,medilovekd@gmail.com,,true,true,Appointment needed,false,Onsite,"<table role=""presentation"" class=""wpsl-opening-hours""><tr><td>Monday</td><td><time>08:00 - 20:00</time></td></tr><tr><td>Tuesday</td><td><time>08:00 - 20:00</time></td></tr><tr><td>Wednesday</td><td><time>08:00 - 20:00</time></td></tr><tr><td>Thursday</td><td><time>08:00 - 20:00</time></td></tr><tr><td>Friday</td><td><time>08:00 - 20:00</time></td></tr><tr><td>Saturday</td><td>Closed</td></tr><tr><td>Sunday</td><td>Closed</td></tr></table>"
mypreplocator,1034,Poliklinik My Clinic (TGM),"Ashlo Medical Services Sdn Bhd, Tropicana Gardens Mall (TGM)T","Lot LG-01&02, Lower Ground Floor, No 2A Persiaran Surian Tropicana Indah",Petaling Jaya,Selangor,47810,Malaysia,3.148962,101.593413,+603-7629 5911,,myclinic.tgm0102@gmail.com,,true,true,Walk-in,false,Onsite,"<table role=""presentation"" class=""wpsl-opening-hours""><tr><td>Monday</td><td>Closed</td></tr><tr><td>Tuesday</td><td>Closed</td></tr><tr><td>Wednesday</td><td><time>10:00 AM - 8:30 PM</time></td></tr><tr><td>Thursday</td><td>Closed</td></tr><tr><td>Friday</td><td>Closed</td></tr><tr><td>Saturday</td><td>Closed</td></tr><tr><td>Sunday</td><td>Closed</td></tr></table>"
mypreplocator,1623,KLINIK MEDILOVE DAMANSARA UPTOWN,"No 12 (Ground Floor), Jalan SS21/39",Damansara Utama,Petaling Jaya,Selangor,47400,മലേഷ്യ,3.136672,101.621429,+6011-5656 8863,,mediloveuptown@gmail.com,,true,false,Walk-in,false,Onsite,"<table role=""presentation"" class=""wpsl-opening-hours""><tr><td>Monday</td><td><time>8:00 AM - 8:00 PM</time></td></tr><tr><td>Tuesday</td><td><time>8:00 AM - 8:00 PM</time></td></tr><tr><td>Wednesday</td><td><time>8:00 AM - 8:00 PM</time></td></tr><tr><td>Thursday</td><td><time>8:00 AM - 8:00 PM</time></td></tr><tr><td>Friday</td><td><time>8:00 AM - 8:00 PM</time></td></tr><tr><td>Saturday</td><td><time>8:00 AM - 5:00 PM</time></td></tr><tr><td>Sunday</td><td><time>8:00 AM - 5:00 PM</time></td></tr></table>"
mypreplocator,43,Klinik Kesihatan Cheras (MyPrEPGov2023),"No 14, Jalan Yaacob Latiff, Bandar Tun Razak",,Cheras,Kuala Lumpur (Federal Territory),56000,Malaysia,3.10667,101.726556,+603-9133 3322,,kkcheras@moh.gov.my,,true,false,Walk-in,true,Onsite,"<table role=""presentation"" class=""wpsl-opening-hours""><tr><td>Monday</td><td><time>7:30 AM - 12:00 PM</time><time>2:00 PM - 5:00 PM</time></td></tr><tr><td>Tuesday</td><td><time>7:30 AM - 12:00 PM</time><time>2:00 PM - 5:00 PM</time></td></tr><tr><td>Wednesday</td><td><time>7:30 AM - 12:00 PM</time><time>2:00 PM - 5:00 PM</time></td></tr><tr><td>Thursday</td><td><time>7:30 AM - 12:00 PM</time><time>2:00 PM - 5:00 PM</time></td></tr><tr><td>Friday</td><td><time>7:30 AM - 12:00 PM</time><time>2:00 PM - 5:00 PM</time></td></tr><tr><td>Saturday</td><td>Closed</td></tr><tr><td>Sunday</td><td>Closed</td></tr></table>"
mypreplocator,349,Thomson Hospital Kota Damansara (Infectious Disease),"11, Jalan Teknologi, PJU 5, Kota Damansara",,Petaling Jaya,Selangor,47810,Malaysia,3.149023,101.5788,+603-6287 1111,,limsim7@yahoo.com,https://thomsonhospitals.com/en/find-doctor-result?specialties=Infectious+Disease&#038;name=&#038;spoken_language=,true,true,Walk-in,false,Onsite,"<table role=""presentation"" class=""wpsl-opening-hours""><tr><td>Monday</td><td>Closed</td></tr><tr><td>Tuesday</td><td>Closed</td></tr><tr><td>Wednesday</td><td>Closed</td></tr><tr><td>Thursday</td><td>Closed</td></tr><tr><td>Friday</td><td>Closed</td></tr><tr><td>Saturday</td><td><time>10:00 AM - 1:00 PM</time></td></tr><tr><td>Sunday</td><td>Closed</td></tr></table>"
mypreplocator,1250,ALPRO Pharmacy PJ Seksyen 17 (Under My PrEP Pharmacy research),"1088, Jalan 17/29, Seksyen 17",,Petaling Jaya,,46400,Malaysia,3.129319,101.635357,+6019-470 1923,,bpj171@alpropharmacy.com,,true,false,Appointment needed,false,Onsite,"<table role=""presentation"" class=""wpsl-opening-hours""><tr><td>Monday</td><td><time>8:15 AM - 8:45 PM</time></td></tr><tr><td>Tuesday</td><td><time>8:15 AM - 8:45 PM</time></td></tr><tr><td>Wednesday</td><td><time>8:15 AM - 8:45 PM</time></td></tr><tr><td>Thursday</td><td><time>8:15 AM - 8:45 PM</time></td></tr><tr><td>Friday</td><td><time>8:15 AM - 8:45 PM</time></td></tr><tr><td>Saturday</td><td><time>8:15 AM - 8:45 PM</time></td></tr><tr><td>Sunday</td><td><time>8:15 AM - 8:45 PM</time></td></tr></table>"
mypreplocator,587,Family Clinic Seventeen,"923A, Jalan 17/38",,Petaling Jaya,Selangor,46400,Malaysia,3.128252,101.636116,+603-7498 0797,,familyclinicpj17@gmail.com,,true,true,Walk-in,false,Onsite,"<table role=""presentation"" class=""wpsl-opening-hours""><tr><td>Monday</td><td><time>8:00 AM - 8:00 PM</time></td></tr><tr><td>Tuesday</td><td><time>8:00 AM - 8:00 PM</time></td></tr><tr><td>Wednesday</td><td><time>8:00 AM - 8:00 PM</time></td></tr><tr><td>Thursday</td><td><time>8:00 AM - 8:00 PM</time></td></tr><tr><td>Friday</td><td><time>8:00 AM - 8:00 PM</time></td></tr><tr><td>Saturday</td><td><time>8:00 AM - 8:00 PM</time></td></tr><tr><td>Sunday</td><td>Closed</td></tr></table>"
mypreplocator,1153,Klinik SRI,B1-7 Plaza Dwi Tasik,"Jalan Sri Permaisuri, Bandar Sri Permaisuri",Cheras,Kuala Lumpur (Federal Territory),56000,Malaysia,3.102995,101.714217,+6011-1422 0903,,drsri@kliniksri.com.my,https://klinik-sri.business.site/?utm_source=gmb&#038;utm_medium=referral,true,false,Walk-in,false,Onsite,"<table role=""presentation"" class=""wpsl-opening-hours""><tr><td>Monday</td><td><time>8:00 AM - 11:00 PM</time></td></tr><tr><td>Tuesday</td><td><time>8:00 AM - 11:00 PM</time></td></tr><tr><td>Wednesday</td><td><time>8:00 AM - 11:00 PM</time></td></tr><tr><td>Thursday</td><td><time>8:00 AM - 11:00 PM</time></td></tr><tr><td>Friday</td><td><time>8:00 AM - 11:00 PM</time></td></tr><tr><td>Saturday</td><td><time>9:00 AM - 10:00 PM</time></td></tr><tr><td>Sunday</td><td><time>9:00 AM - 10:00 PM</time></td></tr></table>"
mypreplocator,1141,A Plus Medical Clinic,"69, Jalan SS 22/11, Damansara Jaya",Petaling Jaya,Selangor,Selangor,47400,Malaysia,3.129048,101.620993,+6016-931 1128,,aone.medclinic@gmail.com,https://www.aplusclinic.com.my/,true,true,Walk-in,false,Onsite,"<table role=""presentation"" class=""wpsl-opening-hours""><tr><td>Monday</td><td><time>8:30 AM - 7:00 PM</time></td></tr><tr><td>Tuesday</td><td><time>8:30 AM - 7:00 PM</time></td></tr><tr><td>Wednesday</td><td><time>8:30 AM - 7:00 PM</time></td></tr><tr><td>Thursday</td><td><time>8:30 AM - 7:00 PM</time></td></tr><tr><td>Friday</td><td><time>8:30 AM - 7:00 PM</time></td></tr><tr><td>Saturday</td><td><time>8:30 AM - 1:00 PM</time></td></tr><tr><td>Sunday</td><td><time>8:30 AM - 1:00 PM</time></td></tr></table>"
mypreplocator,1259,ALPRO Pharmacy Bandar Sri Permaisuri (Under My PrEP Pharmacy research),"6, Jalan Sri Permaisuri 9",Bandar Sri Permaisuri,Kuala Lumpur,Kuala Lumpur (Federal Territory),56000,Malaysia,3.101844,101.707153,+6019-203 1923,,wcrsp1@alpropharmacy.com,,true,false,Appointment needed,false,Onsite,"<table role=""presentation"" class=""wpsl-opening-hours""><tr><td>Monday</td><td><time>9:30 AM - 9:30 PM</time></td></tr><tr><td>Tuesday</td><td><time>9:30 AM - 9:30 PM</time></td></tr><tr><td>Wednesday</td><td><time>9:30 AM - 9:30 PM</time></td></tr><tr><td>Thursday</td><td><time>9:30 AM - 9:30 PM</time></td></tr><tr><td>Friday</td><td><time>9:30 AM - 9:30 PM</time></td></tr><tr><td>Saturday</td><td><time>9:30 AM - 9:30 PM</time></td></tr><tr><td>Sunday</td><td><time>9:30 AM - 9:30 PM</time></td></tr></table>"
mypreplocator,278,University Malaya Specialist Centre (UMSC),"Lot 28, Lorong Universiti",Lembah Pantai,Kuala Lumpur,Kuala Lumpur (Federal Territory),50603,Malaysia,3.11678,101.650883,+603-7841 4000,,iskandarshah@ummc.edu.my,http://www.umsc.my,true,true,Appointment needed,false,Onsite,"<table role=""presentation"" class=""wpsl-opening-hours""><tr><td>Monday</td><td>Closed</td></tr><tr><td>Tuesday</td><td>Closed</td></tr><tr><td>Wednesday</td><td>Closed</td></tr><tr><td>Thursday</td><td><time>9:00 AM - 12:00 PM</time><time>3:00 PM - 5:00 PM</time></td></tr><tr><td>Friday</td><td>Closed</td></tr><tr><td>Saturday</td><td>Closed</td></tr><tr><td>Sunday</td><td>Closed</td></tr></table>"
mypreplocator,45,University Malaya Medical Centre (Infectious Disease),"Klinik Perubatan 3, Ground Floor, Menara Utama","University Malaya Medical Centre, Jalan Universiti, Lembah Pantai",Kuala Lumpur,,50603,Malaysia,3.113706,101.652919,+603-7949 3641,,ummc.prep@gmail.com,,true,true,Appointment needed,true,Onsite,"<table role=""presentation"" class=""wpsl-opening-hours""><tr><td>Monday</td><td><time>2:00 PM - 5:00 PM</time></td></tr><tr><td>Tuesday</td><td><time>8:00 AM - 12:00 PM</time></td></tr><tr><td>Wednesday</td><td>Closed</td></tr><tr><td>Thursday</td><td>Closed</td></tr><tr><td>Friday</td><td><time>8:00 AM - 12:00 PM</time></td></tr><tr><td>Saturday</td><td>Closed</td></tr><tr><td>Sunday</td><td>Closed</td></tr></table>"
mypreplocator,48,The Red Clinic,"23-PI, Block B, Jaya One","72A Jalan Universiti, Pjs 13",Petaling Jaya,Selangor,46200,Malaysia,3.118486,101.636078,+6010-873 0175,,,http://theredclinic.com,true,true,Walk-in,false,Onsite,"<table role=""presentation"" class=""wpsl-opening-hours""><tr><td>Monday</td><td><time>9:00 AM - 9:00 PM</time></td></tr><tr><td>Tuesday</td><td><time>9:00 AM - 9:00 PM</time></td></tr><tr><td>Wednesday</td><td><time>9:00 AM - 9:00 PM</time></td></tr><tr><td>Thursday</td><td><time>9:00 AM - 9:00 PM</time></td></tr><tr><td>Friday</td><td><time>9:00 AM - 9:00 PM</time></td></tr><tr><td>Saturday</td><td><time>9:00 AM - 3:00 PM</time></td></tr><tr><td>Sunday</td><td>Closed</td></tr></table>"
mypreplocator,1230,Klinik Bangsar South,"Klinik Bangsar South, 1-8 ground floor Centrio Pantai HillPark,","Jalan Pantai Murni, Bangsar South",kuala lumpur,Kuala Lumpur (Federal Territory),59200,Malaysia,3.10811,101.665784,+6012-650 2915,,parveenns@gmail.com,http://www.klinikbangsarsouth.com,true,true,Walk-in,false,Onsite,"<table role=""presentation"" class=""wpsl-opening-hours""><tr><td>Monday</td><td><time>10:00 AM - 8:00 PM</time></td></tr><tr><td>Tuesday</td><td><time>10:00 AM - 8:00 PM</time></td></tr><tr><td>Wednesday</td><td><time>10:00 AM - 8:00 PM</time></td></tr><tr><td>Thursday</td><td><time>10:00 AM - 8:00 PM</time></td></tr><tr><td>Friday</td><td><time>10:00 AM - 8:00 PM</time></td></tr><tr><td>Saturday</td><td><time>10:00 AM - 1:00 PM</time></td></tr><tr><td>Sunday</td><td>Closed</td></tr></table>"
mypreplocator,1639,KLINIK MEDIC 360 24JAM,179 (Ground Floor),"Jalan Sarjana, Taman Connaught,",Cheras,Kuala Lumpur (Federal Territory),56000,മലേഷ്യ,3.082437,101.735277,+6018 5783 360,,km360connaught@gmail.com,https://klinikmedic360.com/,true,true,Walk-in,false,Onsite,"<table role=""presentation"" class=""wpsl-opening-hours""><tr><td>Monday</td><td><time>6:00 AM - 12:00 AM</time></td></tr><tr><td>Tuesday</td><td><time>6:00 AM - 12:00 AM</time></td></tr><tr><td>Wednesday</td><td><time>6:00 AM - 12:00 AM</time></td></tr><tr><td>Thursday</td><td><time>6:00 AM - 12:00 AM</time></td></tr><tr><td>Friday</td><td><time>6:00 AM - 12:00 AM</time></td></tr><tr><td>Saturday</td><td><time>6:00 AM - 12:00 AM</time></td></tr><tr><td>Sunday</td><td><time>6:00 AM - 12:00 AM</time></td></tr></table>"
mypreplocator,384,Klinik Loh,96-1 Jalan PJU 1/3B,Sunwaymas Commercial Centre,Petaling Jaya,Selangor,47301,Malaysia,3.118626,101.598961,+603-7806 2288,,klinikloh@doctor.com,,true,true,Walk-in,false,Onsite,"<table role=""presentation"" class=""wpsl-opening-hours""><tr><td>Monday</td><td><time>9:00 AM - 9:00 PM</time></td></tr><tr><td>Tuesday</td><td><time>9:00 AM - 9:00 PM</time></td></tr><tr><td>Wednesday</td><td><time>9:00 AM - 9:00 PM</time></td></tr><tr><td>Thursday</td><td><time>9:00 AM - 3:00 PM</time></td></tr><tr><td>Friday</td><td><time>5:30 PM - 9:00 PM</time></td></tr><tr><td>Saturday</td><td><time>9:00 AM - 6:00 PM</time></td></tr><tr><td>Sunday</td><td><time>9:00 AM - 6:00 PM</time></td></tr></table>"
mypreplocator,1635,Klinik Renewed Medic,"Lot G-G-13, Cantara Residences,","6, Jalan PJU 1A/42B, Ara Damansara,",Petaling Jaya,Selangor,47301,മലേഷ്യ,3.117839,101.590654,+6018 3885 796,,admin@essentialhealthcaremy.com,,true,true,Walk-in,false,Onsite,"<table role=""presentation"" class=""wpsl-opening-hours""><tr><td>Monday</td><td><time>8:00 AM - 8:00 PM</time></td></tr><tr><td>Tuesday</td><td><time>8:00 AM - 8:00 PM</time></td></tr><tr><td>Wednesday</td><td><time>8:00 AM - 8:00 PM</time></td></tr><tr><td>Thursday</td><td><time>8:00 AM - 8:00 PM</time></td></tr><tr><td>Friday</td><td><time>8:00 AM - 8:00 PM</time></td></tr><tr><td>Saturday</td><td><time>8:00 AM - 10:00 PM</time></td></tr><tr><td>Sunday</td><td><time>8:00 AM - 5:00 PM</time></td></tr></table>"
mypreplocator,1294,Klinik Tecna,"Suite G05 Wisma Tecna, 18 Jalan 51A/223,",Seksyen 51A,Petaling Jaya,Selangor,46100,Malaysia,3.101881,101.635792,+6011-2660 3223,,tecnamedical@gmail.com,,true,true,Walk-in,false,Onsite,"<table role=""presentation"" class=""wpsl-opening-hours""><tr><td>Monday</td><td><time>10:00 AM - 5:00 PM</time></td></tr><tr><td>Tuesday</td><td><time>10:00 AM - 5:00 PM</time></td></tr><tr><td>Wednesday</td><td><time>10:00 AM - 5:00 PM</time></td></tr><tr><td>Thursday</td><td><time>10:00 AM - 5:00 PM</time></td></tr><tr><td>Friday</td><td><time>10:00 AM - 5:00 PM</time></td></tr><tr><td>Saturday</td><td>Closed</td></tr><tr><td>Sunday</td><td>Closed</td></tr></table>"
mypreplocator,627,Elegant Clinic Sdn Bhd,"A-G-5, Kuchai Exchange No.43, Jalan Kuchai Maju 13",,Kuala Lumpur,Kuala Lumpur (Federal Territory),58200,Malaysia,3.085757,101.692893,+6012-316 6889,,elegantklinik@gmail.com,http://www.elegantclinic.com.my,true,true,Appointment needed,false,Onsite,"<table role=""presentation"" class=""wpsl-opening-hours""><tr><td>Monday</td><td><time>10:00 AM - 7:00 PM</time></td></tr><tr><td>Tuesday</td><td><time>10:00 AM - 7:00 PM</time></td></tr><tr><td>Wednesday</td><td><time>10:00 AM - 7:00 PM</time></td></tr><tr><td>Thursday</td><td><time>10:00 AM - 7:00 PM</time></td></tr><tr><td>Friday</td><td><time>10:00 AM - 7:00 PM</time></td></tr><tr><td>Saturday</td><td><time>10:00 AM - 7:00 PM</time></td></tr><tr><td>Sunday</td><td><time>10:00 AM - 7:00 PM</time></td></tr></table>"
mypreplocator,647,Poliklinik My Clinic Ara Damansara,"H-BG-09, Block Harmoni, D'aman Crimson Commercial Centre,","Jalan PJU 1A/41, Ara Damansara",Petaling Jaya,Selangor,47301,Malaysia,3.115833,101.591252,+603-7624 5450,,myclinic.staff@gmail.com,,true,true,Appointment needed,false,Onsite,"<table role=""presentation"" class=""wpsl-opening-hours""><tr><td>Monday</td><td><time>9:00 AM - 7:00 PM</time></td></tr><tr><td>Tuesday</td><td><time>9:00 AM - 7:00 PM</time></td></tr><tr><td>Wednesday</td><td><time>9:00 AM - 7:00 PM</time></td></tr><tr><td>Thursday</td><td><time>9:00 AM - 7:00 PM</time></td></tr><tr><td>Friday</td><td><time>9:00 AM - 7:00 PM</time></td></tr><tr><td>Saturday</td><td>Closed</td></tr><tr><td>Sunday</td><td>Closed</td></tr></table>"
mypreplocator,654,U.n.i Klinik Alam Damai,No. 43 Jalan Damai Niaga 1,Alam Damai,Cheras,Kuala Lumpur (Federal Territory),56000,Malaysia,3.074259,101.737869,+6011-5136 3041,,abdulroniyaakub@rocketmail.com,,true,true,Walk-in,false,Onsite,"<table role=""presentation"" class=""wpsl-opening-hours""><tr><td>Monday</td><td><time>8:00 AM - 10:00 PM</time></td></tr><tr><td>Tuesday</td><td><time>8:00 AM - 10:00 PM</time></td></tr><tr><td>Wednesday</td><td><time>8:00 AM - 10:00 PM</time></td></tr><tr><td>Thursday</td><td><time>8:00 AM - 10:00 PM</time></td></tr><tr><td>Friday</td><td><time>8:00 AM - 10:00 PM</time></td></tr><tr><td>Saturday</td><td><time>8:00 AM - 10:00 PM</time></td></tr><tr><td>Sunday</td><td><time>8:00 AM - 2:00 PM</time></td></tr></table>"
mypreplocator,1571,Klinik Kesihatan Kelana Jaya,Lot 38294,"Jalan SS6/3A, Ss 6",Petaling Jaya,Selangor,47301,മലേഷ്യ,3.099514,101.600463,+603-7804 5001,,,,true,false,Walk-in,true,Onsite,"<table role=""presentation"" class=""wpsl-opening-hours""><tr><td>Monday</td><td><time>8:00 AM - 5:00 PM</time></td></tr><tr><td>Tuesday</td><td>Closed</td></tr><tr><td>Wednesday</td><td><time>8:00 AM - 5:00 PM</time></td></tr><tr><td>Thursday</td><td><time>8:00 AM - 5:00 PM</time></td></tr><tr><td>Friday</td><td><time>8:00 AM - 5:00 PM</time></td></tr><tr><td>Saturday</td><td>Closed</td></tr><tr><td>Sunday</td><td>Closed</td></tr></table>"
mypreplocator,1625,Klinik Medilove Bandar Mahkota Cheras,"65 Ground Floor, Jalan Temenggung 3/9, Bandar Mahkota Cheras",,Cheras,Selangor,43200,മലേഷ്യ,3.051252,101.790285,+6011-5657 0478,,medilovebmc@gmail.com,https://medilove.my/,true,true,Appointment needed,false,Onsite,"<table role=""presentation"" class=""wpsl-opening-hours""><tr><td>Monday</td><td><time>8:00 AM - 9:00 PM</time></td></tr><tr><td>Tuesday</td><td><time>8:00 AM - 9:00 PM</time></td></tr><tr><td>Wednesday</td><td><time>8:00 AM - 9:00 PM</time></td></tr><tr><td>Thursday</td><td><time>8:00 AM - 9:00 PM</time></td></tr><tr><td>Friday</td><td><time>8:00 AM - 9:00 PM</time></td></tr><tr><td>Saturday</td><td><time>8:00 AM - 8:00 PM</time></td></tr><tr><td>Sunday</td><td><time>8:00 AM - 8:00 PM</time></td></tr></table>"
mypreplocator,1260,ALPRO Pharmacy Trillium Sungai Besi (Under My PrEP Pharmacy research),"31-G, Jalan Tasik Utama 6, Medan Niaga Tasik Damai",Sungai Besi,Kuala Lumpur,Kuala Lumpur (Federal Territory),57000,Malaysia,3.06228,101.70961,+6019-446 1923,,wsbtr1@alpropharmacy.com,,true,false,Appointment needed,false,Onsite,"<table role=""presentation"" class=""wpsl-opening-hours""><tr><td>Monday</td><td><time>9:30 AM - 9:30 PM</time></td></tr><tr><td>Tuesday</td><td><time>9:30 AM - 9:30 PM</time></td></tr><tr><td>Wednesday</td><td><time>9:30 AM - 9:30 PM</time></td></tr><tr><td>Thursday</td><td><time>9:30 AM - 9:30 PM</time></td></tr><tr><td>Friday</td><td><time>9:30 AM - 9:30 PM</time></td></tr><tr><td>Saturday</td><td><time>9:30 AM - 9:30 PM</time></td></tr><tr><td>Sunday</td><td><time>9:30 AM - 9:30 PM</time></td></tr></table>"
mypreplocator,579,Klinik Dr Leela Ratos Dan Rakan-Rakan &#8211; Sungai Way,"First Floor, 626-A, Jalan SS 9A/1, Sungai Way",,Petaling Jaya,Selangor,47300,Malaysia,3.085386,101.620639,+6012-732 3739,,sungaiwaylrr@gmail.com,https://sungaiwaylrr.wixsite.com/website,true,true,Walk-in,false,Onsite,"<table role=""presentation"" class=""wpsl-opening-hours""><tr><td>Monday</td><td><time>9:00 AM - 6:00 PM</time></td></tr><tr><td>Tuesday</td><td><time>9:00 AM - 6:00 PM</time></td></tr><tr><td>Wednesday</td><td><time>9:00 AM - 6:00 PM</time></td></tr><tr><td>Thursday</td><td><time>9:00 AM - 6:00 PM</time></td></tr><tr><td>Friday</td><td><time>9:00 AM - 6:00 PM</time></td></tr><tr><td>Saturday</td><td><time>9:00 AM - 5:00 PM</time></td></tr><tr><td>Sunday</td><td>Closed</td></tr></table>"
mypreplocator,1215,Mediklinik Nusa,"No 42A, 00, Jalan Damai Perdana 6/1A",Bandar Damai Perdana,Cheras,Selangor,56000,Malaysia,3.052737,101.738197,+6011-1337 2317,,nusacare22@gmail.com,http://mediknusa.com,true,true,Walk-in,true,Onsite,"<table role=""presentation"" class=""wpsl-opening-hours""><tr><td>Monday</td><td><time>8:00 AM - 11:00 PM</time></td></tr><tr><td>Tuesday</td><td><time>8:00 AM - 11:00 PM</time></td></tr><tr><td>Wednesday</td><td><time>8:00 AM - 11:00 PM</time></td></tr><tr><td>Thursday</td><td><time>8:00 AM - 11:00 PM</time></td></tr><tr><td>Friday</td><td><time>8:00 AM - 11:00 PM</time></td></tr><tr><td>Saturday</td><td><time>8:00 AM - 11:00 PM</time></td></tr><tr><td>Sunday</td><td><time>8:00 AM - 11:00 PM</time></td></tr></table>"
mypreplocator,1351,MYGP Clinic (Damai Perdana),"No 5-GF, Jalan Damai Perdana 1/8b,","Bandar Damai Perdana,",Cheras,Selangor,43200,Malaysia,3.047308,101.740337,,,mygpclinic2u@gmail.com,,true,true,Walk-in,false,Onsite,"<table role=""presentation"" class=""wpsl-opening-hours""><tr><td>Monday</td><td><time>8:30 AM - 9:30 PM</time></td></tr><tr><td>Tuesday</td><td><time>8:30 AM - 9:30 PM</time></td></tr><tr><td>Wednesday</td><td><time>8:30 AM - 9:30 PM</time></td></tr><tr><td>Thursday</td><td><time>8:30 AM - 9:30 PM</time></td></tr><tr><td>Friday</td><td><time>8:30 AM - 9:30 PM</time></td></tr><tr><td>Saturday</td><td><time>8:30 AM - 9:30 PM</time></td></tr><tr><td>Sunday</td><td><time>8:30 AM - 9:30 PM</time></td></tr></table>"
mypreplocator,1348,MYGP Clinic Bukit Jalil,"18-G, BLOK 2, Jalan Jalil Jaya 2",Jalil Link,Bukit Jalil,Kuala Lumpur (Federal Territory),57000,Malaysia,3.058234,101.673785,,,mygpbukitjalil@gmail.com,https://linktr.ee/mygpbukitjalil8,true,true,Walk-in,false,Onsite,"<table role=""presentation"" class=""wpsl-opening-hours""><tr><td>Monday</td><td><time>8:30 AM - 10:00 PM</time></td></tr><tr><td>Tuesday</td><td><time>8:30 AM - 10:00 PM</time></td></tr><tr><td>Wednesday</td><td><time>8:30 AM - 10:00 PM</time></td></tr><tr><td>Thursday</td><td><time>8:30 AM - 10:00 PM</time></td></tr><tr><td>Friday</td><td><time>8:30 AM - 10:00 PM</time></td></tr><tr><td>Saturday</td><td><time>8:30 AM - 10:00 PM</time></td></tr><tr><td>Sunday</td><td><time>8:30 AM - 10:00 PM</time></td></tr></table>"
mypreplocator,1190,U.N.I Klinik Setia Alam,"No 38-G,Jalan Setia Gemilang BM U13/BM","Precint 15,Setia Alam",Shah Alam,Selangor,40170,Malaysia,3.127886,101.467887,+03-3359 0588,,unikliniksetia.alam@gmail.com,,true,true,Walk-in,false,Onsite,"<table role=""presentation"" class=""wpsl-opening-hours""><tr><td>Monday</td><td><time>8:00 AM - 6:00 AM</time></td></tr><tr><td>Tuesday</td><td><time>8:00 AM - 6:00 AM</time></td></tr><tr><td>Wednesday</td><td><time>8:00 AM - 6:00 AM</time></td></tr><tr><td>Thursday</td><td><time>8:00 AM - 6:00 AM</time></td></tr><tr><td>Friday</td><td><time>8:00 AM - 6:00 AM</time></td></tr><tr><td>Saturday</td><td>Closed</td></tr><tr><td>Sunday</td><td><time>8:00 AM - 6:00 AM</time></td></tr></table>"
mypreplocator,605,Klinik Central SS15,Klinik Central SS15,"No 11-G, Jalan SS15/8A, 47500",Subang Jaya,Selangor,47500,Malaysia,3.074114,101.588304,+6016-207 2668,,klinikcentralss15@gmail.com,,true,true,Walk-in,false,Onsite,"<table role=""presentation"" class=""wpsl-opening-hours""><tr><td>Monday</td><td><time>8:00 AM - 9:00 PM</time></td></tr><tr><td>Tuesday</td><td><time>8:00 AM - 9:00 PM</time></td></tr><tr><td>Wednesday</td><td><time>8:00 AM - 9:00 PM</time></td></tr><tr><td>Thursday</td><td><time>8:00 AM - 9:00 PM</time></td></tr><tr><td>Friday</td><td><time>8:00 AM - 9:00 PM</time></td></tr><tr><td>Saturday</td><td><time>8:00 AM - 9:00 PM</time></td></tr><tr><td>Sunday</td><td>Closed</td></tr></table>"
mypreplocator,1406,MediHome Clinic,"32, Ground Floor, Jalan Jalil 1,","Bumi Bukit Jalil, Lebuhraya Puchong-Sg Besi",Bukit Jalil,,57000,മലേഷ്യ,3.049493,101.67016,,,medihomeclinic1@gmail.com,http://www.medihomeclinic.com,true,true,Appointment needed,false,Onsite,"<table role=""presentation"" class=""wpsl-opening-hours""><tr><td>Monday</td><td><time>8:00 AM - 11:00 PM</time></td></tr><tr><td>Tuesday</td><td><time>8:00 AM - 11:00 PM</time></td></tr><tr><td>Wednesday</td><td><time>8:00 AM - 11:00 PM</time></td></tr><tr><td>Thursday</td><td><time>8:00 AM - 11:00 PM</time></td></tr><tr><td>Friday</td><td><time>8:00 AM - 11:00 PM</time></td></tr><tr><td>Saturday</td><td><time>8:00 AM - 11:00 PM</time></td></tr><tr><td>Sunday</td><td><time>8:00 AM - 11:00 PM</time></td></tr></table>"
mypreplocator,1488,KLINIK MEDILOVE SS15,No 5 (Ground Floor),"Jln SS 15/4E, SS 15,",Subang Jaya,Selangor,47500,മലേഷ്യ,3.073719,101.586178,+6011 13001828,,medilovess15@gmail.com,https://www.facebook.com/p/Klinik-Medilove-SS15-Subang-Jaya-100094428383245/,true,true,Walk-in,true,Onsite,"<table role=""presentation"" class=""wpsl-opening-hours""><tr><td>Monday</td><td><time>08:00 - 21:00</time></td></tr><tr><td>Tuesday</td><td><time>08:00 - 21:00</time></td></tr><tr><td>Wednesday</td><td><time>08:00 - 21:00</time></td></tr><tr><td>Thursday</td><td><time>08:00 - 21:00</time></td></tr><tr><td>Friday</td><td><time>08:00 - 21:00</time></td></tr><tr><td>Saturday</td><td><time>08:00 - 17:00</time></td></tr><tr><td>Sunday</td><td><time>08:00 - 17:00</time></td></tr></table>"
mypreplocator,308,Klinik Mediviron Taming Jaya,"2-G, Jalan Medan Taming 3A, Pusat Perniagaan Taming Jaya 1,","Taman Taming Jaya,",Seri Kembangan,Selangor,43300,Malaysia,3.023458,101.741788,+603-9544 1920,,medivirontamingjaya@gmail.com,,true,true,Appointment needed,false,Onsite,"<table role=""presentation"" class=""wpsl-opening-hours""><tr><td>Monday</td><td><time>8:00 AM - 10:00 PM</time></td></tr><tr><td>Tuesday</td><td><time>8:00 AM - 10:00 PM</time></td></tr><tr><td>Wednesday</td><td><time>8:00 AM - 10:00 PM</time></td></tr><tr><td>Thursday</td><td><time>8:00 AM - 10:00 PM</time></td></tr><tr><td>Friday</td><td><time>8:00 AM - 10:00 PM</time></td></tr><tr><td>Saturday</td><td><time>8:00 AM - 10:00 PM</time></td></tr><tr><td>Sunday</td><td><time>8:00 AM - 10:00 PM</time></td></tr></table>"
mypreplocator,1256,Klinik Allsome,"C-G-05, Sunsuria Forum @ 7th Avenue,","Jalan Setia Dagang AL U13/AL,",Setia Alam,Selangor,40170,Malaysia,3.105348,101.467121,+6017-874 0689,,allsomemedic@gmail.com,,true,true,Walk-in,false,Onsite,"<table role=""presentation"" class=""wpsl-opening-hours""><tr><td>Monday</td><td><time>9:00 AM - 9:00 PM</time></td></tr><tr><td>Tuesday</td><td><time>9:00 AM - 9:00 PM</time></td></tr><tr><td>Wednesday</td><td><time>9:00 AM - 9:00 PM</time></td></tr><tr><td>Thursday</td><td><time>9:00 AM - 9:00 PM</time></td></tr><tr><td>Friday</td><td><time>9:00 AM - 6:00 PM</time></td></tr><tr><td>Saturday</td><td><time>9:00 AM - 6:00 PM</time></td></tr><tr><td>Sunday</td><td>Closed</td></tr></table>"
mypreplocator,1629,He Medical Clinic,"Unit 2-B, Level 2, Top Glove Tower 16","Persiaran Setia Dagang Seksyen U13, Setia Alam",Shah Alam,Selangor,40170,മലേഷ്യ,3.107757,101.459164,+6017-6592 567,,asyiqin@hemedclinic.com,https://www.hemedclinic.com/new-shockwave-therapy-for-ed?gad_source=1&#038;gad_campaignid=20457486844&#038;gbraid=0AAAAAoNqNL0Enuphlm8myBzAH18oTGd0r&#038;gclid=CjwKCAjwruXBBhArEiwACBRtHUIQIHpmIAALFFiFHEirJImgfswr_P6o5lmXRoHG9EWlT_OQw-SOIRoCix8QAvD_BwE,true,true,Appointment needed,false,Onsite,"<table role=""presentation"" class=""wpsl-opening-hours""><tr><td>Monday</td><td><time>9:00 AM - 7:00 PM</time></td></tr><tr><td>Tuesday</td><td><time>9:00 AM - 7:00 PM</time></td></tr><tr><td>Wednesday</td><td><time>9:00 AM - 7:00 PM</time></td></tr><tr><td>Thursday</td><td><time>9:00 AM - 7:00 PM</time></td></tr><tr><td>Friday</td><td><time>9:00 AM - 7:00 PM</time></td></tr><tr><td>Saturday</td><td><time>9:00 AM - 4:00 PM</time></td></tr><tr><td>Sunday</td><td><time>9:00 AM - 4:00 PM</time></td></tr></table>"
mypreplocator,1253,ALPRO Pharmacy Bukit Serdang (Under My PrEP Pharmacy research),"No. 45, Ground Floor, Jalan BS 4/1, Seksyen 4, Taman Bukit Serdang",,Seri Kembangan,Selangor,43300,Malaysia,3.020534,101.700237,+6019-225 2923,,bskbsf@alpropharmacy.com,https://www.alpropharmacy.com/oneclick/,true,false,Appointment needed,false,Onsite,"<table role=""presentation"" class=""wpsl-opening-hours""><tr><td>Monday</td><td><time>9:00 AM - 9:00 PM</time></td></tr><tr><td>Tuesday</td><td><time>9:00 AM - 9:00 PM</time></td></tr><tr><td>Wednesday</td><td><time>9:00 AM - 9:00 PM</time></td></tr><tr><td>Thursday</td><td><time>9:00 AM - 9:00 PM</time></td></tr><tr><td>Friday</td><td><time>9:00 AM - 9:00 PM</time></td></tr><tr><td>Saturday</td><td><time>9:00 AM - 9:00 PM</time></td></tr><tr><td>Sunday</td><td><time>9:00 AM - 9:00 PM</time></td></tr></table>"
mypreplocator,1078,Meditree Clinic,"No 36, Ground Floor, Jalan USJ 10/1B,",,UEP Subang Jaya,Selangor,47620,Malaysia,3.049113,101.585019,012-4108011,,meditreeclinic@hotmail.com,,true,true,Walk-in,false,Onsite,"<table role=""presentation"" class=""wpsl-opening-hours""><tr><td>Monday</td><td><time>8:30 AM - 10:00 PM</time></td></tr><tr><td>Tuesday</td><td><time>8:30 AM - 10:00 PM</time></td></tr><tr><td>Wednesday</td><td><time>8:30 AM - 10:00 PM</time></td></tr><tr><td>Thursday</td><td><time>8:30 AM - 10:00 PM</time></td></tr><tr><td>Friday</td><td><time>8:30 AM - 10:00 PM</time></td></tr><tr><td>Saturday</td><td><time>9:00 AM - 9:00 PM</time></td></tr><tr><td>Sunday</td><td><time>9:00 AM - 9:00 PM</time></td></tr></table>"
mypreplocator,1129,Poliklinik Dan Surgeri Tan,"33, Jalan USJ 10/1D Taipan Business Centre",,Subang Jaya,Selangor,47620,Malaysia,3.049171,101.584247,+603-5634 5624,,szemayng@gmail.com,,true,false,Walk-in,false,Onsite,"<table role=""presentation"" class=""wpsl-opening-hours""><tr><td>Monday</td><td><time>8:30 AM - 5:00 PM</time></td></tr><tr><td>Tuesday</td><td><time>8:30 AM - 5:00 PM</time></td></tr><tr><td>Wednesday</td><td><time>8:30 AM - 5:00 PM</time></td></tr><tr><td>Thursday</td><td><time>8:30 AM - 5:00 PM</time></td></tr><tr><td>Friday</td><td><time>8:30 AM - 5:00 PM</time></td></tr><tr><td>Saturday</td><td><time>8:30 AM - 3:00 PM</time></td></tr><tr><td>Sunday</td><td>Closed</td></tr></table>"
mypreplocator,1506,KLINIK SENTOSA KAPAR,"No 15, Tingkat Bawah Jalan Besar Kapar,",Taman Sentosa Kapar,Kapar,Selangor,42200,മലേഷ്യ,3.137568,101.374087,+6019 5557579,,kaparkliniksentosa@gmail.com,,true,true,Appointment needed,false,Offsite,"<table role=""presentation"" class=""wpsl-opening-hours""><tr><td>Monday</td><td><time>08:00 - 08:00</time></td></tr><tr><td>Tuesday</td><td><time>08:00 - 08:00</time></td></tr><tr><td>Wednesday</td><td><time>08:00 - 08:00</time></td></tr><tr><td>Thursday</td><td><time>08:00 - 08:00</time></td></tr><tr><td>Friday</td><td><time>08:00 - 08:00</time></td></tr><tr><td>Saturday</td><td><time>08:00 - 08:00</time></td></tr><tr><td>Sunday</td><td><time>08:00 - 08:00</time></td></tr></table>"
mypreplocator,1175,Primer Cherang Clinic Shah Alam,44-G & 46-G Jalan Pahat G 15/G Seksyen 15,,Shah Alam,Selangor,40200,Malaysia,3.063794,101.526758,+6016-961 7007,,primercherangsa@gmail.com,https://instagram.com/primercherangshhalam?igshid=MzRlODBiNWFlZA==,true,true,Walk-in,false,Onsite,"<table role=""presentation"" class=""wpsl-opening-hours""><tr><td>Monday</td><td><time>10:00 AM - 10:00 PM</time></td></tr><tr><td>Tuesday</td><td><time>10:00 AM - 10:00 PM</time></td></tr><tr><td>Wednesday</td><td><time>10:00 AM - 10:00 PM</time></td></tr><tr><td>Thursday</td><td><time>10:00 AM - 10:00 PM</time></td></tr><tr><td>Friday</td><td><time>10:00 AM - 10:00 PM</time></td></tr><tr><td>Saturday</td><td>Closed</td></tr><tr><td>Sunday</td><td><time>10:00 AM - 10:00 PM</time></td></tr></table>"
mypreplocator,1513,KLINIK SENTOSA BANDAR PUTERI,"38-G, Jalan Puteri 1/4, Bandar Puteri,",,Puchong,Selangor,47100,മലേഷ്യ,3.027079,101.616938,+6018 9088898,,kliniksentosabp@gmail.com,https://www.kliniksentosahw.com/,true,true,Walk-in,false,Onsite,"<table role=""presentation"" class=""wpsl-opening-hours""><tr><td>Monday</td><td><time>08:00 - 20:00</time></td></tr><tr><td>Tuesday</td><td><time>08:00 - 20:00</time></td></tr><tr><td>Wednesday</td><td><time>08:00 - 20:00</time></td></tr><tr><td>Thursday</td><td><time>08:00 - 20:00</time></td></tr><tr><td>Friday</td><td><time>08:00 - 20:00</time></td></tr><tr><td>Saturday</td><td><time>08:00 - 15:30</time></td></tr><tr><td>Sunday</td><td>Closed</td></tr></table>"
mypreplocator,1575,Klinik Kesihatan Seksyen 7 Shah Alam,"2, Persiaran Kayangan",Seksyen 7,Shah Alam,Selangor,40000,മലേഷ്യ,3.072283,101.491145,+603-5518 6531,,,,true,false,Appointment needed,true,Onsite,"<table role=""presentation"" class=""wpsl-opening-hours""><tr><td>Monday</td><td>Closed</td></tr><tr><td>Tuesday</td><td>Closed</td></tr><tr><td>Wednesday</td><td><time>2:00 PM - 5:00 PM</time></td></tr><tr><td>Thursday</td><td><time>8:00 AM - 5:00 PM</time></td></tr><tr><td>Friday</td><td><time>8:00 AM - 12:00 PM</time></td></tr><tr><td>Saturday</td><td>Closed</td></tr><tr><td>Sunday</td><td>Closed</td></tr></table>"
mypreplocator,1262,ALPRO Pharmacy Bandar Puteri Puchong (Under My PrEP Pharmacy research),"26G, Jalan Puteri 1/2, Bandar Puteri",,Puchong,Selangor,47100,Malaysia,3.026562,101.615981,+6019-274 1923,,bpcbp1@alpropharmacy.com,,true,false,Appointment needed,false,Onsite,"<table role=""presentation"" class=""wpsl-opening-hours""><tr><td>Monday</td><td><time>9:00 AM - 9:30 PM</time></td></tr><tr><td>Tuesday</td><td><time>9:00 AM - 9:30 PM</time></td></tr><tr><td>Wednesday</td><td><time>9:00 AM - 9:30 PM</time></td></tr><tr><td>Thursday</td><td><time>9:00 AM - 9:30 PM</time></td></tr><tr><td>Friday</td><td><time>9:00 AM - 9:30 PM</time></td></tr><tr><td>Saturday</td><td><time>9:00 AM - 9:30 PM</time></td></tr><tr><td>Sunday</td><td><time>9:00 AM - 9:30 PM</time></td></tr></table>"
mypreplocator,345,Chua Skin Specialist Clinic,16-1 Jalan Puteri 1/4,Bandar Puteri Puchong,Puchong,Selangor,47100,Malaysia,3.026049,101.616649,+011-1123 2398,,info@chuaskinspecialist.com,http://www.chuaskinspecialist.com,true,true,Walk-in,false,Onsite,"<table role=""presentation"" class=""wpsl-opening-hours""><tr><td>Monday</td><td><time>9:00 AM - 5:00 PM</time></td></tr><tr><td>Tuesday</td><td><time>9:00 AM - 5:00 PM</time></td></tr><tr><td>Wednesday</td><td><time>9:00 AM - 5:00 PM</time></td></tr><tr><td>Thursday</td><td><time>9:00 AM - 5:00 PM</time></td></tr><tr><td>Friday</td><td><time>9:00 AM - 5:00 PM</time></td></tr><tr><td>Saturday</td><td><time>9:00 AM - 1:00 PM</time></td></tr><tr><td>Sunday</td><td>Closed</td></tr></table>"
mypreplocator,1264,Full Care Clinic,"PA-S-06(G), Pearl Avenue","Jalan Pasir Emas, Sungai Chua",Kajang,Selangor,43000,Malaysia,2.985275,101.779403,+603-8211 6120,,admin@fullcare.com.my,https://www.facebook.com/fullcareclinickajang/,true,true,Walk-in,false,Onsite,"<table role=""presentation"" class=""wpsl-opening-hours""><tr><td>Monday</td><td><time>8:30 AM - 9:30 PM</time></td></tr><tr><td>Tuesday</td><td><time>8:30 AM - 9:30 PM</time></td></tr><tr><td>Wednesday</td><td><time>8:30 AM - 9:30 PM</time></td></tr><tr><td>Thursday</td><td><time>8:30 AM - 9:30 PM</time></td></tr><tr><td>Friday</td><td><time>8:30 AM - 9:30 PM</time></td></tr><tr><td>Saturday</td><td><time>8:30 AM - 9:30 PM</time></td></tr><tr><td>Sunday</td><td><time>8:30 AM - 9:30 PM</time></td></tr></table>"
mypreplocator,616,Klinik Lee,No. 48G Jalan Puteri 5/2,47100 Puchong,Puchong,Selangor,47100,Malaysia,3.016028,101.614323,+603-8060 7885,,leecheetzen@hotmail.com,,true,false,Walk-in,false,Onsite,"<table role=""presentation"" class=""wpsl-opening-hours""><tr><td>Monday</td><td><time>8:30 AM - 8:00 PM</time></td></tr><tr><td>Tuesday</td><td><time>8:30 AM - 8:00 PM</time></td></tr><tr><td>Wednesday</td><td><time>8:30 AM - 8:00 PM</time></td></tr><tr><td>Thursday</td><td><time>8:30 AM - 8:00 PM</time></td></tr><tr><td>Friday</td><td><time>8:30 AM - 8:00 PM</time></td></tr><tr><td>Saturday</td><td><time>8:30 AM - 5:00 PM</time></td></tr><tr><td>Sunday</td><td>Closed</td></tr></table>"
mypreplocator,1354,Nova Clinic,43G Jln Equine 1A Tmn Equine,,Selangor,Selangor,43300,Malaysia,2.998299,101.679124,,,novaclinic2023@gmail.com,https://novaclinic2023.com/,true,true,Walk-in,false,Onsite,"<table role=""presentation"" class=""wpsl-opening-hours""><tr><td>Monday</td><td><time>8:00 AM - 8:00 PM</time></td></tr><tr><td>Tuesday</td><td><time>8:00 AM - 8:00 PM</time></td></tr><tr><td>Wednesday</td><td><time>8:00 AM - 8:00 PM</time></td></tr><tr><td>Thursday</td><td><time>8:00 AM - 8:00 PM</time></td></tr><tr><td>Friday</td><td><time>8:00 AM - 8:00 PM</time></td></tr><tr><td>Saturday</td><td><time>8:00 AM - 3:00 PM</time></td></tr><tr><td>Sunday</td><td><time>8:00 AM - 3:00 PM</time></td></tr></table>"
mypreplocator,392,Poliklinik Damai Emergency,"No 12A, Jalan Kajang Mewah 3",Taman Kajang Mewah,Kajang,Selangor,43000,Malaysia,2.976014,101.780152,"+603-8733 4050, +6012 7984 050 (Whatsapp)",,poliklinikdamai@hotmail.com,,true,true,Walk-in,false,Onsite,"<table role=""presentation"" class=""wpsl-opening-hours""><tr><td>Monday</td><td><time>9:00 AM - 10:00 PM</time></td></tr><tr><td>Tuesday</td><td><time>9:00 AM - 10:00 PM</time></td></tr><tr><td>Wednesday</td><td><time>9:00 AM - 10:00 PM</time></td></tr><tr><td>Thursday</td><td><time>9:00 AM - 10:00 PM</time></td></tr><tr><td>Friday</td><td><time>9:00 AM - 10:00 PM</time></td></tr><tr><td>Saturday</td><td><time>10:00 AM - 10:00 PM</time></td></tr><tr><td>Sunday</td><td><time>10:00 AM - 10:00 PM</time></td></tr></table>"
mypreplocator,1185,Klinik Dr Shakinah,"No. 35, Jln Panglima Hitam M35/M,","Alam Impian, Seksyen 35",Shah Alam,Selangor,4047,Malaysia,3.027885,101.515702,+6012-435 3554,,shakinah_12@hotmail.com,,true,true,Appointment needed,false,Onsite,"<table role=""presentation"" class=""wpsl-opening-hours""><tr><td>Monday</td><td><time>9:00 AM - 10:00 PM</time></td></tr><tr><td>Tuesday</td><td><time>9:00 AM - 10:00 PM</time></td></tr><tr><td>Wednesday</td><td><time>9:00 AM - 10:00 PM</time></td></tr><tr><td>Thursday</td><td><time>9:00 AM - 10:00 PM</time></td></tr><tr><td>Friday</td><td><time>9:00 AM - 10:00 PM</time></td></tr><tr><td>Saturday</td><td><time>9:00 AM - 10:00 PM</time></td></tr><tr><td>Sunday</td><td><time>9:00 AM - 10:00 PM</time></td></tr></table>"
mypreplocator,1296,Klinik Medi Royal,"No 4, Ground Floor",Jalan Sungai Garing 27/61,"Taman Alam Megah, Sek 27, Shah Alam",Selangor,40400,Malaysia,3.010674,101.559788,+603-5161 1830,,klinikmediroyal@gmail.com,,true,true,Walk-in,false,Onsite,"<table role=""presentation"" class=""wpsl-opening-hours""><tr><td>Monday</td><td><time>8:00 AM - 9:00 PM</time></td></tr><tr><td>Tuesday</td><td><time>8:00 AM - 9:00 PM</time></td></tr><tr><td>Wednesday</td><td><time>8:00 AM - 9:00 PM</time></td></tr><tr><td>Thursday</td><td><time>8:00 AM - 9:00 PM</time></td></tr><tr><td>Friday</td><td><time>8:00 AM - 9:00 PM</time></td></tr><tr><td>Saturday</td><td><time>8:00 AM - 9:00 PM</time></td></tr><tr><td>Sunday</td><td>Closed</td></tr></table>"
mypreplocator,676,Klinik Mediviron Putra Heights,"No. 43-G, Jalan Putra Mahkota 7/6C,","Putra Heights,",Subang Jaya,Selangor,47650,Malaysia,2.996205,101.572841,+6011-5628 2327,,medivironputraheights@gmail.com,,true,true,Walk-in,false,Onsite,"<table role=""presentation"" class=""wpsl-opening-hours""><tr><td>Monday</td><td><time>8:00 AM - 10:00 PM</time></td></tr><tr><td>Tuesday</td><td><time>8:00 AM - 10:00 PM</time></td></tr><tr><td>Wednesday</td><td><time>8:00 AM - 10:00 PM</time></td></tr><tr><td>Thursday</td><td><time>8:00 AM - 10:00 PM</time></td></tr><tr><td>Friday</td><td><time>8:00 AM - 10:00 PM</time></td></tr><tr><td>Saturday</td><td><time>8:00 AM - 10:00 PM</time></td></tr><tr><td>Sunday</td><td><time>8:00 AM - 10:00 PM</time></td></tr></table>"
mypreplocator,1403,KLINIK SENTOSA (TAMAN SENTOSA),"26, Jalan Dato Yusuf Shahbudin 29, Taman Sentosa, 41200 Klang, Selangor",,Klang,Selangor,41200,മലേഷ്യ,3.009703,101.465339,+6019 5557257,,kliniksentosa26@gmail.com,,true,true,Walk-in,false,Onsite,"<table role=""presentation"" class=""wpsl-opening-hours""><tr><td>Monday</td><td><time>08:00 - 23:00</time></td></tr><tr><td>Tuesday</td><td><time>08:00 - 23:00</time></td></tr><tr><td>Wednesday</td><td><time>08:00 - 23:00</time></td></tr><tr><td>Thursday</td><td><time>08:00 - 23:00</time></td></tr><tr><td>Friday</td><td><time>08:00 - 23:00</time></td></tr><tr><td>Saturday</td><td><time>08:00 - 23:00</time></td></tr><tr><td>Sunday</td><td><time>08:00 - 23:00</time></td></tr></table>"
mypreplocator,1122,Klinik Kesihatan Jaya Gading (MyPrEPGov2023),"Lorong Jaya Gading 14, Kampung Batu Sepuluh",,Kuantan,Pahang,25150,Malaysia,3.754914,103.203484,+609-538 4252,,,,true,false,Walk-in,true,Onsite,"<table role=""presentation"" class=""wpsl-opening-hours""><tr><td>Monday</td><td><time>8:00 AM - 4:30 PM</time></td></tr><tr><td>Tuesday</td><td><time>8:00 AM - 4:30 PM</time></td></tr><tr><td>Wednesday</td><td><time>8:00 AM - 4:30 PM</time></td></tr><tr><td>Thursday</td><td><time>8:00 AM - 4:30 PM</time></td></tr><tr><td>Friday</td><td><time>8:00 AM - 4:30 PM</time></td></tr><tr><td>Saturday</td><td>Closed</td></tr><tr><td>Sunday</td><td>Closed</td></tr></table>"
mypreplocator,1573,Klinik Kesihatan Pandamaran,"Jalan Raja Muda Musa, Kawasan 10",,Pelabuhan Klang,Selangor,42000,മലേഷ്യ,3.014355,101.413254,+603-3165 8770,,,,true,false,Walk-in,true,Onsite,"<table role=""presentation"" class=""wpsl-opening-hours""><tr><td>Monday</td><td>Closed</td></tr><tr><td>Tuesday</td><td><time>2:00 PM - 5:00 PM</time></td></tr><tr><td>Wednesday</td><td><time>2:00 PM - 5:00 PM</time></td></tr><tr><td>Thursday</td><td>Closed</td></tr><tr><td>Friday</td><td>Closed</td></tr><tr><td>Saturday</td><td>Closed</td></tr><tr><td>Sunday</td><td>Closed</td></tr></table>"
mypreplocator,1668,Klinik Alam Medic Cyberjaya,No 3 Block A Jalan GC 1,,Cyberjaya,Selangor,63000,മലേഷ്യ,2.92526,101.655989,+603-8322 6172,,kamcbj.general@gmail.com,http://alammedic.com,true,true,Walk-in,false,Onsite,"<table role=""presentation"" class=""wpsl-opening-hours""><tr><td>Monday</td><td><time>8:30 AM - 9:00 PM</time></td></tr><tr><td>Tuesday</td><td><time>8:30 AM - 9:00 PM</time></td></tr><tr><td>Wednesday</td><td><time>8:30 AM - 9:00 PM</time></td></tr><tr><td>Thursday</td><td><time>8:30 AM - 9:00 PM</time></td></tr><tr><td>Friday</td><td><time>8:30 AM - 9:00 PM</time></td></tr><tr><td>Saturday</td><td>Closed</td></tr><tr><td>Sunday</td><td>Closed</td></tr></table>"
mypreplocator,521,Klinik Familink,"A-G-2, Cybersquare,","Jalan Teknokrat 6, Cyber 5",Cyberjaya,Selangor,63000,Malaysia,2.91892,101.657778,+603-8328 9414 / +6016-926 1402,,klinik.familink@gmail.com,,true,false,Appointment needed,false,Onsite,"<table role=""presentation"" class=""wpsl-opening-hours""><tr><td>Monday</td><td><time>8:00 AM - 11:00 PM</time></td></tr><tr><td>Tuesday</td><td><time>8:00 AM - 11:00 PM</time></td></tr><tr><td>Wednesday</td><td><time>8:00 AM - 11:00 PM</time></td></tr><tr><td>Thursday</td><td><time>8:00 AM - 11:00 PM</time></td></tr><tr><td>Friday</td><td><time>8:00 AM - 11:00 PM</time></td></tr><tr><td>Saturday</td><td><time>8:00 AM - 11:00 PM</time></td></tr><tr><td>Sunday</td><td><time>8:00 AM - 11:00 PM</time></td></tr></table>"
mypreplocator,892,Klinik Sentosa Pandamaran,"No 7A, Jalan Pandamaran KS/05",,Klang,Selangor,42000,Malaysia,3.006306,101.40756,+6016-555 7731,,pkpandamaran@gmail.com,,true,true,Walk-in,false,Onsite,"<table role=""presentation"" class=""wpsl-opening-hours""><tr><td>Monday</td><td><time>8:00 AM - 11:00 PM</time></td></tr><tr><td>Tuesday</td><td><time>8:00 AM - 11:00 PM</time></td></tr><tr><td>Wednesday</td><td><time>8:00 AM - 11:00 PM</time></td></tr><tr><td>Thursday</td><td><time>8:00 AM - 11:00 PM</time></td></tr><tr><td>Friday</td><td><time>8:00 AM - 11:00 PM</time></td></tr><tr><td>Saturday</td><td><time>9:00 AM - 10:00 PM</time></td></tr><tr><td>Sunday</td><td><time>9:00 AM - 10:00 PM</time></td></tr></table>"
mypreplocator,1168,Prefer Clinic,"58G, Jalan Bayu Laut 4/KS09,",Kota Bayuemas,Klang,Selangor,41200,Malaysia,2.967008,101.490712,+6017-265 0353,,clinicprefer@gmail.com,http://preferclinic.wixsite.com/index,true,true,Walk-in,false,Onsite,"<table role=""presentation"" class=""wpsl-opening-hours""><tr><td>Monday</td><td><time>9:00 AM - 10:00 PM</time></td></tr><tr><td>Tuesday</td><td><time>9:00 AM - 10:00 PM</time></td></tr><tr><td>Wednesday</td><td><time>9:00 AM - 10:00 PM</time></td></tr><tr><td>Thursday</td><td><time>9:00 AM - 10:00 PM</time></td></tr><tr><td>Friday</td><td><time>9:00 AM - 10:00 PM</time></td></tr><tr><td>Saturday</td><td><time>9:00 AM - 10:00 PM</time></td></tr><tr><td>Sunday</td><td>Closed</td></tr></table>"
mypreplocator,1261,ALPRO Pharmacy Neo Cyber (Under My PrEP Pharmacy research),"51-G Blok G, Neo Cyber","Lingkaran Cyber Point Barat, Cyber 12",Cyberjaya,Selangor,63000,Malaysia,2.915539,101.651409,+6019-984 5923,,bcjnc1@alpropharmacy.com,,true,false,Appointment needed,false,Onsite,"<table role=""presentation"" class=""wpsl-opening-hours""><tr><td>Monday</td><td><time>9:00 AM - 10:00 PM</time></td></tr><tr><td>Tuesday</td><td><time>9:00 AM - 10:00 PM</time></td></tr><tr><td>Wednesday</td><td><time>9:00 AM - 10:00 PM</time></td></tr><tr><td>Thursday</td><td><time>9:00 AM - 10:00 PM</time></td></tr><tr><td>Friday</td><td><time>9:00 AM - 10:00 PM</time></td></tr><tr><td>Saturday</td><td><time>9:00 AM - 10:00 PM</time></td></tr><tr><td>Sunday</td><td><time>9:00 AM - 10:00 PM</time></td></tr></table>"
mypreplocator,1411,Catalyst Clinic,No 6-G Jalan Eco Santuari 8/1A,Eco Santuari,Teluk Panglima Garang,Selangor,42500,മലേഷ്യ,2.943572,101.541193,,,admin@catalystclinic.com.my,http://www.catalystclinic.com.my,true,true,Walk-in,false,Onsite,"<table role=""presentation"" class=""wpsl-opening-hours""><tr><td>Monday</td><td>Closed</td></tr><tr><td>Tuesday</td><td>Closed</td></tr><tr><td>Wednesday</td><td>Closed</td></tr><tr><td>Thursday</td><td>Closed</td></tr><tr><td>Friday</td><td>Closed</td></tr><tr><td>Saturday</td><td>Closed</td></tr><tr><td>Sunday</td><td><time>9:00 AM - 5:00 PM</time></td></tr></table>"
mypreplocator,671,Care Clinic,"59, Ground Floor","Jalan Ehsan Perdana 7/KS5, Off Jalan Pandamaran",Port Klang,Selangor,42000,Malaysia,2.999852,101.39283,+603-3885 6197,,laukokfang066@hotmail.com,https://www.facebook.com/profile.php?id=100063563833870,true,false,Walk-in,false,Onsite,"<table role=""presentation"" class=""wpsl-opening-hours""><tr><td>Monday</td><td><time>9:00 AM - 8:00 PM</time></td></tr><tr><td>Tuesday</td><td><time>9:00 AM - 8:00 PM</time></td></tr><tr><td>Wednesday</td><td><time>9:00 AM - 8:00 PM</time></td></tr><tr><td>Thursday</td><td><time>9:00 AM - 8:00 PM</time></td></tr><tr><td>Friday</td><td><time>9:00 AM - 8:00 PM</time></td></tr><tr><td>Saturday</td><td><time>9:00 AM - 1:00 PM</time></td></tr><tr><td>Sunday</td><td><time>9:00 AM - 1:00 PM</time></td></tr></table>"
mypreplocator,1397,Klinik OneCare 24jam,"19, Jalan Puteri 3A/1",Bandar Puteri Bangi,Kajang,Selangor,43000,Malaysia,2.878723,101.796017,,,onecareklinik@gmail.com,,true,true,Walk-in,false,Onsite,"<table role=""presentation"" class=""wpsl-opening-hours""><tr><td>Monday</td><td><time>6:00 AM - 6:00 AM</time></td></tr><tr><td>Tuesday</td><td><time>6:00 AM - 6:00 AM</time></td></tr><tr><td>Wednesday</td><td><time>6:00 AM - 6:00 AM</time></td></tr><tr><td>Thursday</td><td><time>6:00 AM - 6:00 AM</time></td></tr><tr><td>Friday</td><td><time>6:00 AM - 6:00 AM</time></td></tr><tr><td>Saturday</td><td><time>6:00 AM - 6:00 AM</time></td></tr><tr><td>Sunday</td><td><time>6:00 AM - 6:00 AM</time></td></tr></table>"
mypreplocator,615,Klinik Soo,A97 Jalan Air Putih,,Kuantan,Pahang,25300,Malaysia,3.831401,103.336349,+6011-6081 6864,,soobwei@gmail.com,https://www.facebook.com/KlinikSooKuantan,true,true,Walk-in,false,Onsite,"<table role=""presentation"" class=""wpsl-opening-hours""><tr><td>Monday</td><td><time>9:00 AM - 9:00 PM</time></td></tr><tr><td>Tuesday</td><td><time>9:00 AM - 9:00 PM</time></td></tr><tr><td>Wednesday</td><td><time>9:00 AM - 9:00 PM</time></td></tr><tr><td>Thursday</td><td><time>9:00 AM - 9:00 PM</time></td></tr><tr><td>Friday</td><td><time>9:00 AM - 9:00 PM</time></td></tr><tr><td>Saturday</td><td><time>9:00 AM - 9:00 PM</time></td></tr><tr><td>Sunday</td><td><time>9:00 AM - 9:00 PM</time></td></tr></table>"
mypreplocator,1061,Dr Lim Clinic,"B-22 Tingkat bawah, Jalan Seri Kuantan 81, Kuantan Star City II",,Kuantan,Pahang,25300,Malaysia,3.825157,103.336708,+609-565 4457,,limmedicare2023@gmail.com,,true,false,Walk-in,false,Onsite,"<table role=""presentation"" class=""wpsl-opening-hours""><tr><td>Monday</td><td><time>8:30 AM - 9:30 PM</time></td></tr><tr><td>Tuesday</td><td><time>8:30 AM - 9:30 PM</time></td></tr><tr><td>Wednesday</td><td><time>8:30 AM - 9:30 PM</time></td></tr><tr><td>Thursday</td><td><time>8:30 AM - 9:30 PM</time></td></tr><tr><td>Friday</td><td><time>8:30 AM - 9:30 PM</time></td></tr><tr><td>Saturday</td><td><time>8:30 AM - 9:30 PM</time></td></tr><tr><td>Sunday</td><td><time>8:30 AM - 9:30 PM</time></td></tr></table>"
mypreplocator,1126,Klinik Kesihatan Beserah (MyPrEPGov2023),Kampung Pelindung,,Kuantan,Pahang,26100,Malaysia,3.83513,103.370692,+609-544 5633,,,,true,false,Walk-in,true,Onsite,"<table role=""presentation"" class=""wpsl-opening-hours""><tr><td>Monday</td><td><time>2:30 PM - 4:30 PM</time></td></tr><tr><td>Tuesday</td><td><time>2:30 PM - 4:30 PM</time></td></tr><tr><td>Wednesday</td><td>Closed</td></tr><tr><td>Thursday</td><td><time>2:30 PM - 4:30 PM</time></td></tr><tr><td>Friday</td><td>Closed</td></tr><tr><td>Saturday</td><td>Closed</td></tr><tr><td>Sunday</td><td>Closed</td></tr></table>"
mypreplocator,1176,U.n.i Klinik Sikamat,"No. 418 & 419, Ground Floor, Jalan Sri Penaga 12",Taman Sri Penaga 2,Seremban,Negeri Sembilan,70400,Malaysia,2.755548,101.961318,+6011-36956571,,arborvitae.h@gmail.com,,true,true,Walk-in,false,Onsite,"<table role=""presentation"" class=""wpsl-opening-hours""><tr><td>Monday</td><td><time>9:00 AM - 10:00 PM</time></td></tr><tr><td>Tuesday</td><td><time>9:00 AM - 10:00 PM</time></td></tr><tr><td>Wednesday</td><td><time>9:00 AM - 10:00 PM</time></td></tr><tr><td>Thursday</td><td><time>9:00 AM - 10:00 PM</time></td></tr><tr><td>Friday</td><td><time>9:00 AM - 10:00 PM</time></td></tr><tr><td>Saturday</td><td><time>9:00 AM - 10:00 PM</time></td></tr><tr><td>Sunday</td><td><time>9:00 AM - 10:00 PM</time></td></tr></table>"
mypreplocator,552,Poliklinik MUC &#8211; Labu,"3, Wisma Koperasi Labu","Jalan Koperasi, Lorong Labu 1",Seremban,Negeri Sembilan,71900,Malaysia,2.727902,101.936463,+6010-231 7322,,labu@muclinics.com,https://www.mucclinics.com/index.html,true,true,Walk-in,false,Onsite,"<table role=""presentation"" class=""wpsl-opening-hours""><tr><td>Monday</td><td><time>8:00 AM - 9:00 PM</time></td></tr><tr><td>Tuesday</td><td><time>8:00 AM - 9:00 PM</time></td></tr><tr><td>Wednesday</td><td><time>8:00 AM - 9:00 PM</time></td></tr><tr><td>Thursday</td><td><time>8:00 AM - 9:00 PM</time></td></tr><tr><td>Friday</td><td><time>8:00 AM - 9:00 PM</time></td></tr><tr><td>Saturday</td><td><time>11:00 AM - 8:00 PM</time></td></tr><tr><td>Sunday</td><td><time>2:00 PM - 8:00 PM</time></td></tr></table>"
mypreplocator,1637,Klinik Maria,"155, Jalan Dato Bandar Tunggal,",,Seremban,Negeri Sembilan,70000,മലേഷ്യ,2.721226,101.939758,+606 7611 246,,balakrishnan_vani@yahoo.com,,true,true,Walk-in,false,Onsite,"<table role=""presentation"" class=""wpsl-opening-hours""><tr><td>Monday</td><td><time>9:00 AM - 5:00 PM</time></td></tr><tr><td>Tuesday</td><td><time>9:00 AM - 5:00 PM</time></td></tr><tr><td>Wednesday</td><td><time>9:00 AM - 5:00 PM</time></td></tr><tr><td>Thursday</td><td><time>9:00 AM - 5:00 PM</time></td></tr><tr><td>Friday</td><td><time>9:00 AM - 5:00 PM</time></td></tr><tr><td>Saturday</td><td><time>9:00 AM - 1:00 PM</time></td></tr><tr><td>Sunday</td><td><time>9:00 AM - 5:00 PM</time></td></tr></table>"
mypreplocator,1105,Klinik Kesihatan Seremban (MyPrEPGov2023),"Jalan Rasah, Seremban Seremban, Bukit Rasah",,Seremban,Negeri Sembilan,70300,Malaysia,2.708415,101.939819,+606-767 9267,,,,true,false,Appointment needed,true,Onsite,"<table role=""presentation"" class=""wpsl-opening-hours""><tr><td>Monday</td><td>Closed</td></tr><tr><td>Tuesday</td><td>Closed</td></tr><tr><td>Wednesday</td><td>Closed</td></tr><tr><td>Thursday</td><td><time>8:00 AM - 1:00 PM</time></td></tr><tr><td>Friday</td><td><time>8:00 AM - 5:00 PM</time></td></tr><tr><td>Saturday</td><td>Closed</td></tr><tr><td>Sunday</td><td>Closed</td></tr></table>"
mypreplocator,1651,POLIKLINIK FAMILY CARE 24 JAM,"No 45, Jalan PKBB 3",Pusat Komersial Bukit Blossom,Seremban,Negeri Sembilan,70100,മലേഷ്യ,2.699813,101.95185,+606 630 3113,,draliffpfc@gmail.com,,true,false,Appointment needed,false,Onsite,"<table role=""presentation"" class=""wpsl-opening-hours""><tr><td>Monday</td><td><time>8:00 AM - 8:00 AM</time></td></tr><tr><td>Tuesday</td><td><time>8:00 AM - 8:00 AM</time></td></tr><tr><td>Wednesday</td><td><time>8:00 AM - 8:00 AM</time></td></tr><tr><td>Thursday</td><td><time>8:00 AM - 8:00 AM</time></td></tr><tr><td>Friday</td><td><time>8:00 AM - 8:00 AM</time></td></tr><tr><td>Saturday</td><td><time>8:00 AM - 8:00 AM</time></td></tr><tr><td>Sunday</td><td><time>8:00 AM - 8:00 AM</time></td></tr></table>"
mypreplocator,1672,Poliklinik Fateh,"1267G, Jalan Suriaman Biz 1, Pusat Komersial Suriaman",Bandar Sri Sendayan,Seremban,Negeri Sembilan,71950,മലേഷ്യ,2.699805,101.858321,+6017-5752 050,,poliklinikfateh@gmail.com,,true,true,Walk-in,false,Onsite,"<table role=""presentation"" class=""wpsl-opening-hours""><tr><td>Monday</td><td><time>08:00 - 22:00</time></td></tr><tr><td>Tuesday</td><td><time>08:00 - 22:00</time></td></tr><tr><td>Wednesday</td><td><time>08:00 - 22:00</time></td></tr><tr><td>Thursday</td><td><time>08:00 - 22:00</time></td></tr><tr><td>Friday</td><td><time>08:00 - 22:00</time></td></tr><tr><td>Saturday</td><td><time>08:00 - 22:00</time></td></tr><tr><td>Sunday</td><td><time>08:00 - 22:00</time></td></tr></table>"
mypreplocator,1598,Klinik Kesihatan Kuala Dungun,Kg Alor Tembesu,Kampung Alur Temesu,Kuala Dungun,Terengganu,23000,മലേഷ്യ,4.761554,103.414119,+609-845 8820,,,,true,false,Walk-in,true,Onsite,"<table role=""presentation"" class=""wpsl-opening-hours""><tr><td>Monday</td><td>Closed</td></tr><tr><td>Tuesday</td><td><time>8:00 AM - 5:00 PM</time></td></tr><tr><td>Wednesday</td><td>Closed</td></tr><tr><td>Thursday</td><td>Closed</td></tr><tr><td>Friday</td><td>Closed</td></tr><tr><td>Saturday</td><td>Closed</td></tr><tr><td>Sunday</td><td><time>8:00 AM - 5:00 PM</time></td></tr></table>"
mypreplocator,1687,Poliklinik Seremban 3,"No.18, Jalan KU1,",Pusat Komersial University,Seremban,Negeri Sembilan,70300,മലേഷ്യ,2.671729,101.932998,+6018-3612 988,,poliklinikseremban25@gmail.com,,true,false,Walk-in,false,Onsite,"<table role=""presentation"" class=""wpsl-opening-hours""><tr><td>Monday</td><td><time>8:00 AM - 10:00 PM</time></td></tr><tr><td>Tuesday</td><td><time>8:00 AM - 10:00 PM</time></td></tr><tr><td>Wednesday</td><td><time>8:00 AM - 10:00 PM</time></td></tr><tr><td>Thursday</td><td><time>8:00 AM - 10:00 PM</time></td></tr><tr><td>Friday</td><td><time>8:00 AM - 10:00 PM</time></td></tr><tr><td>Saturday</td><td><time>8:00 AM - 10:00 PM</time></td></tr><tr><td>Sunday</td><td>Closed</td></tr></table>"
mypreplocator,593,Poliklinik Ar Razi Perubatan &#038; X-Ray Pekan,"No 18 & 19, Lorong Peramu Permai 1",Peramu Jaya,Pekan,Pahang,26600,Malaysia,3.550628,103.381405,+6019-964 7113,,arrazipekan18@gmail.com,,true,false,Walk-in,false,Onsite,"<table role=""presentation"" class=""wpsl-opening-hours""><tr><td>Monday</td><td><time>9:00 AM - 5:00 PM</time></td></tr><tr><td>Tuesday</td><td><time>9:00 AM - 5:00 PM</time></td></tr><tr><td>Wednesday</td><td><time>9:00 AM - 5:00 PM</time></td></tr><tr><td>Thursday</td><td><time>9:00 AM - 5:00 PM</time></td></tr><tr><td>Friday</td><td><time>9:00 AM - 5:00 PM</time></td></tr><tr><td>Saturday</td><td><time>9:00 AM - 5:00 PM</time></td></tr><tr><td>Sunday</td><td>Closed</td></tr></table>"
mypreplocator,1265,Klinik Insyirah,"Lot 60017 (PN 14060) Kampung Durian Burung, Mukim Kubang Parit",,Kuala Terengganu,Terengganu,20050,Malaysia,5.30374,103.110596,+6019-449 6443,,klinikinsyirahdb@gmail.com,,true,true,Walk-in,false,Onsite,"<table role=""presentation"" class=""wpsl-opening-hours""><tr><td>Monday</td><td><time>9:00 AM - 11:30 PM</time></td></tr><tr><td>Tuesday</td><td><time>9:00 AM - 11:30 PM</time></td></tr><tr><td>Wednesday</td><td><time>9:00 AM - 11:30 PM</time></td></tr><tr><td>Thursday</td><td><time>9:00 AM - 11:30 PM</time></td></tr><tr><td>Friday</td><td><time>9:00 AM - 11:30 PM</time></td></tr><tr><td>Saturday</td><td><time>9:00 AM - 11:30 PM</time></td></tr><tr><td>Sunday</td><td><time>9:00 AM - 11:30 PM</time></td></tr></table>"
mypreplocator,642,UCSI Hospital,"No.2, Avenue 3, Persiaran Springhill,",,Port Dickson,Negeri Sembilan,71010,Malaysia,2.603226,101.862718,+606-648 8888,,info@ucsihospital.com,http://www.ucsihospital.com,true,true,Appointment needed,true,Onsite,"<table role=""presentation"" class=""wpsl-opening-hours""><tr><td>Monday</td><td><time>9:00 AM - 5:00 PM</time></td></tr><tr><td>Tuesday</td><td><time>9:00 AM - 5:00 PM</time></td></tr><tr><td>Wednesday</td><td><time>9:00 AM - 5:00 PM</time></td></tr><tr><td>Thursday</td><td><time>9:00 AM - 5:00 PM</time></td></tr><tr><td>Friday</td><td><time>9:00 AM - 5:00 PM</time></td></tr><tr><td>Saturday</td><td><time>9:00 AM - 1:00 PM</time></td></tr><tr><td>Sunday</td><td>Closed</td></tr></table>"
mypreplocator,1600,Klinik Kesihatan Seberang Takir,Jalan Telok Ketapang,Kampung Telok Ketapang,Kuala Terengganu,Terengganu,21300,മലേഷ്യ,5.375755,103.117092,+609-666 3333,,,,true,false,Walk-in,true,Onsite,"<table role=""presentation"" class=""wpsl-opening-hours""><tr><td>Monday</td><td>Closed</td></tr><tr><td>Tuesday</td><td>Closed</td></tr><tr><td>Wednesday</td><td><time>8:00 AM - 5:00 PM</time></td></tr><tr><td>Thursday</td><td>Closed</td></tr><tr><td>Friday</td><td>Closed</td></tr><tr><td>Saturday</td><td>Closed</td></tr><tr><td>Sunday</td><td><time>8:00 AM - 5:00 PM</time></td></tr></table>"
mypreplocator,1578,Klinik Kesihatan Port Dickson,Jalan Seremban,Kampung Dhobi,Port Dickson,Negeri Sembilan,70300,മലേഷ്യ,2.528583,101.791897,+606-647 3333,,,,true,false,Walk-in,true,Onsite,"<table role=""presentation"" class=""wpsl-opening-hours""><tr><td>Monday</td><td>Closed</td></tr><tr><td>Tuesday</td><td>Closed</td></tr><tr><td>Wednesday</td><td><time>8:00 AM - 1:00 PM</time></td></tr><tr><td>Thursday</td><td>Closed</td></tr><tr><td>Friday</td><td>Closed</td></tr><tr><td>Saturday</td><td>Closed</td></tr><tr><td>Sunday</td><td>Closed</td></tr></table>"
mypreplocator,1298,O2 Klinik Batu Kawan,"43-G, Jalan Borealis 3,","Pusat Komersial Borealis,Bandar Cassia",Batu Kawan,Penang,14110,Malaysia,5.235775,100.443824,+604-587 1902,,po.boon@o2klinik.com,http://www.o2klinik.com,true,false,Walk-in,false,Onsite,"<table role=""presentation"" class=""wpsl-opening-hours""><tr><td>Monday</td><td><time>8:00 AM - 8:00 PM</time></td></tr><tr><td>Tuesday</td><td><time>8:00 AM - 8:00 PM</time></td></tr><tr><td>Wednesday</td><td><time>8:00 AM - 8:00 PM</time></td></tr><tr><td>Thursday</td><td><time>8:00 AM - 8:00 PM</time></td></tr><tr><td>Friday</td><td><time>8:00 AM - 8:00 PM</time></td></tr><tr><td>Saturday</td><td><time>8:00 AM - 8:00 PM</time></td></tr><tr><td>Sunday</td><td><time>8:00 AM - 8:00 PM</time></td></tr></table>"
mypreplocator,1255,Novo Clinic,"6G, Jalan Borealis 4,","Pusat Komersial Borealis,","Bandar Cassia, Simpang Ampat",Penang,14110,Malaysia,5.236562,100.443703,+6016-504 5005,,novomedicbk@gmail.com,,true,false,Walk-in,false,Onsite,"<table role=""presentation"" class=""wpsl-opening-hours""><tr><td>Monday</td><td><time>9:00 AM - 8:00 PM</time></td></tr><tr><td>Tuesday</td><td><time>9:00 AM - 8:00 PM</time></td></tr><tr><td>Wednesday</td><td><time>9:00 AM - 8:00 PM</time></td></tr><tr><td>Thursday</td><td><time>9:00 AM - 8:00 PM</time></td></tr><tr><td>Friday</td><td><time>9:00 AM - 8:00 PM</time></td></tr><tr><td>Saturday</td><td><time>9:00 AM - 8:00 PM</time></td></tr><tr><td>Sunday</td><td>Closed</td></tr></table>"
mypreplocator,1631,Medicare Clinic Tambun,"21 (Ground Floor), Lorong Bagan Tambun",Taman Bagan Tambun,Simpang Ampat,Penang,14100,മലേഷ്യ,5.277751,100.468654,+6017-3606 049,,medicaretambun@gmail.com,,true,false,Appointment needed,false,Onsite,"<table role=""presentation"" class=""wpsl-opening-hours""><tr><td>Monday</td><td><time>9:00 AM - 8:00 PM</time></td></tr><tr><td>Tuesday</td><td><time>9:00 AM - 8:00 PM</time></td></tr><tr><td>Wednesday</td><td><time>9:00 AM - 8:00 PM</time></td></tr><tr><td>Thursday</td><td><time>9:00 AM - 8:00 PM</time></td></tr><tr><td>Friday</td><td><time>9:00 AM - 8:00 PM</time></td></tr><tr><td>Saturday</td><td><time>9:00 AM - 1:00 PM</time></td></tr><tr><td>Sunday</td><td>Closed</td></tr></table>"
mypreplocator,1649,POLIKLINIK VALDOR TAMAN PERWIRA 24JAM,"No 5 GF, Lorong Perwira Indah 1, Taman Perwira",,Simpang Ampat,Penang,14100,മലേഷ്യ,5.298289,100.477637,+6010 564 0025,,poliklinikvaldortamanperwira@gmail.com,,true,true,Appointment needed,false,Onsite,"<table role=""presentation"" class=""wpsl-opening-hours""><tr><td>Monday</td><td><time>6:00 AM - 12:00 AM</time></td></tr><tr><td>Tuesday</td><td><time>6:00 AM - 12:00 AM</time></td></tr><tr><td>Wednesday</td><td><time>6:00 AM - 12:00 AM</time></td></tr><tr><td>Thursday</td><td><time>6:00 AM - 12:00 AM</time></td></tr><tr><td>Friday</td><td><time>6:00 AM - 12:00 AM</time></td></tr><tr><td>Saturday</td><td><time>6:00 AM - 12:00 AM</time></td></tr><tr><td>Sunday</td><td><time>6:00 AM - 12:00 AM</time></td></tr></table>"
mypreplocator,1350,One Med Clinic,"2400, Jln Kg Baru,",,Bukit Mertajam,Penang,14000,Malaysia,5.352392,100.473607,,,onemedclinic.general@gmail.com,https://www.facebook.com/onemedclinic2400/,true,true,Appointment needed,false,Onsite,"<table role=""presentation"" class=""wpsl-opening-hours""><tr><td>Monday</td><td><time>8:00 AM - 10:00 PM</time></td></tr><tr><td>Tuesday</td><td><time>8:00 AM - 10:00 PM</time></td></tr><tr><td>Wednesday</td><td><time>8:00 AM - 10:00 PM</time></td></tr><tr><td>Thursday</td><td><time>8:00 AM - 10:00 PM</time></td></tr><tr><td>Friday</td><td><time>8:00 AM - 10:00 PM</time></td></tr><tr><td>Saturday</td><td><time>8:00 AM - 10:00 PM</time></td></tr><tr><td>Sunday</td><td><time>8:00 AM - 10:00 PM</time></td></tr></table>"
mypreplocator,1221,U.n.i Klinik Kota Bharu,"3512D, Jalan Sultanah Zainab",Bandar Lama (Seksyen 18),Kota Bharu,Kelantan,15050,Malaysia,6.111810,102.237811,+6017-876 5469,,uniklinikkotabharu@gmail.com,,true,true,Walk-in,false,Onsite,"<table role=""presentation"" class=""wpsl-opening-hours""><tr><td>Monday</td><td><time>8:00 AM - 11:00 PM</time></td></tr><tr><td>Tuesday</td><td><time>8:00 AM - 11:00 PM</time></td></tr><tr><td>Wednesday</td><td><time>8:00 AM - 11:00 PM</time></td></tr><tr><td>Thursday</td><td><time>8:00 AM - 11:00 PM</time></td></tr><tr><td>Friday</td><td><time>9:00 AM - 11:00 PM</time></td></tr><tr><td>Saturday</td><td><time>9:00 AM - 11:00 PM</time></td></tr><tr><td>Sunday</td><td><time>8:00 AM - 11:00 PM</time></td></tr></table>"
mypreplocator,1581,"Klinik Kesihatan Bandar IOI, Segamat","KM 7, Jalan Genuang Segamat",,Segamat,Johor,85000,മലേഷ്യ,2.494152,102.86392,+607-943 6099,,,,true,false,Walk-in,true,Onsite,"<table role=""presentation"" class=""wpsl-opening-hours""><tr><td>Monday</td><td>Closed</td></tr><tr><td>Tuesday</td><td><time>9:00 AM - 4:00 PM</time></td></tr><tr><td>Wednesday</td><td>Closed</td></tr><tr><td>Thursday</td><td>Closed</td></tr><tr><td>Friday</td><td>Closed</td></tr><tr><td>Saturday</td><td>Closed</td></tr><tr><td>Sunday</td><td>Closed</td></tr></table>"
mypreplocator,1602,Klinik Kesihatan Kota Jembal,"Bandar Kota Jembal, Kedai Lalat",,Kota Bharu,Kelantan,16150,മലേഷ്യ,6.114322,102.30534,+609-766 6733,,,,true,false,Walk-in,true,Onsite,"<table role=""presentation"" class=""wpsl-opening-hours""><tr><td>Monday</td><td>Closed</td></tr><tr><td>Tuesday</td><td><time>8:00 AM - 5:00 PM</time></td></tr><tr><td>Wednesday</td><td>Closed</td></tr><tr><td>Thursday</td><td>Closed</td></tr><tr><td>Friday</td><td>Closed</td></tr><tr><td>Saturday</td><td>Closed</td></tr><tr><td>Sunday</td><td>Closed</td></tr></table>"
mypreplocator,1098,Klinik Kesihatan Butterworth (MyPrEPGov2023),"Lot 1699, Seksyen 4,","Jalan Bagan Luar,",Butterworth,Penang,01200,മലേഷ്യ,5.40688,100.368295,+604-323 3333,,,,true,false,Walk-in,true,Onsite,"<table role=""presentation"" class=""wpsl-opening-hours""><tr><td>Monday</td><td>Closed</td></tr><tr><td>Tuesday</td><td>Closed</td></tr><tr><td>Wednesday</td><td>Closed</td></tr><tr><td>Thursday</td><td><time>8:00 AM - 4:30 PM</time></td></tr><tr><td>Friday</td><td><time>8:00 AM - 4:30 PM</time></td></tr><tr><td>Saturday</td><td>Closed</td></tr><tr><td>Sunday</td><td>Closed</td></tr></table>"
mypreplocator,1568,Klinik Kesihatan Sungai Dua TL,Lot 2254,Jalan Sungai Dua,Gelugor,Penang,11700,മലേഷ്യ,5.344316,100.297304,+604-642 2201,,,,true,false,Walk-in,true,Onsite,"<table role=""presentation"" class=""wpsl-opening-hours""><tr><td>Monday</td><td><time>8:00 AM - 4:30 PM</time></td></tr><tr><td>Tuesday</td><td>Closed</td></tr><tr><td>Wednesday</td><td>Closed</td></tr><tr><td>Thursday</td><td>Closed</td></tr><tr><td>Friday</td><td>Closed</td></tr><tr><td>Saturday</td><td>Closed</td></tr><tr><td>Sunday</td><td>Closed</td></tr></table>"
mypreplocator,1059,Chua Internal Specialist Clinic,Putra Specialist Hospital,"Suite 306, 3 Floor, 169 Jalan,","Melaka Tengah,",Malacca,75100,Malaysia,2.202164,102.252519,+6017-265 1680,,adamckc@gmail.com,,true,true,Appointment needed,false,Offsite,"<table role=""presentation"" class=""wpsl-opening-hours""><tr><td>Monday</td><td><time>9:00 AM - 5:00 PM</time></td></tr><tr><td>Tuesday</td><td><time>9:00 AM - 5:00 PM</time></td></tr><tr><td>Wednesday</td><td><time>9:00 AM - 5:00 PM</time></td></tr><tr><td>Thursday</td><td><time>9:00 AM - 11:00 AM</time></td></tr><tr><td>Friday</td><td><time>9:00 AM - 5:00 PM</time></td></tr><tr><td>Saturday</td><td><time>9:00 AM - 12:00 PM</time></td></tr><tr><td>Sunday</td><td>Closed</td></tr></table>"
mypreplocator,1618,Comfort Health Medical Specialist Clinic,"302E-1, Jalan Dato' Ismail Hashim, Sungai Ara",,Bayan Lepas,Penang,11900,മലേഷ്യ,5.319721,100.270491,+6013 4361 828,,comforthealthpg@gmail.com,,true,true,Walk-in,false,Onsite,"<table role=""presentation"" class=""wpsl-opening-hours""><tr><td>Monday</td><td><time>8:30 AM - 10:00 PM</time></td></tr><tr><td>Tuesday</td><td><time>8:30 AM - 10:00 PM</time></td></tr><tr><td>Wednesday</td><td><time>8:30 AM - 10:00 PM</time></td></tr><tr><td>Thursday</td><td><time>8:30 AM - 10:00 PM</time></td></tr><tr><td>Friday</td><td>Closed</td></tr><tr><td>Saturday</td><td><time>8:30 AM - 2:00 PM</time></td></tr><tr><td>Sunday</td><td><time>8:30 AM - 2:00 PM</time></td></tr></table>"
mypreplocator,666,Penang Family Health Development Association,16 & 18 Kampung Kolam,333 Jalan Perak,Georgetown,Penang,10200,Malaysia,5.416162,100.336697,+604-262 2225,,fhda.halimah@gmail.com,http://www.penangfhda.org,true,true,Appointment needed,true,Onsite,"<table role=""presentation"" class=""wpsl-opening-hours""><tr><td>Monday</td><td>Closed</td></tr><tr><td>Tuesday</td><td><time>8:30 AM - 3:30 PM</time></td></tr><tr><td>Wednesday</td><td><time>8:30 AM - 3:30 PM</time></td></tr><tr><td>Thursday</td><td><time>8:30 AM - 3:30 PM</time></td></tr><tr><td>Friday</td><td><time>8:30 AM - 3:30 PM</time></td></tr><tr><td>Saturday</td><td><time>8:30 AM - 3:30 PM</time></td></tr><tr><td>Sunday</td><td>Closed</td></tr></table>"
mypreplocator,1633,Klinik Eco Medic (Golden Triangle),"29-1-2, Jalan Paya Terubong",,Bayan Lepas,Penang,11900,മലേഷ്യ,5.330866,100.275805,+604 6111 011,,klinikecomedicgt@gmail.com,,true,true,Walk-in,false,Onsite,"<table role=""presentation"" class=""wpsl-opening-hours""><tr><td>Monday</td><td><time>8:00 AM - 10:00 PM</time></td></tr><tr><td>Tuesday</td><td><time>8:00 AM - 10:00 PM</time></td></tr><tr><td>Wednesday</td><td><time>8:00 AM - 10:00 PM</time></td></tr><tr><td>Thursday</td><td><time>8:00 AM - 10:00 PM</time></td></tr><tr><td>Friday</td><td><time>8:00 AM - 10:00 PM</time></td></tr><tr><td>Saturday</td><td><time>8:00 AM - 10:00 PM</time></td></tr><tr><td>Sunday</td><td><time>8:00 AM - 10:00 PM</time></td></tr></table>"
mypreplocator,661,Tan Clinic,Tan Clinic,292-G Jalan Jelutong,Jelutong,Penang,11600,Malaysia,5.395962,100.317234,+6011-6320 3722,,tanclinicpenang@gmail.com,https://www.google.com/search?q=tanclinic&#038;oq=tanclinic&#038;aqs=chrome..69i57j46i13i175i199l2j0i13l2j69i61l2j69i60.3714j0j4&#038;sourceid=chrome&#038;ie=UTF-8,true,false,Appointment needed,false,Onsite,"<table role=""presentation"" class=""wpsl-opening-hours""><tr><td>Monday</td><td><time>9:00 AM - 5:00 PM</time></td></tr><tr><td>Tuesday</td><td><time>9:00 AM - 5:00 PM</time></td></tr><tr><td>Wednesday</td><td><time>9:00 AM - 5:00 PM</time></td></tr><tr><td>Thursday</td><td><time>9:00 AM - 5:00 PM</time></td></tr><tr><td>Friday</td><td><time>9:00 AM - 5:00 PM</time></td></tr><tr><td>Saturday</td><td>Closed</td></tr><tr><td>Sunday</td><td>Closed</td></tr></table>"
mypreplocator,1107,Klinik Kesihatan Jalan Gereja (MyPrEPGov2023),"17, Jalan Gereja",,Bandar Hilir,Melaka,75000,Malaysia,2.194498,102.249869,+606-2824452,,,,true,false,Walk-in,true,Onsite,"<table role=""presentation"" class=""wpsl-opening-hours""><tr><td>Monday</td><td><time>8:00 AM - 4:00 PM</time></td></tr><tr><td>Tuesday</td><td><time>8:00 AM - 4:00 PM</time></td></tr><tr><td>Wednesday</td><td><time>8:00 AM - 4:00 PM</time></td></tr><tr><td>Thursday</td><td><time>8:00 AM - 4:00 PM</time></td></tr><tr><td>Friday</td><td><time>8:00 AM - 4:00 PM</time></td></tr><tr><td>Saturday</td><td>Closed</td></tr><tr><td>Sunday</td><td>Closed</td></tr></table>"
mypreplocator,1248,Bwell Clinic,1-G-16 Imperial Grande,Persiaran Relau,Bayan Lepas,Penang,11900,Malaysia,5.33696,100.272758,+604-286 4546,,drwaynecheah@gmail.com,https://www.facebook.com/pg.bwellclinic/,true,true,Walk-in,true,Onsite,"<table role=""presentation"" class=""wpsl-opening-hours""><tr><td>Monday</td><td><time>9:00 AM - 8:00 PM</time></td></tr><tr><td>Tuesday</td><td><time>9:00 AM - 8:00 PM</time></td></tr><tr><td>Wednesday</td><td><time>9:00 AM - 8:00 PM</time></td></tr><tr><td>Thursday</td><td><time>9:00 AM - 8:00 PM</time></td></tr><tr><td>Friday</td><td><time>9:00 AM - 8:00 PM</time></td></tr><tr><td>Saturday</td><td><time>9:00 AM - 2:00 PM</time></td></tr><tr><td>Sunday</td><td>Closed</td></tr></table>"
mypreplocator,1299,O2 Klinik Jelutong,"I/J/K, 129, Jalan Tan Sri Teh Ewe Lim",,"Jelutong, Georgetown",Penang,11600,Malaysia,5.3923,100.307931,+604-656 3348,,infojelutong@o2klinik.com,,true,false,Walk-in,false,Onsite,"<table role=""presentation"" class=""wpsl-opening-hours""><tr><td>Monday</td><td><time>8:00 AM - 10:00 PM</time></td></tr><tr><td>Tuesday</td><td><time>8:00 AM - 10:00 PM</time></td></tr><tr><td>Wednesday</td><td><time>8:00 AM - 10:00 PM</time></td></tr><tr><td>Thursday</td><td><time>8:00 AM - 10:00 PM</time></td></tr><tr><td>Friday</td><td><time>8:00 AM - 10:00 PM</time></td></tr><tr><td>Saturday</td><td><time>8:00 AM - 10:00 PM</time></td></tr><tr><td>Sunday</td><td><time>8:00 AM - 10:00 PM</time></td></tr></table>"
mypreplocator,1154,Mahkota Medical Centre,"No 3, Mahkota Melaka",Jalan Merdeka,Melaka,Malacca,75000,Malaysia,2.187669,102.251551,+606-285 2710,,info@mahkotamedical.com,,true,true,Walk-in,false,Onsite,"<table role=""presentation"" class=""wpsl-opening-hours""><tr><td>Monday</td><td>Closed</td></tr><tr><td>Tuesday</td><td>Closed</td></tr><tr><td>Wednesday</td><td>Closed</td></tr><tr><td>Thursday</td><td>Closed</td></tr><tr><td>Friday</td><td><time>9:00 AM - 3:00 PM</time></td></tr><tr><td>Saturday</td><td>Closed</td></tr><tr><td>Sunday</td><td>Closed</td></tr></table>"
mypreplocator,1134,Loh Guan Lye Specialists Centre,"238, Jalan Macalister",,George Town,Penang,10400,Malaysia,5.419432,100.318001,+604-238 8888,,chchuah7@yahoo.com,http://www.lohguanlye.com/,true,true,Walk-in,false,Onsite,"<table role=""presentation"" class=""wpsl-opening-hours""><tr><td>Monday</td><td><time>9:00 AM - 5:00 PM</time></td></tr><tr><td>Tuesday</td><td><time>9:00 AM - 5:00 PM</time></td></tr><tr><td>Wednesday</td><td><time>9:00 AM - 5:00 PM</time></td></tr><tr><td>Thursday</td><td><time>9:00 AM - 5:00 PM</time></td></tr><tr><td>Friday</td><td><time>9:00 AM - 5:00 PM</time></td></tr><tr><td>Saturday</td><td><time>9:00 AM - 1:00 PM</time></td></tr><tr><td>Sunday</td><td>Closed</td></tr></table>"
mypreplocator,315,Hospital Pulau Pinang,"Aras 1, Bangunan ACC, Hospital Pulau Pinang,","Jalan Residensi, 10990 Georgetown, Pulau Pinang",Georgetown,Pulau Pinang,10990,Malaysia,5.417842,100.310969,+604-222 5711,,idclinichpp@gmail.com,,true,false,Appointment needed,true,Offsite,"<table role=""presentation"" class=""wpsl-opening-hours""><tr><td>Monday</td><td>Closed</td></tr><tr><td>Tuesday</td><td>Closed</td></tr><tr><td>Wednesday</td><td><time>8:00 AM - 12:00 PM</time></td></tr><tr><td>Thursday</td><td>Closed</td></tr><tr><td>Friday</td><td>Closed</td></tr><tr><td>Saturday</td><td>Closed</td></tr><tr><td>Sunday</td><td>Closed</td></tr></table>"
mypreplocator,1564,Klinik Kesihatan Bandar Sungai Petani,Jalan Badlishah,Kampung Sungai Tongka,Sungai Petani,Kedah,8000,മലേഷ്യ,5.647417,100.497038,+604-421 3355,,,,true,false,Walk-in,true,Onsite,"<table role=""presentation"" class=""wpsl-opening-hours""><tr><td>Monday</td><td>Closed</td></tr><tr><td>Tuesday</td><td>Closed</td></tr><tr><td>Wednesday</td><td>Closed</td></tr><tr><td>Thursday</td><td>Closed</td></tr><tr><td>Friday</td><td>Closed</td></tr><tr><td>Saturday</td><td>Closed</td></tr><tr><td>Sunday</td><td><time>2:00 PM - 5:00 PM</time></td></tr></table>"
mypreplocator,1674,POLIKLINIK MEDI AMAN,"No.41, Jalan Melor 1/1, Bandar Amanjaya",,Sungai Petani,Kedah,08000,മലേഷ്യ,5.703201,100.535053,+6016-4509 725,,poliklinikmediv@gmail.com,,true,true,Walk-in,false,Onsite,"<table role=""presentation"" class=""wpsl-opening-hours""><tr><td>Monday</td><td><time>9:00 AM - 11:00 PM</time></td></tr><tr><td>Tuesday</td><td><time>9:00 AM - 11:00 PM</time></td></tr><tr><td>Wednesday</td><td><time>9:00 AM - 11:00 PM</time></td></tr><tr><td>Thursday</td><td><time>9:00 AM - 11:00 PM</time></td></tr><tr><td>Friday</td><td><time>9:00 AM - 11:00 PM</time></td></tr><tr><td>Saturday</td><td><time>9:00 AM - 11:00 PM</time></td></tr><tr><td>Sunday</td><td><time>9:00 AM - 11:00 PM</time></td></tr></table>"
mypreplocator,1240,Klinik Mediviron Tanjung Tokong,Klinik Mediviron Tanjung Tokong,"B-G-9, Jalan Desiran Tanjung Vantage, Tanjung Tokong,",Georgetown,Penang,10470,Malaysia,5.456249,100.30772,+6012-668 2540,,mediviron.tanjungtokong@gmail.com,,true,true,Appointment needed,false,Onsite,"<table role=""presentation"" class=""wpsl-opening-hours""><tr><td>Monday</td><td><time>11:00 AM - 9:00 PM</time></td></tr><tr><td>Tuesday</td><td><time>11:00 AM - 9:00 PM</time></td></tr><tr><td>Wednesday</td><td><time>11:00 AM - 9:00 PM</time></td></tr><tr><td>Thursday</td><td><time>11:00 AM - 9:00 PM</time></td></tr><tr><td>Friday</td><td><time>11:00 AM - 9:00 PM</time></td></tr><tr><td>Saturday</td><td><time>11:00 AM - 6:00 PM</time></td></tr><tr><td>Sunday</td><td><time>11:00 AM - 6:00 PM</time></td></tr></table>"
mypreplocator,634,Klinik Dr. Fauzi (Cawangan Kuala Kedah),"No.7, Tingkat bawah, Taman Kekwa,","Jalan Kuala Kedah,","Alor Setar,",Kedah,06600,Malaysia,6.098255,100.339647,+604-772 7278,,kdfkualakedah@gmail.com,,true,true,Walk-in,false,Onsite,"<table role=""presentation"" class=""wpsl-opening-hours""><tr><td>Monday</td><td><time>9:00 AM - 10:00 PM</time></td></tr><tr><td>Tuesday</td><td><time>9:00 AM - 10:00 PM</time></td></tr><tr><td>Wednesday</td><td><time>9:00 AM - 10:00 PM</time></td></tr><tr><td>Thursday</td><td><time>9:00 AM - 10:00 PM</time></td></tr><tr><td>Friday</td><td><time>9:00 AM - 10:00 PM</time></td></tr><tr><td>Saturday</td><td><time>9:00 AM - 10:00 PM</time></td></tr><tr><td>Sunday</td><td><time>9:00 AM - 10:00 PM</time></td></tr></table>"
mypreplocator,1095,Klinik Kesihatan Kuala Kedah (MyPrEPGov2023),Kampung Sematang,,Kuala Kedah,Kedah,06600,മലേഷ്യ,6.098914,100.301093,+604-762 1526,,,,true,false,Walk-in,true,Onsite,"<table role=""presentation"" class=""wpsl-opening-hours""><tr><td>Monday</td><td><time>2:00 PM - 5:00 PM</time></td></tr><tr><td>Tuesday</td><td>Closed</td></tr><tr><td>Wednesday</td><td>Closed</td></tr><tr><td>Thursday</td><td>Closed</td></tr><tr><td>Friday</td><td>Closed</td></tr><tr><td>Saturday</td><td>Closed</td></tr><tr><td>Sunday</td><td>Closed</td></tr></table>"
mypreplocator,540,Klinik Boon Lim,15 Jalan Pejabat Pos Rengit,Rengit,Batu Pahat,Johor,83100,Malaysia,1.849238,102.929902,+607-424 2142,,klinikboonlimrengit@gmail.com,,true,false,Walk-in,false,Onsite,"<table role=""presentation"" class=""wpsl-opening-hours""><tr><td>Monday</td><td><time>9:00 AM - 6:00 PM</time></td></tr><tr><td>Tuesday</td><td><time>9:00 AM - 6:00 PM</time></td></tr><tr><td>Wednesday</td><td><time>9:00 AM - 6:00 PM</time></td></tr><tr><td>Thursday</td><td><time>9:00 AM - 6:00 PM</time></td></tr><tr><td>Friday</td><td>Closed</td></tr><tr><td>Saturday</td><td><time>9:00 AM - 6:00 PM</time></td></tr><tr><td>Sunday</td><td><time>9:00 AM - 6:00 PM</time></td></tr></table>"
mypreplocator,1109,Klinik Kesihatan Batu Pahat (MyPrEPGov2023),"Jalan Kluang, Taman Limpoon",,Batu Pahat,Johor,83000,Malaysia,1.849925,102.941969,+607-433 2544,,,,true,false,Walk-in,true,Onsite,"<table role=""presentation"" class=""wpsl-opening-hours""><tr><td>Monday</td><td><time>9:00 AM - 4:00 PM</time></td></tr><tr><td>Tuesday</td><td><time>9:00 AM - 4:00 PM</time></td></tr><tr><td>Wednesday</td><td><time>9:00 AM - 4:00 PM</time></td></tr><tr><td>Thursday</td><td><time>9:00 AM - 4:00 PM</time></td></tr><tr><td>Friday</td><td><time>9:00 AM - 11:00 AM</time></td></tr><tr><td>Saturday</td><td>Closed</td></tr><tr><td>Sunday</td><td>Closed</td></tr></table>"
mypreplocator,646,Klinik Kurnia Sdn Bhd,"No 35, Jalan Orchard Heights 1,",Taman Orchard Heights,Batu Pahat,Johor,83000,Malaysia,1.835396,102.948998,+6011-2952 4248,,klinikkurniabp@gmail.com,https://www.klinikkurniabp.com/,true,false,Walk-in,false,Onsite,"<table role=""presentation"" class=""wpsl-opening-hours""><tr><td>Monday</td><td><time>8:00 AM - 8:00 AM</time></td></tr><tr><td>Tuesday</td><td><time>8:00 AM - 8:00 AM</time></td></tr><tr><td>Wednesday</td><td><time>8:00 AM - 8:00 AM</time></td></tr><tr><td>Thursday</td><td><time>8:00 AM - 8:00 AM</time></td></tr><tr><td>Friday</td><td><time>8:00 AM - 8:00 AM</time></td></tr><tr><td>Saturday</td><td><time>8:00 AM - 8:00 AM</time></td></tr><tr><td>Sunday</td><td><time>8:00 AM - 8:00 AM</time></td></tr></table>"
mypreplocator,1032,Klinik Dan Surgeri Abriel,"No 50(GF), Jalan Tasik Indah 1/1,","Taman Tasik Indah,","Kluang,",Johor,86000,Malaysia,1.994876,103.296137,+6013-405 1180,,abrielkliniksurgeri@gmail.com,,true,false,Walk-in,false,Onsite,"<table role=""presentation"" class=""wpsl-opening-hours""><tr><td>Monday</td><td><time>5:30 PM - 9:00 PM</time></td></tr><tr><td>Tuesday</td><td><time>5:30 PM - 9:00 PM</time></td></tr><tr><td>Wednesday</td><td><time>5:30 PM - 9:00 PM</time></td></tr><tr><td>Thursday</td><td><time>5:30 PM - 9:00 PM</time></td></tr><tr><td>Friday</td><td><time>5:30 PM - 9:00 PM</time></td></tr><tr><td>Saturday</td><td><time>9:00 AM - 9:00 PM</time></td></tr><tr><td>Sunday</td><td>Closed</td></tr></table>"
mypreplocator,660,Akasia Clinic,"63, Jalan Universiti 1, Taman Universiti",,Batu Pahat,Johor,86400,Malaysia,1.848535,103.071251,+6014-985 7011,,akasiaclinicbp@gmail.com,,true,false,Walk-in,false,Onsite,"<table role=""presentation"" class=""wpsl-opening-hours""><tr><td>Monday</td><td><time>9:00 AM - 10:00 PM</time></td></tr><tr><td>Tuesday</td><td><time>9:00 AM - 10:00 PM</time></td></tr><tr><td>Wednesday</td><td><time>9:00 AM - 10:00 PM</time></td></tr><tr><td>Thursday</td><td><time>9:00 AM - 10:00 PM</time></td></tr><tr><td>Friday</td><td><time>9:00 AM - 10:00 PM</time></td></tr><tr><td>Saturday</td><td><time>9:00 AM - 10:00 PM</time></td></tr><tr><td>Sunday</td><td><time>9:00 AM - 10:00 PM</time></td></tr></table>"
mypreplocator,1566,Klinik Kesihatan Laka Temin,Bukit Kayu Hitam,Kampung Sungai Tongka,Kubang Pasu,Kedah,06050,മലേഷ്യ,6.50385,100.420178,+604-922 2560,,,,true,false,Walk-in,true,Onsite,"<table role=""presentation"" class=""wpsl-opening-hours""><tr><td>Monday</td><td>Closed</td></tr><tr><td>Tuesday</td><td>Closed</td></tr><tr><td>Wednesday</td><td>Closed</td></tr><tr><td>Thursday</td><td>Closed</td></tr><tr><td>Friday</td><td>Closed</td></tr><tr><td>Saturday</td><td>Closed</td></tr><tr><td>Sunday</td><td><time>2:00 PM - 5:00 PM</time></td></tr></table>"
mypreplocator,635,KPJ Perlis Specialist Hospital,"No. 77, Jalan Dato' Wan Ahmad",,Kangar,Perlis,01000,Malaysia,6.438716,100.194576,+6011-5415 1585,,drteoh.ws@kpjperlis.com,,true,true,Walk-in,false,Onsite,"<table role=""presentation"" class=""wpsl-opening-hours""><tr><td>Monday</td><td><time>9:00 AM - 5:00 PM</time></td></tr><tr><td>Tuesday</td><td><time>9:00 AM - 5:00 PM</time></td></tr><tr><td>Wednesday</td><td><time>9:00 AM - 5:00 PM</time></td></tr><tr><td>Thursday</td><td><time>9:00 AM - 5:00 PM</time></td></tr><tr><td>Friday</td><td><time>9:00 AM - 5:00 PM</time></td></tr><tr><td>Saturday</td><td><time>9:00 AM - 12:30 PM</time></td></tr><tr><td>Sunday</td><td>Closed</td></tr></table>"
mypreplocator,1596,Klinik Kesihatan Padang Besar,"KM 37, Jalan Padang Besar",,Padang Besar (U),Perlis,02100,മലേഷ്യ,6.657243,100.294353,+604-949 0333,,,,true,false,Walk-in,true,Onsite,"<table role=""presentation"" class=""wpsl-opening-hours""><tr><td>Monday</td><td>Closed</td></tr><tr><td>Tuesday</td><td><time>8:00 AM - 5:00 PM</time></td></tr><tr><td>Wednesday</td><td>Closed</td></tr><tr><td>Thursday</td><td>Closed</td></tr><tr><td>Friday</td><td>Closed</td></tr><tr><td>Saturday</td><td>Closed</td></tr><tr><td>Sunday</td><td>Closed</td></tr></table>"
mypreplocator,1492,KLINIK LOW KULAI,"7, Ground Floor,","Jalan Dataran Kulai 1, Taman Dataran Kulai",Kulai,Johor,81000,മലേഷ്യ,1.656916,103.594267,+607-6615 112,,cliniclow@gmail.com,,true,true,Walk-in,false,Onsite,"<table role=""presentation"" class=""wpsl-opening-hours""><tr><td>Monday</td><td><time>09:00 - 21:00</time></td></tr><tr><td>Tuesday</td><td><time>09:00 - 21:00</time></td></tr><tr><td>Wednesday</td><td><time>09:00 - 21:00</time></td></tr><tr><td>Thursday</td><td><time>09:00 - 21:00</time></td></tr><tr><td>Friday</td><td><time>09:00 - 21:00</time></td></tr><tr><td>Saturday</td><td>Closed</td></tr><tr><td>Sunday</td><td><time>09:00 - 21:00</time></td></tr></table>"
mypreplocator,1075,Dr Boo Clinic &#038; Surgery,"No 23, 24 Tingkat Bawah","Jalan Persiaran Putra, Bandar Baru Baron",Langkawi,Kedah,07000,Malaysia,6.35,99.8,+604-966 6628,,clinicdrboo@yahoo.com,,true,true,Walk-in,false,Onsite,"<table role=""presentation"" class=""wpsl-opening-hours""><tr><td>Monday</td><td><time>9:00 AM - 9:00 PM</time></td></tr><tr><td>Tuesday</td><td><time>9:00 AM - 9:00 PM</time></td></tr><tr><td>Wednesday</td><td><time>9:00 AM - 9:00 PM</time></td></tr><tr><td>Thursday</td><td><time>9:00 AM - 9:00 PM</time></td></tr><tr><td>Friday</td><td><time>9:00 AM - 9:00 PM</time></td></tr><tr><td>Saturday</td><td><time>9:00 AM - 9:00 PM</time></td></tr><tr><td>Sunday</td><td>Closed</td></tr></table>"
mypreplocator,1311,Klinik Angkasa Scientex Senai,"Tingkat bawah, No 147, Jalan Scientex Jaya 7",Taman Scientex Senai,Senai,Johor,81400,Malaysia,1.630991,103.682071,,,operation.ka1@klinikangkasa.com,http://www.klinikangkasa.com,true,true,Appointment needed,false,Onsite,"<table role=""presentation"" class=""wpsl-opening-hours""><tr><td>Monday</td><td><time>9:00 AM - 7:00 PM</time></td></tr><tr><td>Tuesday</td><td><time>9:00 AM - 7:00 PM</time></td></tr><tr><td>Wednesday</td><td><time>9:00 AM - 7:00 PM</time></td></tr><tr><td>Thursday</td><td><time>9:00 AM - 7:00 PM</time></td></tr><tr><td>Friday</td><td><time>9:00 AM - 7:00 PM</time></td></tr><tr><td>Saturday</td><td><time>9:00 AM - 4:00 PM</time></td></tr><tr><td>Sunday</td><td><time>9:00 AM - 4:00 PM</time></td></tr></table>"
mypreplocator,1092,Klinik Kesihatan Kuah (MyPrEPGov2023),Jalan Air Hangat,,Langkawi,Kedah,07000,മലേഷ്യ,6.422975,99.803195,+604-966 3490,,,,true,false,Walk-in,true,Onsite,"<table role=""presentation"" class=""wpsl-opening-hours""><tr><td>Monday</td><td><time>2:00 PM - 5:00 PM</time></td></tr><tr><td>Tuesday</td><td>Closed</td></tr><tr><td>Wednesday</td><td>Closed</td></tr><tr><td>Thursday</td><td>Closed</td></tr><tr><td>Friday</td><td>Closed</td></tr><tr><td>Saturday</td><td>Closed</td></tr><tr><td>Sunday</td><td>Closed</td></tr></table>"
mypreplocator,1357,POLYCLINIC LIFE AND SURGERY,"No. 10, Jalan Seni",Bandar Senai,Senai,Johor,81400,Malaysia,1.602562,103.644166,,,polycliniclifeandsurgery@gmail.com,,true,true,Walk-in,false,Onsite,"<table role=""presentation"" class=""wpsl-opening-hours""><tr><td>Monday</td><td><time>12:00 AM - 12:00 AM</time></td></tr><tr><td>Tuesday</td><td><time>12:00 AM - 12:00 AM</time></td></tr><tr><td>Wednesday</td><td><time>12:00 AM - 12:00 AM</time></td></tr><tr><td>Thursday</td><td><time>12:00 AM - 12:00 AM</time></td></tr><tr><td>Friday</td><td><time>12:00 AM - 12:00 AM</time></td></tr><tr><td>Saturday</td><td><time>12:00 AM - 12:00 AM</time></td></tr><tr><td>Sunday</td><td><time>12:00 AM - 12:00 AM</time></td></tr></table>"
mypreplocator,1313,Klinik MediDex,"60(GF), Jalan Perjiranan 15/2",Bandar Dato Onn,Johor Bahru,Johor,81100,Malaysia,1.568011,103.74297,+6014-352 7013,,klinikmedidex@gmail.com,https://www.facebook.com/profile.php?id=100092992560764,true,true,Walk-in,false,Onsite,"<table role=""presentation"" class=""wpsl-opening-hours""><tr><td>Monday</td><td><time>8:30 AM - 9:30 PM</time></td></tr><tr><td>Tuesday</td><td><time>8:30 AM - 9:30 PM</time></td></tr><tr><td>Wednesday</td><td><time>8:30 AM - 9:30 PM</time></td></tr><tr><td>Thursday</td><td><time>8:30 AM - 9:30 PM</time></td></tr><tr><td>Friday</td><td><time>8:30 AM - 9:30 PM</time></td></tr><tr><td>Saturday</td><td><time>8:30 AM - 9:30 PM</time></td></tr><tr><td>Sunday</td><td><time>8:30 AM - 5:00 PM</time></td></tr></table>"
mypreplocator,1495,SOUTHERN MEDICAL CLINIC (SMC SUTERA),"NO 47G, JALAN SUTERA PULAI 2/26,","TAMAN SUTERA UTAMA,",SKUDAI,Johor,81300,മലേഷ്യ,1.50495,103.656906,+60178833758,,smcsutera@gmail.com,https://smcsutera.com/,true,true,Walk-in,false,Onsite,"<table role=""presentation"" class=""wpsl-opening-hours""><tr><td>Monday</td><td><time>00:00 - 00:00</time></td></tr><tr><td>Tuesday</td><td><time>00:00 - 00:00</time></td></tr><tr><td>Wednesday</td><td><time>00:00 - 00:00</time></td></tr><tr><td>Thursday</td><td><time>00:00 - 00:00</time></td></tr><tr><td>Friday</td><td><time>00:00 - 00:00</time></td></tr><tr><td>Saturday</td><td><time>00:00 - 00:00</time></td></tr><tr><td>Sunday</td><td><time>00:00 - 00:00</time></td></tr></table>"
mypreplocator,614,Klinik Dr. Rishen,"15-01(Ground Floor), Jalan Cantik 20",Taman Pelangi Indah,Ulu Tiram,Johor,81800,Malaysia,1.577417,103.799428,+607-861 1861,,klinikdrrishen@gmail.com,,true,false,Walk-in,false,Onsite,"<table role=""presentation"" class=""wpsl-opening-hours""><tr><td>Monday</td><td><time>9:00 AM - 10:00 PM</time></td></tr><tr><td>Tuesday</td><td><time>9:00 AM - 10:00 PM</time></td></tr><tr><td>Wednesday</td><td><time>9:00 AM - 10:00 PM</time></td></tr><tr><td>Thursday</td><td><time>9:00 AM - 10:00 PM</time></td></tr><tr><td>Friday</td><td><time>9:00 AM - 10:00 PM</time></td></tr><tr><td>Saturday</td><td><time>9:00 AM - 10:00 PM</time></td></tr><tr><td>Sunday</td><td><time>9:00 AM - 10:00 PM</time></td></tr></table>"
mypreplocator,1030,Asclepius Healthcare Clinic,"376, Jalan Simbang, Taman Perling",,Johor Bahru,Johor,81200,Malaysia,1.481015,103.682815,+6011-3659 7608,,asclepius.hc@gmail.com,,true,true,Appointment needed,false,Onsite,"<table role=""presentation"" class=""wpsl-opening-hours""><tr><td>Monday</td><td><time>8:00 AM - 12:00 AM</time></td></tr><tr><td>Tuesday</td><td><time>8:00 AM - 12:00 AM</time></td></tr><tr><td>Wednesday</td><td><time>8:00 AM - 12:00 AM</time></td></tr><tr><td>Thursday</td><td><time>8:00 AM - 12:00 AM</time></td></tr><tr><td>Friday</td><td><time>8:00 AM - 12:00 AM</time></td></tr><tr><td>Saturday</td><td><time>8:00 AM - 12:00 AM</time></td></tr><tr><td>Sunday</td><td><time>8:00 AM - 12:00 AM</time></td></tr></table>"
mypreplocator,1657,Klinik Medcare Bandar Baru Uda,"No 21, Jalan Padi Emas 1/8",Bandar Baru Uda,Johor Bharu,Johor,81200,മലേഷ്യ,1.493869,103.71048,+6017-456 8553,,dr.asyraf.razali@gmail.com,http://www.medcare.health,true,true,Walk-in,false,Onsite,"<table role=""presentation"" class=""wpsl-opening-hours""><tr><td>Monday</td><td><time>9:00 AM - 10:00 PM</time></td></tr><tr><td>Tuesday</td><td><time>9:00 AM - 10:00 PM</time></td></tr><tr><td>Wednesday</td><td><time>9:00 AM - 10:00 PM</time></td></tr><tr><td>Thursday</td><td><time>9:00 AM - 10:00 PM</time></td></tr><tr><td>Friday</td><td><time>9:00 AM - 10:00 PM</time></td></tr><tr><td>Saturday</td><td><time>9:00 AM - 10:00 PM</time></td></tr><tr><td>Sunday</td><td><time>9:00 AM - 10:00 PM</time></td></tr></table>"
mypreplocator,617,Klinik E Sihat,"No.62 (Tingkat Bawah), Jalan Padi 1,",Bandar Baru Uda,Johor Bahru,Johor,81200,Malaysia,1.489979,103.711647,+6011-5757 5485,,klinikesihat@yahoo.com,,true,true,Walk-in,false,Onsite,"<table role=""presentation"" class=""wpsl-opening-hours""><tr><td>Monday</td><td><time>9:00 AM - 7:00 PM</time></td></tr><tr><td>Tuesday</td><td><time>9:00 AM - 7:00 PM</time></td></tr><tr><td>Wednesday</td><td><time>9:00 AM - 7:00 PM</time></td></tr><tr><td>Thursday</td><td><time>9:00 AM - 7:00 PM</time></td></tr><tr><td>Friday</td><td><time>9:00 AM - 7:00 PM</time></td></tr><tr><td>Saturday</td><td><time>9:00 AM - 7:00 PM</time></td></tr><tr><td>Sunday</td><td><time>9:00 AM - 7:00 PM</time></td></tr></table>"
mypreplocator,1033,Klinik Anjung Mediclinic,"Lot R10B, Ground Floor, Anjung Neighbourhood Centre","No 5, Persiaran Ledang Heights",Iskandar Puteri,Johor,79250,Malaysia,1.423905,103.61728,+607-510 4909,,muhammad.shahrulzaman@gmail.com,,true,true,Walk-in,false,Onsite,"<table role=""presentation"" class=""wpsl-opening-hours""><tr><td>Monday</td><td><time>8:00 AM - 6:00 PM</time></td></tr><tr><td>Tuesday</td><td><time>8:00 AM - 6:00 PM</time></td></tr><tr><td>Wednesday</td><td><time>8:00 AM - 6:00 PM</time></td></tr><tr><td>Thursday</td><td><time>8:00 AM - 6:00 PM</time></td></tr><tr><td>Friday</td><td><time>8:00 AM - 6:00 PM</time></td></tr><tr><td>Saturday</td><td><time>8:00 AM - 6:00 PM</time></td></tr><tr><td>Sunday</td><td><time>8:00 AM - 6:00 PM</time></td></tr></table>"
mypreplocator,1188,Zemlya Clinic,"No. 141, Jalan Harimau, Taman Abad",,Johor Bahru,Johor,80250,Malaysia,1.485483,103.760032,+6018-252 1818,,zemlya.clinic@mail.ru,,true,true,Walk-in,false,Onsite,"<table role=""presentation"" class=""wpsl-opening-hours""><tr><td>Monday</td><td><time>9:00 AM - 9:00 PM</time></td></tr><tr><td>Tuesday</td><td><time>9:00 AM - 9:00 PM</time></td></tr><tr><td>Wednesday</td><td><time>9:00 AM - 9:00 PM</time></td></tr><tr><td>Thursday</td><td><time>9:00 AM - 9:00 PM</time></td></tr><tr><td>Friday</td><td><time>9:00 AM - 9:00 PM</time></td></tr><tr><td>Saturday</td><td><time>9:00 AM - 9:00 PM</time></td></tr><tr><td>Sunday</td><td><time>9:00 AM - 9:00 PM</time></td></tr></table>"
mypreplocator,348,Klinik Mediviron,"No. 7, Jalan Badik 1",Taman Sri Tebrau,Johor Bahru,Johor,80050,Malaysia,1.485974,103.767233,+607-336 5477,,tstmediviron7@gmail.com,,true,true,Appointment needed,false,Onsite,"<table role=""presentation"" class=""wpsl-opening-hours""><tr><td>Monday</td><td><time>9:00 AM - 9:00 PM</time></td></tr><tr><td>Tuesday</td><td><time>9:00 AM - 9:00 PM</time></td></tr><tr><td>Wednesday</td><td><time>9:00 AM - 9:00 PM</time></td></tr><tr><td>Thursday</td><td><time>9:00 AM - 9:00 PM</time></td></tr><tr><td>Friday</td><td><time>9:00 AM - 9:00 PM</time></td></tr><tr><td>Saturday</td><td><time>9:00 AM - 9:00 PM</time></td></tr><tr><td>Sunday</td><td><time>9:00 AM - 9:00 PM</time></td></tr></table>"
mypreplocator,340,STI Client Friendly Clinic (JB Mahmoodiah),Klinik Kesihatan Mahmoodiah,Jalan Mahmoodiah,Johor Bahru,Johor,80100,Malaysia,1.462216,103.748636,+607-224 6166,,hafizgani@yahoo.com,https://www.facebook.com/klinikstijb/,true,true,Walk-in,false,Offsite,"<table role=""presentation"" class=""wpsl-opening-hours""><tr><td>Monday</td><td><time>8:00 AM - 5:00 PM</time></td></tr><tr><td>Tuesday</td><td><time>8:00 AM - 5:00 PM</time></td></tr><tr><td>Wednesday</td><td><time>8:00 AM - 5:00 PM</time></td></tr><tr><td>Thursday</td><td><time>8:00 AM - 5:00 PM</time></td></tr><tr><td>Friday</td><td>Closed</td></tr><tr><td>Saturday</td><td>Closed</td></tr><tr><td>Sunday</td><td><time>8:00 AM - 5:00 PM</time></td></tr></table>"
mypreplocator,1111,Klinik Kesihatan Mahmoodiah (MyPrEPGov2023),"JKR 6274, Jalan Mahmoodiah",,Johor Bahru,Johor,80000,Malaysia,1.462171,103.748648,+607-226 6166,,,,true,false,Walk-in,true,Onsite,"<table role=""presentation"" class=""wpsl-opening-hours""><tr><td>Monday</td><td><time>9:00 AM - 4:00 PM</time></td></tr><tr><td>Tuesday</td><td><time>9:00 AM - 4:00 PM</time></td></tr><tr><td>Wednesday</td><td><time>2:00 PM - 4:00 PM</time></td></tr><tr><td>Thursday</td><td><time>9:00 AM - 4:00 PM</time></td></tr><tr><td>Friday</td><td><time>9:00 AM - 12:30 PM</time></td></tr><tr><td>Saturday</td><td>Closed</td></tr><tr><td>Sunday</td><td>Closed</td></tr></table>"
mypreplocator,358,AMD Clinic,No. 71 Jalan Serangkai 4,Taman Bukit Dahlia,Pasir Gudang,Johor,81700,Malaysia,1.484747,103.888243,+6012-807 7720,,amdclinic71@gmail.com,https://www.amdclinicmy.com/,true,true,Walk-in,false,Onsite,"<table role=""presentation"" class=""wpsl-opening-hours""><tr><td>Monday</td><td><time>9:00 AM - 7:00 PM</time></td></tr><tr><td>Tuesday</td><td><time>9:00 AM - 7:00 PM</time></td></tr><tr><td>Wednesday</td><td><time>9:00 AM - 7:00 PM</time></td></tr><tr><td>Thursday</td><td><time>9:00 AM - 7:00 PM</time></td></tr><tr><td>Friday</td><td>Closed</td></tr><tr><td>Saturday</td><td><time>9:00 AM - 5:00 PM</time></td></tr><tr><td>Sunday</td><td><time>9:00 AM - 5:00 PM</time></td></tr></table>"
mypreplocator,1501,Klinik O&#8217; Care,"97, Jalan Siantan 3,",Bandar Bestari Perdana,Pasir Gudang,Johor,81700,മലേഷ്യ,1.521501,103.946689,072611538,,klinikocare@yahoo.com,,true,true,Walk-in,false,Onsite,"<table role=""presentation"" class=""wpsl-opening-hours""><tr><td>Monday</td><td><time>08:00 - 18:00</time></td></tr><tr><td>Tuesday</td><td><time>08:00 - 18:00</time></td></tr><tr><td>Wednesday</td><td><time>08:00 - 18:00</time></td></tr><tr><td>Thursday</td><td><time>08:00 - 18:00</time></td></tr><tr><td>Friday</td><td>Closed</td></tr><tr><td>Saturday</td><td><time>08:00 - 13:00</time></td></tr><tr><td>Sunday</td><td><time>08:00 - 18:00</time></td></tr></table>"
mypreplocator,1659,Klinik Medcare Taman Bukit Dahlia,"No 35, Ground Floor,Jalan Semerbak 20,",,Pasir Gudang,Johor,81700,മലേഷ്യ,1.483654,103.900494,+607-255 5166,,poliklinikdesaru@gmail.com,http://www.medcare.health,true,true,Appointment needed,false,Onsite,"<table role=""presentation"" class=""wpsl-opening-hours""><tr><td>Monday</td><td><time>9:00 AM - 10:00 PM</time></td></tr><tr><td>Tuesday</td><td><time>9:00 AM - 10:00 PM</time></td></tr><tr><td>Wednesday</td><td><time>9:00 AM - 10:00 PM</time></td></tr><tr><td>Thursday</td><td><time>9:00 AM - 10:00 PM</time></td></tr><tr><td>Friday</td><td><time>9:00 AM - 10:00 PM</time></td></tr><tr><td>Saturday</td><td><time>9:00 AM - 10:00 PM</time></td></tr><tr><td>Sunday</td><td><time>9:00 AM - 10:00 PM</time></td></tr></table>"
mypreplocator,651,Klinik Keluarga I-Sihat,"No 12, Jalan Serangkai 18,","Taman Bukit Dahlia,",Pasir Gudang,Johor,81700,Malaysia,1.478302,103.894365,+6012-900 3693,,info@isihat.com,https://www.isihat.com/,true,true,Appointment needed,true,Onsite,"<table role=""presentation"" class=""wpsl-opening-hours""><tr><td>Monday</td><td><time>9:00 AM - 10:00 PM</time></td></tr><tr><td>Tuesday</td><td><time>9:00 AM - 10:00 PM</time></td></tr><tr><td>Wednesday</td><td><time>9:00 AM - 10:00 PM</time></td></tr><tr><td>Thursday</td><td><time>9:00 AM - 10:00 PM</time></td></tr><tr><td>Friday</td><td><time>9:00 AM - 10:00 PM</time></td></tr><tr><td>Saturday</td><td><time>9:00 AM - 10:00 PM</time></td></tr><tr><td>Sunday</td><td><time>9:00 AM - 10:00 PM</time></td></tr></table>"
mypreplocator,1661,Klinik Medcare Kota Masai,"No. 21A, Jalan Eko Perniagaan 7,",Taman Kota Masai,Pasir Gudang,Johor,81799,മലേഷ്യ,1.484722,103.93741,+607-256 7661,,medissacarejb@gmail.com,http://www.medcare.health,true,true,Walk-in,false,Onsite,"<table role=""presentation"" class=""wpsl-opening-hours""><tr><td>Monday</td><td><time>9:00 AM - 10:00 PM</time></td></tr><tr><td>Tuesday</td><td><time>9:00 AM - 10:00 PM</time></td></tr><tr><td>Wednesday</td><td><time>9:00 AM - 10:00 PM</time></td></tr><tr><td>Thursday</td><td><time>9:00 AM - 10:00 PM</time></td></tr><tr><td>Friday</td><td><time>9:00 AM - 10:00 PM</time></td></tr><tr><td>Saturday</td><td><time>9:00 AM - 10:00 PM</time></td></tr><tr><td>Sunday</td><td><time>9:00 AM - 10:00 PM</time></td></tr></table>"
mypreplocator,1663,Poliklinik Desaru,"No 39, Jalan Kempas 3,",Taman Desaru Utama,Penawar,Johor,81930,മലേഷ്യ,1.572949,104.208011,+607-828 0182,,klinikmedcare@gmail.com,http://www.medcare.health,true,true,Walk-in,false,Onsite,"<table role=""presentation"" class=""wpsl-opening-hours""><tr><td>Monday</td><td><time>9:00 AM - 5:00 PM</time></td></tr><tr><td>Tuesday</td><td><time>9:00 AM - 10:00 PM</time></td></tr><tr><td>Wednesday</td><td><time>9:00 AM - 10:00 PM</time></td></tr><tr><td>Thursday</td><td><time>9:00 AM - 10:00 PM</time></td></tr><tr><td>Friday</td><td><time>9:00 AM - 10:00 PM</time></td></tr><tr><td>Saturday</td><td><time>9:00 AM - 10:00 PM</time></td></tr><tr><td>Sunday</td><td><time>9:00 AM - 10:00 PM</time></td></tr></table>"
mypreplocator,1585,Klinik Kesihatan Petrajaya,Petra Jaya,,Kuching,Sarawak,93050,മലേഷ്യ,1.591141,110.339867,+6082-228 228,,,,true,false,Walk-in,true,Onsite,"<table role=""presentation"" class=""wpsl-opening-hours""><tr><td>Monday</td><td>Closed</td></tr><tr><td>Tuesday</td><td>Closed</td></tr><tr><td>Wednesday</td><td><time>8:00 AM - 5:00 PM</time></td></tr><tr><td>Thursday</td><td>Closed</td></tr><tr><td>Friday</td><td><time>8:00 AM - 5:00 PM</time></td></tr><tr><td>Saturday</td><td>Closed</td></tr><tr><td>Sunday</td><td>Closed</td></tr></table>"
mypreplocator,1421,Valiant Medical Clinic,"Ground Floor Lot 7058 Pines Square,","Block 4, Jalan Batu Kawa,",Kuching,Sarawak,93250,മലേഷ്യ,1.513977,110.316225,+6014 7625890,,vmc.pinessquare@gmail.com,https://www.instagram.com/valiantmedicalclinic?utm_source=qr&#038;igsh=MTlkYjY3OTV2YmZwNw==,true,false,Walk-in,false,Onsite,"<table role=""presentation"" class=""wpsl-opening-hours""><tr><td>Monday</td><td><time>8:00 AM - 8:00 AM</time></td></tr><tr><td>Tuesday</td><td><time>8:00 AM - 8:00 AM</time></td></tr><tr><td>Wednesday</td><td><time>8:00 AM - 8:00 AM</time></td></tr><tr><td>Thursday</td><td><time>8:00 AM - 8:00 AM</time></td></tr><tr><td>Friday</td><td><time>8:00 AM - 8:00 AM</time></td></tr><tr><td>Saturday</td><td><time>8:00 AM - 8:00 AM</time></td></tr><tr><td>Sunday</td><td><time>8:00 AM - 8:00 AM</time></td></tr></table>"
mypreplocator,1113,Klinik Kesihatan Jalan Masjid (MyPrEPGov2023),Jalan Masjid,,Kuching,Sarawak,93000,Malaysia,1.55716,110.342769,+6082-427 110,,,,true,false,Walk-in,true,Onsite,"<table role=""presentation"" class=""wpsl-opening-hours""><tr><td>Monday</td><td><time>8:00 AM - 5:00 PM</time></td></tr><tr><td>Tuesday</td><td><time>8:00 AM - 5:00 PM</time></td></tr><tr><td>Wednesday</td><td>Closed</td></tr><tr><td>Thursday</td><td>Closed</td></tr><tr><td>Friday</td><td>Closed</td></tr><tr><td>Saturday</td><td>Closed</td></tr><tr><td>Sunday</td><td>Closed</td></tr></table>"
mypreplocator,1607,Klinik Everbright,"30, Everbright Park Shophouse",3rd Mile Jalan Penrissen,Kuching,Sarawak,93250,മലേഷ്യ,1.515485,110.331819,+608-2456 003,,klinikeverbright@gmail.com,,true,true,Walk-in,false,Onsite,"<table role=""presentation"" class=""wpsl-opening-hours""><tr><td>Monday</td><td><time>8:00 AM - 8:30 PM</time></td></tr><tr><td>Tuesday</td><td><time>8:00 AM - 8:30 PM</time></td></tr><tr><td>Wednesday</td><td><time>9:00 AM - 5:00 PM</time></td></tr><tr><td>Thursday</td><td><time>9:00 AM - 5:00 PM</time></td></tr><tr><td>Friday</td><td><time>9:00 AM - 5:00 PM</time></td></tr><tr><td>Saturday</td><td><time>8:00 AM - 5:00 PM</time></td></tr><tr><td>Sunday</td><td><time>8:00 AM - 2:00 PM</time></td></tr></table>"
mypreplocator,1407,HA Medical Clinic,"Lot 570 (GF) , Section 62, KTLD, Jalan Datuk Wee Kheng Chiang",,Kuching,Sarawak,93450,മലേഷ്യ,1.552541,110.363031,+601154457435,,yunuslibaumedical268@gmail.com,https://www.facebook.com/hamedicalclinic/,true,true,Walk-in,false,Onsite,"<table role=""presentation"" class=""wpsl-opening-hours""><tr><td>Monday</td><td><time>7:00 AM - 10:00 PM</time></td></tr><tr><td>Tuesday</td><td><time>7:00 AM - 10:00 PM</time></td></tr><tr><td>Wednesday</td><td><time>7:00 AM - 10:00 PM</time></td></tr><tr><td>Thursday</td><td><time>7:00 AM - 10:00 PM</time></td></tr><tr><td>Friday</td><td><time>7:00 AM - 10:00 PM</time></td></tr><tr><td>Saturday</td><td><time>7:00 AM - 10:00 PM</time></td></tr><tr><td>Sunday</td><td><time>7:00 AM - 10:00 PM</time></td></tr></table>"
mypreplocator,1621,HE MEDICAL CLINIC (KUCHING),"B4G8, Canaan Square",Jalan Stutong Baru,Kuching,Sarawak,93350,മലേഷ്യ,1.49902,110.371812,+6010-4540 312,,ethan@hemedclinic.com,https://hemedicalclinic.com/location/kuching/,true,true,Appointment needed,true,Onsite,"<table role=""presentation"" class=""wpsl-opening-hours""><tr><td>Monday</td><td><time>9:00 AM - 6:00 PM</time></td></tr><tr><td>Tuesday</td><td><time>9:00 AM - 6:00 PM</time></td></tr><tr><td>Wednesday</td><td><time>9:00 AM - 6:00 PM</time></td></tr><tr><td>Thursday</td><td><time>9:00 AM - 6:00 PM</time></td></tr><tr><td>Friday</td><td><time>9:00 AM - 6:00 PM</time></td></tr><tr><td>Saturday</td><td><time>9:00 AM - 6:00 PM</time></td></tr><tr><td>Sunday</td><td>Closed</td></tr></table>"
mypreplocator,1435,PMG Medical Clinic Samarahan,"G/F, Sublot 25, Lot 5674, Block 26,",Uni Capital Kuching-Kota Samarahan Expressway,Kota Samarahan,Sarawak,94300,മലേഷ്യ,1.453833,110.408676,+6010 3757966,,pmgclinicsamarahan@gmail.com,https://pmg2u.com,true,false,Walk-in,false,Onsite,"<table role=""presentation"" class=""wpsl-opening-hours""><tr><td>Monday</td><td><time>8:00 AM - 9:00 PM</time></td></tr><tr><td>Tuesday</td><td><time>8:00 AM - 9:00 PM</time></td></tr><tr><td>Wednesday</td><td><time>8:00 AM - 9:00 PM</time></td></tr><tr><td>Thursday</td><td><time>8:00 AM - 9:00 PM</time></td></tr><tr><td>Friday</td><td><time>8:00 AM - 9:00 PM</time></td></tr><tr><td>Saturday</td><td><time>8:00 AM - 9:00 PM</time></td></tr><tr><td>Sunday</td><td><time>8:00 AM - 9:00 PM</time></td></tr></table>"
mypreplocator,1615,PMG MEDICAL CLINIC (SIBU PAHLAWAN),"G/F, No.31, Lot 3625, Block 3 STD,","Lorong Pahlawan 7, Jalan Pahlawan",Sibu,Sarawak,96000,മലേഷ്യ,2.30538,111.848429,+6010 2937 966,,pmgmcsibupahlawan@gmail.com,,true,true,Walk-in,false,Onsite,"<table role=""presentation"" class=""wpsl-opening-hours""><tr><td>Monday</td><td><time>8:00 AM - 8:30 PM</time></td></tr><tr><td>Tuesday</td><td><time>8:00 AM - 8:30 PM</time></td></tr><tr><td>Wednesday</td><td><time>8:00 AM - 8:30 PM</time></td></tr><tr><td>Thursday</td><td><time>8:00 AM - 8:30 PM</time></td></tr><tr><td>Friday</td><td><time>8:00 AM - 8:30 PM</time></td></tr><tr><td>Saturday</td><td><time>8:00 AM - 8:30 PM</time></td></tr><tr><td>Sunday</td><td><time>8:00 AM - 8:30 PM</time></td></tr></table>"
mypreplocator,1588,Klinik Kesihatan Lanang,Lor Lanang Barat 7,,Sibu,Sarawak,96000,മലേഷ്യ,2.246577,111.841519,+6084-210 433,,,,true,false,Walk-in,true,Onsite,"<table role=""presentation"" class=""wpsl-opening-hours""><tr><td>Monday</td><td>Closed</td></tr><tr><td>Tuesday</td><td>Closed</td></tr><tr><td>Wednesday</td><td><time>8:00 AM - 12:00 PM</time></td></tr><tr><td>Thursday</td><td>Closed</td></tr><tr><td>Friday</td><td>Closed</td></tr><tr><td>Saturday</td><td>Closed</td></tr><tr><td>Sunday</td><td>Closed</td></tr></table>"
mypreplocator,1591,Klinik Kesihatan Bintulu,Jalan Tun Ahmad Zaidi,,Bintulu,Sarawak,97000,മലേഷ്യ,3.179259,113.03982,+6086-858 200,,,,true,false,Walk-in,true,Onsite,"<table role=""presentation"" class=""wpsl-opening-hours""><tr><td>Monday</td><td>Closed</td></tr><tr><td>Tuesday</td><td><time>2:00 PM - 5:00 PM</time></td></tr><tr><td>Wednesday</td><td>Closed</td></tr><tr><td>Thursday</td><td>Closed</td></tr><tr><td>Friday</td><td>Closed</td></tr><tr><td>Saturday</td><td>Closed</td></tr><tr><td>Sunday</td><td>Closed</td></tr></table>"
mypreplocator,1189,Bintulu Medical Centre,"Bintulu Medical Centre, Lot 6009, Block 31, Kemena Land District 97000 Bintulu, Sarawak.",,Bintulu,Sarawak,97000,Malaysia,3.200527,113.056609,+608-6330333,,drtan@bintulumedicalcentre.com,https://www.bintulumedicalcentre.com,true,true,Walk-in,false,Onsite,"<table role=""presentation"" class=""wpsl-opening-hours""><tr><td>Monday</td><td><time>8:00 AM - 5:00 PM</time></td></tr><tr><td>Tuesday</td><td><time>8:00 AM - 5:00 PM</time></td></tr><tr><td>Wednesday</td><td><time>8:00 AM - 5:00 PM</time></td></tr><tr><td>Thursday</td><td><time>8:00 AM - 5:00 PM</time></td></tr><tr><td>Friday</td><td><time>8:00 AM - 5:00 PM</time></td></tr><tr><td>Saturday</td><td><time>8:00 AM - 5:00 PM</time></td></tr><tr><td>Sunday</td><td><time>8:00 AM - 5:00 PM</time></td></tr></table>"
mypreplocator,1444,LKB Clinic,"No 36, Medan Jaya Commercial Square, Jalan Tun HUSSEIN Onn",,Bintulu,Sarawak,97000,മലേഷ്യ,3.193221,113.071656,,,lkbclinicbtu@gmail.com,,true,true,Walk-in,false,Onsite,"<table role=""presentation"" class=""wpsl-opening-hours""><tr><td>Monday</td><td><time>8:30 AM - 8:30 PM</time></td></tr><tr><td>Tuesday</td><td><time>8:30 AM - 8:30 PM</time></td></tr><tr><td>Wednesday</td><td><time>8:30 AM - 8:30 PM</time></td></tr><tr><td>Thursday</td><td><time>8:30 AM - 8:30 PM</time></td></tr><tr><td>Friday</td><td><time>8:30 AM - 8:30 PM</time></td></tr><tr><td>Saturday</td><td><time>8:30 AM - 8:30 PM</time></td></tr><tr><td>Sunday</td><td>Closed</td></tr></table>"
mypreplocator,1547,U.n.i Klinik Bintulu,Ground Floor of 3 Storey Shophouses on Lot 17022 & 17023 ( P/L 439 ),Kemena Land District at Jalan Tun Hussein Onn,Bintulu,Sarawak,97000,മലേഷ്യ,3.195156,113.089057,+6013 8498611,,ka.unihealthcare2023@uniklinikbintulu.com,http://www.uniklinikbintulu.com,true,true,Walk-in,false,Onsite,"<table role=""presentation"" class=""wpsl-opening-hours""><tr><td>Monday</td><td><time>06:00 - 06:00</time></td></tr><tr><td>Tuesday</td><td><time>06:00 - 06:00</time></td></tr><tr><td>Wednesday</td><td><time>06:00 - 06:00</time></td></tr><tr><td>Thursday</td><td><time>06:00 - 06:00</time></td></tr><tr><td>Friday</td><td><time>06:00 - 06:00</time></td></tr><tr><td>Saturday</td><td><time>06:00 - 06:00</time></td></tr><tr><td>Sunday</td><td><time>06:00 - 06:00</time></td></tr></table>"
mypreplocator,1583,Klinik Kesihatan Jalan Merbau,Jalan Merbau,Miri Handcraft Centre,Miri,Sarawak,98000,മലേഷ്യ,4.396065,113.992201,+6085-412 322,,,,true,false,Walk-in,true,Onsite,"<table role=""presentation"" class=""wpsl-opening-hours""><tr><td>Monday</td><td>Closed</td></tr><tr><td>Tuesday</td><td><time>2:00 PM - 5:00 PM</time></td></tr><tr><td>Wednesday</td><td><time>8:00 AM - 5:00 PM</time></td></tr><tr><td>Thursday</td><td><time>8:00 AM - 5:00 PM</time></td></tr><tr><td>Friday</td><td><time>8:00 AM - 5:00 PM</time></td></tr><tr><td>Saturday</td><td>Closed</td></tr><tr><td>Sunday</td><td>Closed</td></tr></table>"
mypreplocator,1432,Pelita Clinic,"Ground Floor, Lot 600, Block 7, MCLD,",Pelita Commercial Centre,Miri,Sarawak,98000,മലേഷ്യ,4.437611,114.006848,,,pelitaclinicmiri@gmail.com,,true,false,Walk-in,false,Onsite,"<table role=""presentation"" class=""wpsl-opening-hours""><tr><td>Monday</td><td><time>8:00 AM - 9:00 PM</time></td></tr><tr><td>Tuesday</td><td><time>8:00 AM - 9:00 PM</time></td></tr><tr><td>Wednesday</td><td><time>8:00 AM - 9:00 PM</time></td></tr><tr><td>Thursday</td><td><time>8:00 AM - 9:00 PM</time></td></tr><tr><td>Friday</td><td><time>8:00 AM - 9:00 PM</time></td></tr><tr><td>Saturday</td><td><time>8:00 AM - 9:00 PM</time></td></tr><tr><td>Sunday</td><td><time>8:00 AM - 9:00 PM</time></td></tr></table>"
mypreplocator,1519,Klinik Dr Tan Labuan,"U0272 Ground Floor, Jati Shophouse Phase 2",Jalan Tun Mustapha,Labuan,Labuan (Federal Territory),87000,മലേഷ്യ,5.28121,115.241815,087420609,,klinik.dr.tan@gmail.com,,true,true,Walk-in,true,Onsite,"<table role=""presentation"" class=""wpsl-opening-hours""><tr><td>Monday</td><td><time>08:00 - 00:00</time></td></tr><tr><td>Tuesday</td><td><time>08:00 - 00:00</time></td></tr><tr><td>Wednesday</td><td><time>08:00 - 00:00</time></td></tr><tr><td>Thursday</td><td><time>08:00 - 00:00</time></td></tr><tr><td>Friday</td><td><time>08:00 - 00:00</time></td></tr><tr><td>Saturday</td><td><time>09:00 - 17:00</time></td></tr><tr><td>Sunday</td><td><time>09:00 - 17:00</time></td></tr></table>"
mypreplocator,1685,Medisinar Klinik &#038; Surgeri Papar,"Lot 74, Tingkat Bawah",Jalan Taman OKK Hj. Mahali,Papar,Sabah,89608,മലേഷ്യ,5.733714,115.930979,+6013-8881 440,,mks_papar@medisinar.com,,true,true,Walk-in,false,Onsite,"<table role=""presentation"" class=""wpsl-opening-hours""><tr><td>Monday</td><td><time>8:00 AM - 9:00 PM</time></td></tr><tr><td>Tuesday</td><td><time>8:00 AM - 9:00 PM</time></td></tr><tr><td>Wednesday</td><td><time>8:00 AM - 9:00 PM</time></td></tr><tr><td>Thursday</td><td><time>8:00 AM - 9:00 PM</time></td></tr><tr><td>Friday</td><td><time>8:00 AM - 9:00 PM</time></td></tr><tr><td>Saturday</td><td><time>8:00 AM - 9:00 PM</time></td></tr><tr><td>Sunday</td><td><time>8:00 AM - 9:00 PM</time></td></tr></table>"
mypreplocator,1118,Klinik Kesihatan Putatan (MyPrEPGov2023),Jalan Pasir Putih,,Putatan,Sabah,88200,Malaysia,5.89908,116.047095,+6088-765704,,,,true,false,Appointment needed,true,Onsite,"<table role=""presentation"" class=""wpsl-opening-hours""><tr><td>Monday</td><td><time>2:00 PM - 4:00 PM</time></td></tr><tr><td>Tuesday</td><td>Closed</td></tr><tr><td>Wednesday</td><td><time>8:00 AM - 4:00 PM</time></td></tr><tr><td>Thursday</td><td>Closed</td></tr><tr><td>Friday</td><td>Closed</td></tr><tr><td>Saturday</td><td>Closed</td></tr><tr><td>Sunday</td><td>Closed</td></tr></table>"
mypreplocator,1485,Poliklinik Olidas,"Lot 8, Lot (8-1) Ground Floor, Plaza YLY,",Jalan Tuaran Bypass,Kota Kinabalu,Sabah,88450,മലേഷ്യ,5.951767,116.054938,+60197141200,,poliklinik.olidas@gmail.com,,true,true,Walk-in,true,Onsite,"<table role=""presentation"" class=""wpsl-opening-hours""><tr><td>Monday</td><td><time>08:00 - 21:00</time></td></tr><tr><td>Tuesday</td><td><time>08:00 - 21:00</time></td></tr><tr><td>Wednesday</td><td><time>08:00 - 21:00</time></td></tr><tr><td>Thursday</td><td><time>08:00 - 21:00</time></td></tr><tr><td>Friday</td><td><time>08:00 - 16:00</time></td></tr><tr><td>Saturday</td><td>Closed</td></tr><tr><td>Sunday</td><td><time>08:00 - 21:00</time></td></tr></table>"
mypreplocator,1550,Medisinar Klinik &#038; Surgeri Tanjung Aru,"15, Jalan Setia Tanjung Aru",Medisinar Klinik & Surgeri,Kota kinabalu,88100,88100,മലേഷ്യ,5.95336,116.055341,+6019 8884043,,mks_tanjungaru@medisinar.com,http://medisinar.com,true,true,Walk-in,true,Onsite,"<table role=""presentation"" class=""wpsl-opening-hours""><tr><td>Monday</td><td><time>09:00 - 21:00</time></td></tr><tr><td>Tuesday</td><td><time>09:00 - 21:00</time></td></tr><tr><td>Wednesday</td><td><time>09:00 - 21:00</time></td></tr><tr><td>Thursday</td><td><time>09:00 - 21:00</time></td></tr><tr><td>Friday</td><td><time>09:00 - 21:00</time></td></tr><tr><td>Saturday</td><td><time>09:00 - 21:00</time></td></tr><tr><td>Sunday</td><td><time>09:00 - 21:00</time></td></tr></table>"
mypreplocator,1653,U.n.i Klinik Kota Kinabalu,"Lot 5, Ground Floor, Jalan Laiman Diki, Kampung Air",,Kota Kinabalu,Sabah,88000,മലേഷ്യ,5.978487,116.073619,+6016 814 7674,,uniklinik.kotakinabalu@yahoo.com,,true,true,Walk-in,false,Onsite,"<table role=""presentation"" class=""wpsl-opening-hours""><tr><td>Monday</td><td><time>9:00 AM - 9:00 PM</time></td></tr><tr><td>Tuesday</td><td><time>9:00 AM - 9:00 PM</time></td></tr><tr><td>Wednesday</td><td><time>9:00 AM - 9:00 PM</time></td></tr><tr><td>Thursday</td><td><time>9:00 AM - 9:00 PM</time></td></tr><tr><td>Friday</td><td><time>9:00 AM - 9:00 PM</time></td></tr><tr><td>Saturday</td><td><time>9:00 AM - 9:00 PM</time></td></tr><tr><td>Sunday</td><td>Closed</td></tr></table>"
mypreplocator,1515,U.n.i Klinik Lido,"Lot 8, Ground floor, Lido Plaza 2,","Jalan Nosoob Hungab,",Penampang,Sabah,88300,മലേഷ്യ,5.937019,116.082479,088726048,,rafidatul.wajihah@gmail.com,,true,true,Walk-in,false,Onsite,"<table role=""presentation"" class=""wpsl-opening-hours""><tr><td>Monday</td><td><time>08:00 - 22:00</time></td></tr><tr><td>Tuesday</td><td><time>08:00 - 22:00</time></td></tr><tr><td>Wednesday</td><td><time>08:00 - 22:00</time></td></tr><tr><td>Thursday</td><td><time>08:00 - 17:00</time></td></tr><tr><td>Friday</td><td><time>08:00 - 22:00</time></td></tr><tr><td>Saturday</td><td><time>08:00 - 22:00</time></td></tr><tr><td>Sunday</td><td><time>08:00 - 22:00</time></td></tr></table>"
mypreplocator,1508,POLYCLINIC BORNEO,"NO 8, BLOCK 28, BANDAR BARU PENAMPANG PHASE 2,","KM 5, JALAN PENAMPANG",KOTA KINABARU,Sabah,88200,മലേഷ്യ,5.928134,116.087697,0168212019,,polyclinicdborneo@gmail.com,,true,true,Walk-in,false,Onsite,"<table role=""presentation"" class=""wpsl-opening-hours""><tr><td>Monday</td><td><time>07:30 - 21:00</time></td></tr><tr><td>Tuesday</td><td><time>07:30 - 21:00</time></td></tr><tr><td>Wednesday</td><td><time>07:30 - 21:00</time></td></tr><tr><td>Thursday</td><td><time>07:30 - 21:00</time></td></tr><tr><td>Friday</td><td><time>07:30 - 21:00</time></td></tr><tr><td>Saturday</td><td><time>07:30 - 21:00</time></td></tr><tr><td>Sunday</td><td><time>07:30 - 21:00</time></td></tr></table>"
mypreplocator,1594,Klinik Kesihatan Luyang,"d/a Pejabat Kesihatan Kota Kinabalu, Tkt 2, Blok C Lot No 21-24,","Heritage Plaza Off, Jalan Lintas",Kota Kinabalu,Sabah,88300,മലേഷ്യ,5.946254,116.091676,,,,,true,false,Appointment needed,true,Onsite,"<table role=""presentation"" class=""wpsl-opening-hours""><tr><td>Monday</td><td>Closed</td></tr><tr><td>Tuesday</td><td><time>8:00 AM - 4:00 PM</time></td></tr><tr><td>Wednesday</td><td>Closed</td></tr><tr><td>Thursday</td><td>Closed</td></tr><tr><td>Friday</td><td>Closed</td></tr><tr><td>Saturday</td><td>Closed</td></tr><tr><td>Sunday</td><td>Closed</td></tr></table>"
mypreplocator,1679,Klinik Signal Hill,S04 The Peak Suites,,Kota Kinabalu,Sabah,88300,മലേഷ്യ,5.99413,116.087045,+608-8224 177,,signalhillclinic@gmail.com,http://www.signalhillclinic.com,true,true,Walk-in,false,Onsite,"<table role=""presentation"" class=""wpsl-opening-hours""><tr><td>Monday</td><td><time>8:00 AM - 7:00 PM</time></td></tr><tr><td>Tuesday</td><td><time>8:00 AM - 7:00 PM</time></td></tr><tr><td>Wednesday</td><td><time>8:00 AM - 7:00 PM</time></td></tr><tr><td>Thursday</td><td><time>8:00 AM - 7:00 PM</time></td></tr><tr><td>Friday</td><td><time>8:00 AM - 7:00 PM</time></td></tr><tr><td>Saturday</td><td>Closed</td></tr><tr><td>Sunday</td><td>Closed</td></tr></table>"
mypreplocator,1079,MYCLINIC+,"Lot No.7 (DBKK No B-G-1), Ground Floor, Block B, Luyang Plaza, Lorong Angsa 1","Luyang Plaza, Jalan Kolam Luyang, 88300, Kota Kinabalu",Kota Kinabalu,Sabah,88300,Malaysia,5.954805,116.09253,+6014-900 7401,,myclinicplusgroup@gmail.com,http://myclinicplus.com.my,true,true,Walk-in,false,Onsite,"<table role=""presentation"" class=""wpsl-opening-hours""><tr><td>Monday</td><td><time>8:00 AM - 7:00 PM</time></td></tr><tr><td>Tuesday</td><td><time>8:00 AM - 7:00 PM</time></td></tr><tr><td>Wednesday</td><td><time>8:00 AM - 7:00 PM</time></td></tr><tr><td>Thursday</td><td><time>8:00 AM - 7:00 PM</time></td></tr><tr><td>Friday</td><td><time>8:00 AM - 7:00 PM</time></td></tr><tr><td>Saturday</td><td><time>8:00 AM - 7:00 PM</time></td></tr><tr><td>Sunday</td><td><time>8:00 AM - 7:00 PM</time></td></tr></table>"
mypreplocator,575,My Home Pharmacy Sdn Bhd,"Lot 6B Taman Tai Tet, Mile 2.5,","Jalan Tuaran, Likas",Kota Kinabalu,Sabah,88400,Malaysia,5.975144,116.093768,+6012-827 1134,,myhomepharm@gmail.com,http://www.facebook.com/MyHomePharmacySdnBhd,true,true,Walk-in,true,Onsite,"<table role=""presentation"" class=""wpsl-opening-hours""><tr><td>Monday</td><td><time>7:30 AM - 6:30 PM</time></td></tr><tr><td>Tuesday</td><td><time>7:30 AM - 6:30 PM</time></td></tr><tr><td>Wednesday</td><td><time>7:30 AM - 6:30 PM</time></td></tr><tr><td>Thursday</td><td><time>7:30 AM - 6:30 PM</time></td></tr><tr><td>Friday</td><td><time>7:30 AM - 6:30 PM</time></td></tr><tr><td>Saturday</td><td><time>7:30 AM - 6:30 PM</time></td></tr><tr><td>Sunday</td><td><time>8:00 AM - 3:30 PM</time></td></tr></table>"
mypreplocator,1530,Medisinar Klinik &#038; Surgeri 1Sulaman,"Unit No. G43, Ground Floor 1Sulaman",,Kota Kinabalu,Sabah,88450,മലേഷ്യ,6.046318,116.148484,+6013 8503023,,mks_1sulaman@medisinar.com,,true,true,Appointment needed,false,Onsite,"<table role=""presentation"" class=""wpsl-opening-hours""><tr><td>Monday</td><td><time>08:00 - 21:00</time></td></tr><tr><td>Tuesday</td><td><time>08:00 - 21:00</time></td></tr><tr><td>Wednesday</td><td><time>08:00 - 21:00</time></td></tr><tr><td>Thursday</td><td><time>08:00 - 21:00</time></td></tr><tr><td>Friday</td><td><time>08:00 - 21:00</time></td></tr><tr><td>Saturday</td><td><time>08:00 - 21:00</time></td></tr><tr><td>Sunday</td><td><time>08:00 - 21:00</time></td></tr></table>"
mypreplocator,1433,Klinik Menggatal,"No 7, 1st Floor, Lorong Pekan Manggatal 1,",,Kota Kinabalu,Sabah,88450,മലേഷ്യ,6.024141,116.156724,,,klinikmenggatal@gmail.com,http://www.klinikmenggatal.com,true,false,Walk-in,false,Onsite,"<table role=""presentation"" class=""wpsl-opening-hours""><tr><td>Monday</td><td><time>8:00 AM - 4:00 PM</time></td></tr><tr><td>Tuesday</td><td><time>8:00 AM - 5:00 PM</time></td></tr><tr><td>Wednesday</td><td><time>8:00 AM - 5:00 PM</time></td></tr><tr><td>Thursday</td><td><time>8:00 AM - 5:00 PM</time></td></tr><tr><td>Friday</td><td><time>8:00 AM - 5:00 PM</time></td></tr><tr><td>Saturday</td><td><time>8:00 AM - 12:30 PM</time></td></tr><tr><td>Sunday</td><td>Closed</td></tr></table>"
mypreplocator,1670,U.n.i Klinik Telipok Ria,"Lot 17, Ground Floor BLK B Lorong Cermat 2,","1 Telipok Commercial Centre, Telipok Ria",Tuaran,Sabah,88450,മലേഷ്യ,6.106432,116.206645,+6019-6628 817,,unikliniktelipokria@gmail.com,,true,true,Walk-in,false,Onsite,"<table role=""presentation"" class=""wpsl-opening-hours""><tr><td>Monday</td><td><time>9:00 AM - 9:00 PM</time></td></tr><tr><td>Tuesday</td><td><time>9:00 AM - 9:00 PM</time></td></tr><tr><td>Wednesday</td><td><time>9:00 AM - 9:00 PM</time></td></tr><tr><td>Thursday</td><td><time>9:00 AM - 9:00 PM</time></td></tr><tr><td>Friday</td><td><time>9:00 AM - 9:00 PM</time></td></tr><tr><td>Saturday</td><td><time>9:00 AM - 9:00 PM</time></td></tr><tr><td>Sunday</td><td><time>9:00 AM - 9:00 PM</time></td></tr></table>"
mypreplocator,1307,Familycare Clinic Tamparuli,"Ground Floor, Lot 4, Block A, Tamparuli Point",,Tamparuli,Sabah,89250,Malaysia,6.140977,116.272626,+6011-1262 4660,,fcctamparuli@gmail.com,,true,true,Walk-in,true,Onsite,"<table role=""presentation"" class=""wpsl-opening-hours""><tr><td>Monday</td><td><time>8:00 AM - 10:00 PM</time></td></tr><tr><td>Tuesday</td><td><time>8:00 AM - 10:00 PM</time></td></tr><tr><td>Wednesday</td><td><time>8:00 AM - 10:00 PM</time></td></tr><tr><td>Thursday</td><td><time>8:00 AM - 10:00 PM</time></td></tr><tr><td>Friday</td><td><time>8:00 AM - 10:00 PM</time></td></tr><tr><td>Saturday</td><td><time>8:00 AM - 10:00 PM</time></td></tr><tr><td>Sunday</td><td><time>8:00 AM - 10:00 PM</time></td></tr></table>"
mypreplocator,1437,Family Care Clinic Kota Marudu,"Family Care Clinic Kota Marudu,","Lot 1-0 Ground Floor, Block A, 1 Avenue Commercial Center, Jalan WK",Kota Marudu,Sabah,89108,മലേഷ്യ,6.495855,116.761057,,,fcckm.gerald@gmail.com,https://www.facebook.com/profile.php?id=100094143986071,true,false,Walk-in,false,Onsite,"<table role=""presentation"" class=""wpsl-opening-hours""><tr><td>Monday</td><td><time>8:00 AM - 8:00 PM</time></td></tr><tr><td>Tuesday</td><td><time>8:00 AM - 8:00 PM</time></td></tr><tr><td>Wednesday</td><td><time>8:00 AM - 8:00 PM</time></td></tr><tr><td>Thursday</td><td><time>8:00 AM - 8:00 PM</time></td></tr><tr><td>Friday</td><td><time>8:00 AM - 8:00 PM</time></td></tr><tr><td>Saturday</td><td><time>8:00 AM - 5:00 PM</time></td></tr><tr><td>Sunday</td><td>Closed</td></tr></table>"
mypreplocator,1362,MyClinicPlus Klinik Perubatan &#038; Surgeri Tawau,"TB 324, Ground Floor Lot 21,","Block 38, Fajar Complex, Bandar Tawau",Tawau,Sabah,91000,മലേഷ്യ,4.24601,117.892431,,,myclinicplustawau@gmail.com,https://www.facebook.com/profile.php?id=61555674092130,true,false,Walk-in,false,Onsite,"<table role=""presentation"" class=""wpsl-opening-hours""><tr><td>Monday</td><td><time>8:00 AM - 10:00 PM</time></td></tr><tr><td>Tuesday</td><td><time>8:00 AM - 10:00 PM</time></td></tr><tr><td>Wednesday</td><td><time>8:00 AM - 10:00 PM</time></td></tr><tr><td>Thursday</td><td><time>8:00 AM - 10:00 PM</time></td></tr><tr><td>Friday</td><td><time>8:00 AM - 10:00 PM</time></td></tr><tr><td>Saturday</td><td><time>8:00 AM - 10:00 PM</time></td></tr><tr><td>Sunday</td><td><time>8:00 AM - 10:00 PM</time></td></tr></table>"
mypreplocator,1047,Klinik Kesihatan Tawau (MyPrEPGov2023),Jalan Chong Thien Vun,,Tawau,Sabah,91000,മലേഷ്യ,4.259762,117.914509,+6089-775 710,,kktawau@moh.gov.my,http://facebook.com/klinikkesihatantawau,true,false,Walk-in,true,Onsite,"<table role=""presentation"" class=""wpsl-opening-hours""><tr><td>Monday</td><td><time>2:00 PM - 5:00 PM</time></td></tr><tr><td>Tuesday</td><td><time>2:00 PM - 5:00 PM</time></td></tr><tr><td>Wednesday</td><td><time>2:00 PM - 5:00 PM</time></td></tr><tr><td>Thursday</td><td><time>8:00 AM - 12:00 PM</time><time>2:00 PM - 5:00 PM</time></td></tr><tr><td>Friday</td><td><time>2:00 PM - 5:00 PM</time></td></tr><tr><td>Saturday</td><td>Closed</td></tr><tr><td>Sunday</td><td>Closed</td></tr></table>"
mypreplocator,1604,U.n.i Klinik Sandakan,Lot No 23 Ground Floor Utama Place 1,Block C Mile 6 North Road,Sandakan,Sabah,90000,മലേഷ്യ,5.865338,118.055619,+6018 6142 240,,syafiqjaiz@gmail.com,https://unikliniksandakan.com/,true,true,Walk-in,false,Onsite,"<table role=""presentation"" class=""wpsl-opening-hours""><tr><td>Monday</td><td><time>9:00 AM - 10:00 PM</time></td></tr><tr><td>Tuesday</td><td><time>9:00 AM - 10:00 PM</time></td></tr><tr><td>Wednesday</td><td><time>9:00 AM - 10:00 PM</time></td></tr><tr><td>Thursday</td><td><time>9:00 AM - 10:00 PM</time></td></tr><tr><td>Friday</td><td><time>9:00 AM - 10:00 PM</time></td></tr><tr><td>Saturday</td><td><time>9:00 AM - 10:00 PM</time></td></tr><tr><td>Sunday</td><td><time>9:00 AM - 10:00 PM</time></td></tr></table>"
mypreplocator,1482,Klinik Dr. Mahen,"Ground Floor, Lot 10,Block 1, Prima Square","Mile 4, North Road,",Sandakan,Sabah,90000,മലേഷ്യ,5.634512,118.08807,+6089218273,,klinikdr.mahen@yahoo.com,,true,true,Walk-in,true,Onsite,"<table role=""presentation"" class=""wpsl-opening-hours""><tr><td>Monday</td><td><time>8:00 AM - 11:00 PM</time></td></tr><tr><td>Tuesday</td><td><time>8:00 AM - 11:00 PM</time></td></tr><tr><td>Wednesday</td><td><time>8:00 AM - 11:00 PM</time></td></tr><tr><td>Thursday</td><td><time>8:00 AM - 11:00 PM</time></td></tr><tr><td>Friday</td><td><time>8:00 AM - 11:00 PM</time></td></tr><tr><td>Saturday</td><td><time>8:00 AM - 11:00 PM</time></td></tr><tr><td>Sunday</td><td><time>8:00 AM - 11:00 PM</time></td></tr></table>"
mypreplocator,1120,Klinik Kesihatan Sandakan (MyPrEPGov2023),"Km 3.2 Jalan Utara, Jalan Utara",,Sandakan,Sabah,90000,Malaysia,5.861042,118.102072,+6089-225 800,,,,true,false,Walk-in,true,Onsite,"<table role=""presentation"" class=""wpsl-opening-hours""><tr><td>Monday</td><td>Closed</td></tr><tr><td>Tuesday</td><td><time>2:00 PM - 5:00 PM</time></td></tr><tr><td>Wednesday</td><td><time>2:00 PM - 5:00 PM</time></td></tr><tr><td>Thursday</td><td><time>2:00 PM - 5:00 PM</time></td></tr><tr><td>Friday</td><td>Closed</td></tr><tr><td>Saturday</td><td>Closed</td></tr><tr><td>Sunday</td><td>Closed</td></tr></table>"
mypreplocator,1665,U.n.i Klinik Bandar Maju Sandakan,"Lot 11, GF, Block A, Bandar Maju, Batu 1.5",,Sandakan,Sabah,90000,മലേഷ്യ,5.858866,118.10782,+6010-454 2025,,unikliniksandakan.bandarmaju@gmail.com,https://www.tiktok.com/@uniklinikbandarmajusdk?_t=ZS-8xi6vtdFdbU&#038;_r=1,true,true,Walk-in,false,Onsite,"<table role=""presentation"" class=""wpsl-opening-hours""><tr><td>Monday</td><td><time>8:00 AM - 9:00 PM</time></td></tr><tr><td>Tuesday</td><td><time>8:00 AM - 9:00 PM</time></td></tr><tr><td>Wednesday</td><td><time>8:00 AM - 9:00 PM</time></td></tr><tr><td>Thursday</td><td><time>8:00 AM - 9:00 PM</time></td></tr><tr><td>Friday</td><td><time>8:00 AM - 9:00 PM</time></td></tr><tr><td>Saturday</td><td><time>8:00 AM - 9:00 PM</time></td></tr><tr><td>Sunday</td><td><time>9:00 AM - 9:00 PM</time></td></tr></table>"
mypreplocator,1527,KLINIK MABELLO JEROCO,"Lot 4 Wisma Teo, Simpang 3 Jeroco","Batu 13, Jalan Sandakan Lahad Datu",Lahad Datu,Sabah,91110,മലേഷ്യ,5.216878,118.25001,+6013 3978505,,klinikmabellojeroco@gmail.com,https://www.facebook.com/klinikmabello.jeroco,true,true,Walk-in,true,Onsite,"<table role=""presentation"" class=""wpsl-opening-hours""><tr><td>Monday</td><td><time>08:00 - 17:00</time></td></tr><tr><td>Tuesday</td><td><time>08:00 - 17:00</time></td></tr><tr><td>Wednesday</td><td><time>08:00 - 17:00</time></td></tr><tr><td>Thursday</td><td><time>08:00 - 17:00</time></td></tr><tr><td>Friday</td><td><time>08:00 - 17:00</time></td></tr><tr><td>Saturday</td><td><time>08:00 - 17:00</time></td></tr><tr><td>Sunday</td><td><time>08:00 - 17:00</time></td></tr></table>"